{"version": 0.6, "generator": "Overpass API 0.7.62.7 375dc00a", "osm3s": {"timestamp_osm_base": "2025-07-16T09:52:13Z", "copyright": "The data included in this document is from www.openstreetmap.org. The data is made available under ODbL."}, "elements": [{"type": "node", "id": 8221435486, "lat": 40.8474104, "lon": 26.6425565, "tags": {"bus": "yes", "highway": "bus_stop", "public_transport": "platform"}}, {"type": "way", "id": 147952687, "nodes": [1610699127, 1610699581, 3423673534, 1610699133, 4573360187, 1610699925, 4868176088, 4868176090, 4868176089, 1610699097, 4841804673, 4868176087, 4841804674, 4841804672, 4533221896, 4538660997], "tags": {"highway": "residential", "name": "Nazmi Ba\u015far Caddesi", "source": "bing"}}, {"type": "way", "id": 147952728, "nodes": [1610698861, 4447495549, 1610699404, 5166445954, 4834662700, 4833594308, 4834662699, 1610698715, 4447495577, 4834662698, 4834662696, 4834662697, 1610698735], "tags": {"highway": "residential", "source": "DigitalGlobe"}}, {"type": "way", "id": 335251775, "nodes": [3423673528, 4743600769, 5135548352, 4743600768, 5135548353, 5144360826, 5144360827, 3423673529, 3423673531, 3423673530], "tags": {"highway": "residential", "name": "\u00dc\u00e7gen Sokak", "source": "DigitalGlobe"}}, {"type": "way", "id": 370881620, "nodes": [4538660997, 4582167569, 4447495575, 4533221894, 4447495579, 4582167567, 1610698735, 4538660788, 4582156838, 3423673178, 3423673520, 3423673188, 4639285506, 3423673187, 4639285516, 3423673183, 4635918031, 5194199528, 4533314842, 5194199529, 4635918032, 4582156825], "tags": {"highway": "tertiary", "name": "19 Kas\u0131m Caddesi", "source": "bing"}}, {"type": "way", "id": 447676433, "nodes": [4447495551, 4447495571, 4447495572, 4844683884, 4844683883, 4447495574, 4447495575], "tags": {"highway": "residential", "source": "DigitalGlobe"}}, {"type": "way", "id": 447676437, "nodes": [4447495578, 4447495579], "tags": {"highway": "residential", "name": "Demet Sokak", "source": "DigitalGlobe"}}, {"type": "way", "id": 457128390, "nodes": [4533221889, 4533221890, 1610698721], "tags": {"highway": "residential", "name": "\u00c7ak\u0131r Sokak", "source": "DigitalGlobe"}}, {"type": "way", "id": 457128392, "nodes": [4533221893, 4533221897, 4582816836, 4533221895, 4533221894], "tags": {"highway": "residential", "name": "Nazar Sokak", "source": "DigitalGlobe"}}, {"type": "way", "id": 457128393, "nodes": [4533221895, 4582167568, 6937860741, 4533221900, 4533221896, 4533221902, 4743600109, 1610699907], "tags": {"highway": "residential", "name": "Kardelen Sokak", "source": "DigitalGlobe"}}, {"type": "way", "id": 457128394, "nodes": [4533221897, 4533221901, 4841804671, 1610699097], "tags": {"highway": "residential", "name": "Karbeyaz Sokak", "source": "DigitalGlobe"}}, {"type": "way", "id": 457128395, "nodes": [4533221898, 4841804671, 6937860740, 4533221900], "tags": {"highway": "residential", "name": "\u00d6zer Sokak", "source": "DigitalGlobe"}}, {"type": "way", "id": 457128396, "nodes": [4868176086, 4533221901], "tags": {"highway": "residential", "name": "Nasip Sokak", "source": "DigitalGlobe"}}, {"type": "way", "id": 457128398, "nodes": [4533221902, 4533221903], "tags": {"highway": "residential", "name": "\u00d6zlem Sokak", "source": "DigitalGlobe"}}, {"type": "way", "id": 457128401, "nodes": [4533221908, 4533221913, 4533221907, 4533221911, 4582596552, 4852306930, 4533221909, 4833594316, 4533221910], "tags": {"highway": "residential", "source": "DigitalGlobe"}}, {"type": "way", "id": 457302007, "nodes": [4833637113, 3423673509, 4533314843, 5129383577, 1610699060, 3423673511, 1610698842, 3423673515, 1610698776, 4843919123, 3423673184, 3423673517, 3423673185, 3423673518, 5252241859, 3423673191, 4843849715, 5135548355, 4843849716, 4843849713, 5135548356, 4843849714, 5187529532, 4843849712, 3423673521, 3423673182, 4582156830, 3423673530, 1610699748], "tags": {"highway": "residential", "name": "Kalebay\u0131r\u0131 Meydan Sokak", "source": "DigitalGlobe"}}, {"type": "way", "id": 457308216, "nodes": [4538660990, 3423673177, 4538660787, 5187358622, 4534757069, 5187358623, 4639285526, 4534757070, 4534757071, 4534757072, 4534757073], "tags": {"highway": "residential", "name": "Posta Sokak", "source": "DigitalGlobe"}}, {"type": "way", "id": 457767280, "nodes": [4538660788, 4538660990, 4534757084, 4834662701, 4834662702, 1610699404], "tags": {"highway": "residential", "source": "DigitalGlobe"}}, {"type": "way", "id": 457767285, "nodes": [4538660997, 6937860742, 1610699341], "tags": {"highway": "residential"}}, {"type": "way", "id": 459814299, "nodes": [3423673182, 3423673181, 3423673180, 3423673179, 3423673178, 4582156827, 3423673177, 3423673176, 5185090904, 4908797833, 5185090905, 4908797834, 3423673175, 4538660993, 4534757085, 1610698904], "tags": {"highway": "residential", "source": "DigitalGlobe"}}, {"type": "way", "id": 460220690, "nodes": [4558943509, 4558943510, 4558943511, 4558943512, 4558943509], "tags": {"building": "yes"}}, {"type": "way", "id": 460220691, "nodes": [4558943513, 4558943514, 4558943515, 4558943516, 4558943513], "tags": {"building": "yes"}}, {"type": "way", "id": 460220692, "nodes": [4558943517, 4558943518, 4558943519, 5140180888, 5140180890, 5140180891, 4558943520, 5140180889, 4558943517], "tags": {"building": "yes"}}, {"type": "way", "id": 460220693, "nodes": [4558943521, 4558943522, 4558943523, 4558943524, 4558943521], "tags": {"building": "yes"}}, {"type": "way", "id": 460220694, "nodes": [4558943525, 4558943526, 4558943527, 4558943528, 4558943525], "tags": {"building": "yes"}}, {"type": "way", "id": 460220695, "nodes": [4558943529, 4558943530, 4558943531, 6460342296, 6460342295, 4558943532, 6460342294, 6460342293, 4558943529], "tags": {"building": "yes"}}, {"type": "way", "id": 460220696, "nodes": [1610698735, 4582816834, 1610699748], "tags": {"highway": "residential", "name": "Kalebay\u0131r\u0131 13. Sokak", "source": "DigitalGlobe"}}, {"type": "way", "id": 461894812, "nodes": [4573324813, 4573324814, 4573324815, 4573324816, 4573324813], "tags": {"building": "yes"}}, {"type": "way", "id": 461894814, "nodes": [4573324817, 4573324818, 4573324819, 4573324820, 4573324817], "tags": {"building": "yes"}}, {"type": "way", "id": 461894816, "nodes": [4573324821, 4573324822, 4573324823, 4573324824, 4573324821], "tags": {"building": "yes"}}, {"type": "way", "id": 461894818, "nodes": [4573324825, 4573324826, 4573324827, 4573324828, 4573324829, 4573324830, 4573324825], "tags": {"building": "yes"}}, {"type": "way", "id": 461894820, "nodes": [4573324832, 4573324833, 5140180884, 5140180887, 5140180886, 5140180885, 4573324834, 4573324836, 4573324832], "tags": {"building": "yes"}}, {"type": "way", "id": 461894822, "nodes": [4573324837, 4573324838, 4573324839, 4573324840, 4573324837], "tags": {"building": "yes"}}, {"type": "way", "id": 461894824, "nodes": [4573324841, 4573324842, 4573324843, 4573324844, 4573324841], "tags": {"building": "yes"}}, {"type": "way", "id": 461894826, "nodes": [4573324845, 4573324846, 4573324847, 4573324848, 4573324849, 4573324850, 4573324845], "tags": {"building": "yes"}}, {"type": "way", "id": 461895395, "nodes": [4573328226, 4573328227, 4573328228, 4573328229, 4573328226], "tags": {"building": "yes"}}, {"type": "way", "id": 461895396, "nodes": [4573328230, 4573328231, 4573328232, 4573328233, 4573328234, 4573328235, 6460342300, 6460342299, 4573328236, 6460342298, 6460342297, 4573328237, 4573328238, 4573328239, 4573328230], "tags": {"building": "yes"}}, {"type": "way", "id": 461895397, "nodes": [4573328240, 4573328241, 4573328242, 4573328243, 4573328244, 4573328245, 4573328240], "tags": {"building": "yes"}}, {"type": "way", "id": 461895398, "nodes": [4573328246, 4573328247, 4573328248, 4573328249, 4573328246], "tags": {"building": "yes"}}, {"type": "way", "id": 461895399, "nodes": [4573328250, 4573328251, 4573328252, 4573328253, 4573328254, 4573328250], "tags": {"building": "yes"}}, {"type": "way", "id": 461895400, "nodes": [4573328255, 4573328256, 4573328257, 4573328258, 4573328255], "tags": {"building": "yes"}}, {"type": "way", "id": 461895401, "nodes": [4573328259, 5140180902, 5140180904, 5140180905, 5140180903, 4573328260, 5140180909, 5140180910, 5140180911, 5140180908, 4573328261, 4573328262, 5140180907, 5140180913, 5140180912, 5140180906, 4573328259], "tags": {"building": "yes"}}, {"type": "way", "id": 461895402, "nodes": [4573328263, 4573328264, 4573328265, 4573328266, 4573328263], "tags": {"building": "yes"}}, {"type": "way", "id": 461895403, "nodes": [4573328267, 4573328268, 4573328269, 4573328270, 4573328267], "tags": {"building": "yes"}}, {"type": "way", "id": 461895404, "nodes": [4573328271, 4573328272, 4573328273, 4573328274, 4573328271], "tags": {"building": "yes"}}, {"type": "way", "id": 461895405, "nodes": [4573328275, 4573328276, 4573328277, 4573328278, 4573328275], "tags": {"building": "yes"}}, {"type": "way", "id": 461895406, "nodes": [4573328279, 4573328280, 4573328281, 4573328282, 4573328279], "tags": {"building": "yes"}}, {"type": "way", "id": 461897871, "nodes": [4573347788, 4573347889, 4573347890, 4573347891, 4573347788], "tags": {"building": "yes"}}, {"type": "way", "id": 461897872, "nodes": [4573347892, 4573347893, 4573347894, 4573347895, 5144304627, 4573347892], "tags": {"building": "yes"}}, {"type": "way", "id": 461897873, "nodes": [4573347896, 4573347897, 4573347898, 4573347899, 4573347896], "tags": {"building": "yes"}}, {"type": "way", "id": 461897874, "nodes": [4573347900, 4573347901, 4573347902, 4573347903, 4573347900], "tags": {"building": "yes"}}, {"type": "way", "id": 461897875, "nodes": [4573347904, 4573347905, 4573347906, 4573347907, 4573347904], "tags": {"building": "yes"}}, {"type": "way", "id": 461899109, "nodes": [4533221891, 4533221892, 4573360184, 1610699522], "tags": {"highway": "residential", "name": "\u0130lke Sokak", "source": "DigitalGlobe"}}, {"type": "way", "id": 461899110, "nodes": [4573360185, 4573360186, 5144269623, 5144269624, 5144269625, 4533221898], "tags": {"highway": "residential", "name": "\u0130lim Sokak", "source": "DigitalGlobe"}}, {"type": "way", "id": 462888266, "nodes": [4582156830, 4582156831, 5194199521, 4582156832, 4842399852, 4582156833, 4582156834, 4845991236, 4582156835, 4842399853, 4582156837, 4582156838], "tags": {"highway": "residential", "name": "\u0130mren Sokak", "source": "DigitalGlobe"}}, {"type": "way", "id": 462889211, "nodes": [4582167566, 4582816835, 4582167567], "tags": {"highway": "residential", "name": "M\u0131s\u0131r Sokak", "source": "DigitalGlobe"}}, {"type": "way", "id": 462889212, "nodes": [4582167568, 4582167569], "tags": {"highway": "residential", "source": "DigitalGlobe"}}, {"type": "way", "id": 462889214, "nodes": [1610699748, 1610699982, 3423673526, 1610700071, 4573360183, 1610699732, 1610699958], "tags": {"highway": "residential", "name": "Vali Fahri Y\u00fcce Caddesi", "source": "bing"}}, {"type": "way", "id": 462956654, "nodes": [4582816834, 4582816835, 4582816836], "tags": {"highway": "residential", "name": "Narin Sokak", "source": "DigitalGlobe"}}, {"type": "way", "id": 463134967, "nodes": [4584444978, 4584444979, 4584444980, 4584444981, 4584444978], "tags": {"building": "yes"}}, {"type": "way", "id": 463134970, "nodes": [4584444982, 4584444983, 4584444984, 4584444985, 4584444982], "tags": {"building": "yes"}}, {"type": "way", "id": 463134972, "nodes": [4584444986, 4584444987, 4584444988, 4584444989, 4584444986], "tags": {"building": "yes"}}, {"type": "way", "id": 463135035, "nodes": [4584445126, 4584445127, 4584445128, 4584445129, 4584445126], "tags": {"building": "yes"}}, {"type": "way", "id": 463135037, "nodes": [4584445130, 4584445131, 4584445132, 4584445133, 4584445130], "tags": {"building": "yes"}}, {"type": "way", "id": 463135039, "nodes": [4584445134, 4584445135, 6460342303, 6460342301, 6460342302, 6460342304, 4584445136, 4584445137, 4584445134], "tags": {"building": "yes"}}, {"type": "way", "id": 463135041, "nodes": [4584445138, 4936322066, 4936322065, 5135194778, 4584445139, 5135194777, 4584445140, 4584445141, 4584445138], "tags": {"building": "yes"}}, {"type": "way", "id": 463135043, "nodes": [4584445142, 5135194781, 5135194779, 4584445143, 5135194780, 4584445144, 4584445145, 5135194782, 4584445142], "tags": {"building": "yes"}}, {"type": "way", "id": 463135045, "nodes": [4584445146, 4584445147, 4584445148, 4584445149, 4584445146], "tags": {"building": "yes"}}, {"type": "way", "id": 463135048, "nodes": [4584445150, 5144304631, 5144304632, 4584445151, 5144304633, 5144304634, 4584445152, 5144304635, 4584445153, 5144304636, 4584445150], "tags": {"building": "yes"}}, {"type": "way", "id": 463135050, "nodes": [4584445154, 5166445965, 4584445155, 4584445156, 5166445968, 4584445157, 5166445967, 5166445966, 4584445154], "tags": {"building": "yes"}}, {"type": "way", "id": 463135056, "nodes": [4584445171, 4584445172, 4584445173, 4584445174, 4584445171], "tags": {"building": "yes"}}, {"type": "way", "id": 463137277, "nodes": [4584473996, 4584473997, 4584473998, 4584473999, 6460342319, 6460342321, 6460342322, 6460342320, 4584473996], "tags": {"building": "yes"}}, {"type": "way", "id": 465990639, "nodes": [4608867091, 4608867092, 5194199522, 4608867093, 5194199523, 4608867094, 4608867091], "tags": {"building": "yes"}}, {"type": "way", "id": 469417633, "nodes": [4573360187, 4868203046, 4835334955, 4835334956, 4868203048, 4573360188, 4835334957, 4835334954, 6938356575, 4573360389, 4637419452, 4637419453], "tags": {"highway": "residential", "name": "Ali R\u0131za Efendi Sokak", "source": "DigitalGlobe"}}, {"type": "way", "id": 469417634, "nodes": [4637419454, 4637419455, 4637419456, 4637419457, 4637419458, 4637419459, 4637419460, 4637419461, 4637419462, 4637419463, 4637419464, 4637419465, 4637419466, 4637419467, 4637419468, 4637419469, 4637419470, 4637419471, 4637419472, 4637419473, 4637419474, 4637419475, 4637419476, 4637419477, 4637419478, 4637419479, 4637419480, 4637419481, 4637419454], "tags": {"building": "yes"}}, {"type": "way", "id": 469428186, "nodes": [4637517814, 5192376459, 5192376460, 5192376461, 5192376458, 4637517815, 4637517816, 5192376463, 5192376464, 5192376465, 5192376462, 4637517817, 5192376457, 5192376456, 4637517814], "tags": {"building": "yes"}}, {"type": "way", "id": 469428187, "nodes": [4637517818, 4637517819, 4637517820, 4637517821, 5135194783, 5135194784, 4637517818], "tags": {"building": "yes"}}, {"type": "way", "id": 469428188, "nodes": [4637517822, 4637517823, 4637517824, 4637517825, 4637517822], "tags": {"building": "yes"}}, {"type": "way", "id": 469428189, "nodes": [4637517826, 4637517827, 4637517828, 4637517829, 4637517826], "tags": {"building": "yes"}}, {"type": "way", "id": 469428190, "nodes": [4637517830, 5140180880, 5140180878, 5140180882, 5140180883, 5140180881, 4637517831, 4637517832, 5144339926, 5144339928, 5144339927, 5144339925, 4637517833, 5140180879, 4637517830], "tags": {"building": "yes"}}, {"type": "way", "id": 469428191, "nodes": [4637517834, 5135194788, 4637517835, 4637517836, 5135194787, 4637517837, 5135194786, 5135194785, 4637517834], "tags": {"building": "yes"}}, {"type": "way", "id": 469428192, "nodes": [4637517838, 4637517839, 4637517840, 4637517841, 4637517838], "tags": {"building": "yes"}}, {"type": "way", "id": 469428193, "nodes": [4637517842, 4637517843, 4637517844, 4637517845, 4637517842], "tags": {"building": "yes"}}, {"type": "way", "id": 469428194, "nodes": [4637517846, 4637517847, 4637517848, 4637517849, 4637517846], "tags": {"building": "yes"}}, {"type": "way", "id": 469428198, "nodes": [4637517862, 4637517863, 6460342309, 4637517864, 6460342310, 4637517865, 6460342312, 6460342313, 6460342314, 6460342311, 4637517862], "tags": {"building": "yes"}}, {"type": "way", "id": 469428205, "nodes": [4637517986, 4637517987, 4637517988, 4637517989, 4637517990, 4637517991, 4637517992, 4637517993, 4637517994, 4637517995, 4637517996, 4637517997, 4637517998, 4637517999, 4637518000, 4637518001, 4637518002, 4637518003, 4637518004, 4637518005, 4637517986], "tags": {"building": "yes"}}, {"type": "way", "id": 469428206, "nodes": [4637518006, 4637518007, 4637518008, 4637518009, 4637518010, 4637518011, 4637518012, 4637518013, 4637518014, 4637518015, 4637518016, 4637518017, 4637518018, 4637518019, 4637518020, 4637518021, 4637518022, 4637518023, 4637518024, 4637518025, 4637518006], "tags": {"building": "yes"}}, {"type": "way", "id": 469428207, "nodes": [4637518026, 4637518027, 4637518028, 4637518029, 4637518030, 4637518031, 4637518032, 4637518033, 4637518034, 4637518035, 4637518036, 4637518037, 4637518038, 4637518039, 4637518040, 4637518041, 4637518042, 4637518043, 4637518044, 4637518045, 4637518026], "tags": {"building": "yes"}}, {"type": "way", "id": 469428208, "nodes": [4637518046, 4637518047, 4637518048, 4637518049, 4637518050, 4637518051, 4637518052, 4637518053, 4637518054, 4637518055, 4637518056, 4637518057, 4637518058, 4637518059, 4637518060, 4637518061, 4637518062, 4637518063, 4637518064, 4637518065, 4637518046], "tags": {"building": "yes"}}, {"type": "way", "id": 481423188, "nodes": [4743600106, 4743600107, 4743600108, 4743600109], "tags": {"highway": "residential", "name": "\u00d6zt\u00fcrk Sokak", "source": "DigitalGlobe"}}, {"type": "way", "id": 491428208, "nodes": [4835338882, 4835338883, 4835338884, 4835338885, 4835338886, 4835338887, 4835338888, 4835338889, 4835338890, 4835338891, 4835338892, 4835338893, 4835338894, 4835338895, 4835338896, 4835338897, 4835338898, 4835338899, 4835338900, 4835338901, 4835338902, 4835338903, 4835338904, 4835338905, 4835338906, 4835338907, 4835338908, 4835338909, 4835338882], "tags": {"building": "yes"}}, {"type": "way", "id": 492134490, "nodes": [4841804667, 4841804668, 4841804669, 4841804670, 4841804667], "tags": {"building": "yes"}}, {"type": "way", "id": 492192652, "nodes": [4842399844, 4842399845, 4842399846, 4842399847, 4842399844], "tags": {"building": "yes"}}, {"type": "way", "id": 492192653, "nodes": [4842399848, 4842399849, 4842399850, 4842399851, 4842399848], "tags": {"building": "yes"}}, {"type": "way", "id": 492192654, "nodes": [4842399854, 4842399855, 4842399856, 4842399857, 4842399854], "tags": {"building": "yes"}}, {"type": "way", "id": 492192655, "nodes": [4842399858, 4842399859, 4842399860, 4842399861, 4842399858], "tags": {"building": "yes", "frequency": "50", "location": "indoor", "operator": "TREDA\u015e", "power": "substation", "substation": "distribution", "voltage": "34500;380"}}, {"type": "way", "id": 492360041, "nodes": [4843849931, 4843849932, 4843849933, 4843849934, 4843849935, 4843849936, 4843849931], "tags": {"building": "yes"}}, {"type": "way", "id": 492360042, "nodes": [4843849937, 4843849938, 4843849939, 4843849940, 4843849937], "tags": {"building": "yes"}}, {"type": "way", "id": 492360043, "nodes": [4843849941, 4843849942, 4843849943, 4843849944, 4843849941], "tags": {"building": "yes"}}, {"type": "way", "id": 492360044, "nodes": [4843849945, 4843849946, 4843849947, 4843849948, 4843849945], "tags": {"building": "yes"}}, {"type": "way", "id": 492360045, "nodes": [4843849949, 4843849950, 4843849951, 4843849952, 4843849949], "tags": {"building": "yes"}}, {"type": "way", "id": 492381913, "nodes": [4844037265, 4844037266, 4844037267, 4844037268, 4844037265], "tags": {"building": "yes"}}, {"type": "way", "id": 492381914, "nodes": [4844037269, 4844037270, 4844037271, 4844037272, 4844037269], "tags": {"building": "yes"}}, {"type": "way", "id": 492381915, "nodes": [4844037273, 4844037274, 4844037275, 4844037276, 4844037273], "tags": {"building": "yes"}}, {"type": "way", "id": 492381916, "nodes": [4844037277, 4844037278, 6460342316, 6460342317, 6460342318, 6460342315, 4844037279, 4844037280, 4844037277], "tags": {"building": "yes"}}, {"type": "way", "id": 492381917, "nodes": [4844037281, 4844037282, 4844037283, 4844037284, 4844037281], "tags": {"building": "yes"}}, {"type": "way", "id": 492381918, "nodes": [4844037285, 4844037286, 4844037287, 4844037288, 4844037285], "tags": {"building": "yes"}}, {"type": "way", "id": 492381919, "nodes": [4844037289, 4844037290, 6460423030, 6460423032, 6460423031, 6460423029, 4844037291, 6460423025, 6460423028, 4844037292, 6460423027, 6460423026, 4844037289], "tags": {"building": "yes"}}, {"type": "way", "id": 492381920, "nodes": [4844037293, 4844037294, 4844037295, 4844037296, 4844037293], "tags": {"building": "yes"}}, {"type": "way", "id": 492381921, "nodes": [4844037297, 4844037298, 4844037299, 4844037300, 4844037297], "tags": {"building": "yes"}}, {"type": "way", "id": 492382547, "nodes": [4844047165, 4844047166, 4844047167, 4844047168, 4844047165], "tags": {"building": "yes"}}, {"type": "way", "id": 492382548, "nodes": [4844047169, 4844047170, 4844047171, 4844047172, 4844047173, 4844047174, 4844047169], "tags": {"building": "yes"}}, {"type": "way", "id": 492418397, "nodes": [4844383901, 4844383902, 4844383903, 4844383904, 4844383901], "tags": {"building": "yes"}}, {"type": "way", "id": 492418398, "nodes": [4844383905, 4844383906, 4844383907, 4844383908, 4844383905], "tags": {"building": "yes"}}, {"type": "way", "id": 492418598, "nodes": [4844389061, 4844389062, 4844389063, 4844389064, 4844389061], "tags": {"building": "yes"}}, {"type": "way", "id": 492421760, "nodes": [4844402266, 4844402267, 4844402268, 4844402269, 4844402266], "tags": {"building": "yes"}}, {"type": "way", "id": 492421762, "nodes": [4844402270, 4844402271, 6460423038, 6460423039, 6460423040, 6460423037, 4844402272, 4844402273, 6460423033, 6460423036, 6460423035, 6460423034, 4844402270], "tags": {"building": "yes"}}, {"type": "way", "id": 492421764, "nodes": [4844402274, 4844402275, 4844402277, 4844402276, 4844402274], "tags": {"building": "yes"}}, {"type": "way", "id": 492445333, "nodes": [4844683885, 4844683886, 4844683887, 4844683888, 4844683885], "tags": {"building": "yes"}}, {"type": "way", "id": 492445334, "nodes": [4844683889, 4844683890, 4844683891, 4844683892, 4844683889], "tags": {"building": "yes"}}, {"type": "way", "id": 492445335, "nodes": [4844683893, 4844683894, 4844683895, 4844683896, 4844683893], "tags": {"building": "yes"}}, {"type": "way", "id": 492445336, "nodes": [4844683897, 4844683898, 4844683899, 4844683900, 4844683897], "tags": {"building": "yes"}}, {"type": "way", "id": 492445337, "nodes": [4844683901, 4844683902, 4844683903, 4844683904, 5192376447, 5192376448, 5192376449, 5192376446, 4844683901], "tags": {"building": "yes"}}, {"type": "way", "id": 492445338, "nodes": [4844683905, 4844683906, 4844683907, 5192376451, 5192376453, 5192376452, 5192376450, 4844683908, 5192376454, 5192376455, 4844683905], "tags": {"building": "yes"}}, {"type": "way", "id": 492445339, "nodes": [4844683909, 4844683910, 4844683911, 4844683912, 4844683909], "tags": {"building": "yes"}}, {"type": "way", "id": 492445340, "nodes": [4844683913, 4844683914, 4844683915, 4844683916, 4844683913], "tags": {"building": "yes"}}, {"type": "way", "id": 492445341, "nodes": [4844683917, 4844683918, 5148726545, 5148726547, 5148726546, 5148726544, 4844683919, 5148726543, 5148726542, 4844683920, 4844683917], "tags": {"building": "yes"}}, {"type": "way", "id": 492445342, "nodes": [4844683921, 4844683922, 4844683923, 4844683924, 4844683921], "tags": {"building": "yes"}}, {"type": "way", "id": 492445343, "nodes": [4844683925, 4844683926, 4844683927, 4844683928, 4844683925], "tags": {"building": "yes"}}, {"type": "way", "id": 492445344, "nodes": [4844683929, 4844683930, 4844683931, 4844683933, 4844683934, 4844683932, 4844683929], "tags": {"building": "yes"}}, {"type": "way", "id": 492445345, "nodes": [4844683935, 4941309319, 4941309318, 4844683936, 4844683937, 4941309621, 4941309320, 4844683938, 4844683935], "tags": {"building": "yes"}}, {"type": "way", "id": 492445346, "nodes": [4844683939, 4844683940, 4844683941, 4844683942, 4941309624, 4941309623, 4941309622, 4941309625, 4844683939], "tags": {"building": "yes"}}, {"type": "way", "id": 492445348, "nodes": [4844683947, 4844683948, 4844683949, 4844683950, 4844683947], "tags": {"building": "yes"}}, {"type": "way", "id": 492445349, "nodes": [4844683951, 4844683952, 6460342307, 4844683953, 6460342306, 6460342305, 6460342308, 4844683954, 4844683951], "tags": {"building": "yes"}}, {"type": "way", "id": 492445350, "nodes": [4844683955, 4844683956, 4844683957, 4844683958, 4844683955], "tags": {"building": "yes"}}, {"type": "way", "id": 492445351, "nodes": [4844683959, 4844683960, 5187539766, 5187539767, 4844683961, 4844683962, 4844683959], "tags": {"building": "yes"}}, {"type": "way", "id": 492445352, "nodes": [4844683963, 4844683964, 4844683965, 4844683966, 4844683963], "tags": {"building": "yes"}}, {"type": "way", "id": 492608904, "nodes": [4845991237, 4845991238, 4845991239, 4845991240, 4845991237], "tags": {"building": "yes"}}, {"type": "way", "id": 492608907, "nodes": [4845991245, 4845991246, 4845991247, 4845991248, 4845991245], "tags": {"building": "yes"}}, {"type": "way", "id": 492608909, "nodes": [4845991249, 4845991250, 5167569097, 4845991251, 5167569098, 4845991252, 4941309317, 4941309316, 4845991249], "tags": {"building": "yes"}}, {"type": "way", "id": 492608910, "nodes": [4845991253, 4845991254, 5187358676, 5187358678, 5187358679, 5187358677, 4845991255, 4845991256, 5187358681, 5187358683, 5187358682, 5187358680, 4845991253], "tags": {"building": "yes"}}, {"type": "way", "id": 492608912, "nodes": [4845991257, 4845991258, 4845991259, 5167569103, 5167569106, 5167569105, 5167569104, 4845991260, 4845991257], "tags": {"building": "yes"}}, {"type": "way", "id": 492608914, "nodes": [4845991261, 4845991262, 4845991263, 4845991264, 4845991261], "tags": {"building": "yes"}}, {"type": "way", "id": 492608916, "nodes": [4845991265, 4845991266, 4845991267, 4845991268, 4845991265], "tags": {"building": "yes"}}, {"type": "way", "id": 492608917, "nodes": [4845991269, 4845991270, 4845991271, 5187358675, 4845991272, 5187358674, 4845991269], "tags": {"building": "yes"}}, {"type": "way", "id": 492667012, "nodes": [4846545548, 4846545549, 4846545550], "tags": {"highway": "service", "source": "DigitalGlobe"}}, {"type": "way", "id": 492681284, "nodes": [4846680558, 4846680559, 4846680560, 4846680561, 4846680558], "tags": {"building": "yes"}}, {"type": "way", "id": 492681285, "nodes": [4846680562, 4846680563, 4846680564, 4846680565, 4846680562], "tags": {"building": "yes"}}, {"type": "way", "id": 492681286, "nodes": [4846680566, 4846680567, 4846680568, 4846680569, 4846680566], "tags": {"building": "yes"}}, {"type": "way", "id": 492681287, "nodes": [4846680570, 4846680571, 4846680572, 4846680573, 4846680574, 4846680575, 4846680576, 4846680577, 4846680570], "tags": {"building": "yes"}}, {"type": "way", "id": 492681288, "nodes": [4846680578, 4846680579, 4846680580, 4846680581, 4846680578], "tags": {"building": "yes"}}, {"type": "way", "id": 492681289, "nodes": [4846680582, 4846680583, 4846680584, 4846680585, 4846680582], "tags": {"building": "yes"}}, {"type": "way", "id": 492681290, "nodes": [4846680586, 4846680587, 4846680588, 4846680589, 4846680590, 4846680591, 4846680592, 4846680593, 6337695717, 6337695718, 4846680586], "tags": {"building": "yes"}}, {"type": "way", "id": 493299550, "nodes": [4852236134, 4852236135, 4852236136, 4852236137, 4852236134], "tags": {"building": "yes"}}, {"type": "way", "id": 493299551, "nodes": [4852236138, 4852236139, 4852236140, 4852236141, 4852236138], "tags": {"building": "yes"}}, {"type": "way", "id": 493299552, "nodes": [4852236142, 4852236143, 4852236144, 4852236145, 4852236146, 4852236147, 4852236142], "tags": {"building": "yes"}}, {"type": "way", "id": 493299553, "nodes": [4852236148, 4852236149, 4852236150, 4852236151, 4852236148], "tags": {"building": "yes"}}, {"type": "way", "id": 493299554, "nodes": [4852236152, 4852236153, 4852236154, 4852236155, 4852236152], "tags": {"building": "yes"}}, {"type": "way", "id": 493299555, "nodes": [4852236156, 4852236157, 4852236158, 4852236159, 4852236156], "tags": {"building": "yes"}}, {"type": "way", "id": 495034404, "nodes": [4868176058, 4868176059, 4868176060, 4868176061, 4868176058], "tags": {"building": "yes"}}, {"type": "way", "id": 495034405, "nodes": [4868176062, 4868176063, 4868176064, 4868176065, 4868176062], "tags": {"building": "yes"}}, {"type": "way", "id": 495034406, "nodes": [4868176066, 4868176067, 4868176068, 4868176069, 4868176066], "tags": {"building": "yes"}}, {"type": "way", "id": 495034407, "nodes": [4868176070, 4868176071, 4868176072, 4868176073, 4868176070], "tags": {"building": "yes"}}, {"type": "way", "id": 495034408, "nodes": [4868176074, 4868176075, 4868176076, 4868176077, 4868176078, 4868176079, 4868176081, 4868176080, 4868176074], "tags": {"building": "yes"}}, {"type": "way", "id": 495034409, "nodes": [4868176082, 4868176083, 4868176084, 4868176085, 4868176082], "tags": {"building": "yes"}}, {"type": "way", "id": 495035826, "nodes": [4868203045, 4868203046], "tags": {"highway": "service"}}, {"type": "way", "id": 495035828, "nodes": [4868203047, 4868203048], "tags": {"highway": "service"}}, {"type": "way", "id": 499670139, "nodes": [4909146443, 5135194753, 5135194755, 5135194756, 5135194754, 4909146444, 4909146445, 4909146446, 4909146447, 4909146448, 4909146449, 4909146443], "tags": {"building": "yes"}}, {"type": "way", "id": 500794012, "nodes": [4917694512, 4917694513, 4917694514, 4917694515, 4917694512], "tags": {"building": "yes"}}, {"type": "way", "id": 500794014, "nodes": [4917694516, 4917694517, 4917694518, 4917694519, 4917694516], "tags": {"building": "yes"}}, {"type": "way", "id": 500795270, "nodes": [4917714064, 4917714065, 4917714066, 4917714067, 4917714064], "tags": {"building": "yes"}}, {"type": "way", "id": 500795271, "nodes": [4917714068, 4917714069, 4917714070, 4917714071, 4917714068], "tags": {"building": "yes"}}, {"type": "way", "id": 500795272, "nodes": [4917714072, 4917714073, 4917714074, 4917714075, 4917714072], "tags": {"building": "yes"}}, {"type": "way", "id": 500795273, "nodes": [4917714076, 4917714077, 4917714078, 4917714079, 4917714076], "tags": {"building": "yes"}}, {"type": "way", "id": 500795274, "nodes": [4917714080, 4917714081, 4917714082, 4917714083, 4917714080], "tags": {"building": "yes"}}, {"type": "way", "id": 500795275, "nodes": [4917714084, 4917714085, 4917714086, 4917714087, 4917714084], "tags": {"building": "yes"}}, {"type": "way", "id": 503296867, "nodes": [4936322043, 4936322044, 4936322045, 4936322046, 4936322047, 4936322048, 4936322043], "tags": {"building": "yes"}}, {"type": "way", "id": 503296868, "nodes": [4936322049, 4936322050, 4936322051, 4936322052, 4936322053, 4936322054, 4936322055, 4936322056, 4936322057, 4936322058, 4936322059, 4936322060, 4936322049], "tags": {"building": "yes"}}, {"type": "way", "id": 503296869, "nodes": [4936322061, 4936322062, 4936322063, 4936322064, 4936322061], "tags": {"building": "yes"}}, {"type": "way", "id": 503296870, "nodes": [4936322067, 4936322068, 4936322069, 4936322070, 4936322067], "tags": {"building": "yes"}}, {"type": "way", "id": 503296871, "nodes": [4936322071, 4936322072, 4936322073, 4936322074, 4936322075, 4936322076, 4936322071], "tags": {"building": "yes"}}, {"type": "way", "id": 503885306, "nodes": [4941309282, 4941309283, 4941309284, 4941309285, 4941309282], "tags": {"building": "yes"}}, {"type": "way", "id": 503885307, "nodes": [4941309286, 4941309287, 4941309288, 4941309289, 4941309290, 4941309291, 4941309286], "tags": {"building": "yes"}}, {"type": "way", "id": 503885308, "nodes": [4941309292, 4941309293, 4941309294, 4941309295, 4941309292], "tags": {"building": "yes"}}, {"type": "way", "id": 503885309, "nodes": [4941309296, 4941309297, 4941309298, 4941309299, 4941309296], "tags": {"building": "yes"}}, {"type": "way", "id": 503885310, "nodes": [4941309300, 4941309301, 4941309302, 4941309303, 4941309304, 4941309305, 4941309300], "tags": {"building": "yes"}}, {"type": "way", "id": 503885311, "nodes": [4941309306, 4941309307, 4941309308, 4941309309, 4941309310, 4941309311, 4941309306], "tags": {"building": "yes"}}, {"type": "way", "id": 503885312, "nodes": [4941309312, 4941309313, 4941309314, 4941309315, 4941309312], "tags": {"building": "yes"}}, {"type": "way", "id": 527651858, "nodes": [5129383578, 5129383579, 5129383580, 5129383581, 5129383582, 5129383583, 5129383584, 5129383585, 5129383586, 5129383587, 5129383578], "tags": {"building": "yes"}}, {"type": "way", "id": 527651859, "nodes": [5129383588, 5129383589, 5129383590, 5129383591, 5129383592, 5129383593, 5129383594, 5129383595, 5129383596, 5129383597, 5129383588], "tags": {"building": "yes"}}, {"type": "way", "id": 527651860, "nodes": [5129383598, 5129383599, 5129383600, 5129383601, 5129383602, 5129383603, 5129383604, 5129383605, 5129383598], "tags": {"building": "yes"}}, {"type": "way", "id": 527651861, "nodes": [5129383606, 5129383607, 5129383608, 5129383609, 5129383610, 5129383611, 5129383606], "tags": {"building": "yes"}}, {"type": "way", "id": 527651862, "nodes": [5129383612, 5129383613, 5129383614, 5129383615, 5129383616, 5129383617, 5129383618, 5129383619, 5129383612], "tags": {"building": "yes"}}, {"type": "way", "id": 527651863, "nodes": [5129383620, 5129384421, 5187358669, 5129384422, 5187358668, 5187358667, 5187358670, 5187358671, 5187358672, 5187358673, 5129384423, 5187358666, 5129383620], "tags": {"building": "yes"}}, {"type": "way", "id": 527651864, "nodes": [5129384424, 5187358662, 5187358664, 5187358665, 5187358663, 5129384425, 5129384426, 5129384427, 5129384424], "tags": {"building": "yes"}}, {"type": "way", "id": 527651865, "nodes": [5129384428, 5129384429, 5129384430, 5129384431, 5129384432, 5129384433, 5129384428], "tags": {"building": "yes"}}, {"type": "way", "id": 528416581, "nodes": [5135194747, 5135194748, 5135194749, 5135194750, 5135194751, 5135194752, 5135194747], "tags": {"building": "yes"}}, {"type": "way", "id": 528416584, "nodes": [5135194789, 5135194790, 5135194791, 5135194792, 5135194793, 5135194794, 5135194789], "tags": {"building": "yes"}}, {"type": "way", "id": 528465706, "nodes": [5135548340, 5135548341, 5135548342, 5135548343, 5135548344, 5135548345, 5135548346, 5135548347, 5135548340], "tags": {"building": "yes"}}, {"type": "way", "id": 528465711, "nodes": [5135548377, 5135548378, 5135548379, 5135548380, 5135548377], "tags": {"building": "yes"}}, {"type": "way", "id": 528488343, "nodes": [5135700825, 5135700826, 5135700827, 5135700828, 5135700829, 5135700830, 5135700831, 5135700832, 5135700825], "tags": {"building": "yes"}}, {"type": "way", "id": 528488345, "nodes": [5135700833, 5135700834, 5135700835, 5135700836, 5135700833], "tags": {"building": "yes"}}, {"type": "way", "id": 528488348, "nodes": [5135700837, 5135700838, 5135700839, 5135700840, 5135700837], "tags": {"building": "yes"}}, {"type": "way", "id": 528907272, "nodes": [5138725444, 5138725445, 5138725454, 5138725446, 5138725447, 5138725448, 5138725458, 5138725449, 5138725450, 5138725451, 5138725452, 5138725453, 5138725444], "tags": {"building": "yes"}}, {"type": "way", "id": 528907273, "nodes": [5138725454, 5138725455, 5138725456, 5138725457, 5138725458, 5138725448, 5138725447, 5138725446, 5138725454], "tags": {"building": "yes"}}, {"type": "way", "id": 528907274, "nodes": [5138725459, 5138725460, 5138725461, 5138725462, 5138725459], "tags": {"building": "yes"}}, {"type": "way", "id": 529062326, "nodes": [5140180892, 5140180893, 5140180894, 5140180895, 5140180896, 5140180897, 5140180898, 5140180899, 5140180900, 5140180901, 5140180892], "tags": {"building": "yes"}}, {"type": "way", "id": 529593417, "nodes": [5144303448, 5144303449, 5144303450, 5144303451, 5144303452, 5144303453, 5144303448], "tags": {"building": "yes"}}, {"type": "way", "id": 529593418, "nodes": [5144303449, 5144303454, 5144303455, 5144303450, 5144303449], "tags": {"building": "yes"}}, {"type": "way", "id": 529593419, "nodes": [5144303456, 5144303457, 5144303458, 5144303459, 5144303456], "tags": {"building": "yes"}}, {"type": "way", "id": 529593422, "nodes": [5144303476, 5144303482, 5144303477, 5144303478, 5144303479, 5144303480, 5144303481, 5144303476], "tags": {"building": "yes"}}, {"type": "way", "id": 529593423, "nodes": [5144303482, 5144303483, 5144303484, 5144303485, 5144303486, 5144303477, 5144303482], "tags": {"building": "yes"}}, {"type": "way", "id": 529593424, "nodes": [5144303487, 5144303497, 5144303488, 5144303489, 5144303490, 5144303491, 5144303492, 5144303493, 5144303494, 5144303495, 5144303496, 5144303487], "tags": {"building": "yes"}}, {"type": "way", "id": 529593425, "nodes": [5144303497, 5144303498, 5144303499, 5144303500, 5144303488, 5144303497], "tags": {"building": "yes"}}, {"type": "way", "id": 529593426, "nodes": [5144303501, 5144303502, 5144303503, 5144303504, 5144303501], "tags": {"building": "yes", "building:levels": "1"}}, {"type": "way", "id": 529593427, "nodes": [5144303505, 5144303506, 5144303507, 5144303508, 5144303505], "tags": {"building": "yes"}}, {"type": "way", "id": 529593428, "nodes": [5144303509, 5144303510, 5144303511, 5144303512, 5144303513, 5144303514, 5144303515, 5144303516, 5144303509], "tags": {"building": "yes"}}, {"type": "way", "id": 529593429, "nodes": [5144303517, 5144303518, 5144303519, 5144303520, 5144304621, 5144304622, 5144304623, 5144304624, 5144304625, 5144304626, 5144303517], "tags": {"building": "yes"}}, {"type": "way", "id": 529593430, "nodes": [5144304627, 5144304628, 5144304629, 5144304630, 5144304627], "tags": {"building": "yes"}}, {"type": "way", "id": 530139800, "nodes": [5148726548, 5148726549, 5148726550, 5148726551, 5148726548], "tags": {"building": "yes"}}, {"type": "way", "id": 530139801, "nodes": [5148726552, 5148726553, 5148726554, 5148726555, 5148726552], "tags": {"building": "yes"}}, {"type": "way", "id": 530139802, "nodes": [5148726556, 5148726557, 5148726558, 5148726559, 5148726556], "tags": {"building": "yes"}}, {"type": "way", "id": 530139803, "nodes": [5148726560, 5148726561, 5148726562, 5148726563, 5148726560], "tags": {"building": "yes"}}, {"type": "way", "id": 530139804, "nodes": [5148726564, 5148726565, 5148726566, 5148726567, 5148726568, 5148726569, 5148726570, 5148726571, 5148726572, 5148726564], "tags": {"building": "yes"}}, {"type": "way", "id": 530139805, "nodes": [5148726573, 5148726574, 5148726575, 5148726576, 5148726577, 5148726578, 5148726573], "tags": {"building": "yes"}}, {"type": "way", "id": 530139806, "nodes": [5148726579, 5148726580, 5148726581, 5148726582, 5148726583, 5148726584, 5148726579], "tags": {"building": "yes"}}, {"type": "way", "id": 532418448, "nodes": [5166445955, 5166445956, 5166445957, 5166445958, 5166445959, 5166445960, 5166445961, 5166445962, 5166445963, 5166445964, 5166445955], "tags": {"building": "yes"}}, {"type": "way", "id": 532555329, "nodes": [5167565845, 5167565846, 5167565847, 5167565848, 5167565845], "tags": {"building": "yes"}}, {"type": "way", "id": 532555659, "nodes": [5167569099, 5167569100, 5167569101, 5167569102, 5167569099], "tags": {"building": "yes"}}, {"type": "way", "id": 532555660, "nodes": [5167569107, 5167569108, 5167569109, 5167569110, 5167569111, 5167569112, 5167569107], "tags": {"building": "yes"}}, {"type": "way", "id": 532555661, "nodes": [5167569113, 5167569114, 5167569115, 5167569116, 5167676182, 5167676183, 5167676176, 5167569113], "tags": {"building": "yes"}}, {"type": "way", "id": 532570731, "nodes": [5167676176, 5167676177, 5167676178, 5167676179, 5167676180, 5167676181, 5167676182, 5167676183, 5167676176], "tags": {"building": "yes"}}, {"type": "way", "id": 532570732, "nodes": [5167676184, 5167676185, 5167676186, 5167676187, 5167676184], "tags": {"building": "yes"}}, {"type": "way", "id": 533285443, "nodes": [5173953405, 5173953406, 5173953407, 5173953408, 5173953405], "tags": {"building": "yes"}}, {"type": "way", "id": 533285444, "nodes": [5173953409, 5173953410, 5173953411, 5173953412, 5173953409], "tags": {"building": "yes"}}, {"type": "way", "id": 533285445, "nodes": [5173953413, 5173953414, 5173953415, 5173953416, 5173953413], "tags": {"building": "yes"}}, {"type": "way", "id": 533285446, "nodes": [5173953417, 5173953418, 5173953419, 5173953420, 5173953417], "tags": {"building": "yes"}}, {"type": "way", "id": 533285447, "nodes": [5173955521, 5173955522, 5173955523, 5173955524, 5173955521], "tags": {"building": "yes"}}, {"type": "way", "id": 533285448, "nodes": [5173955525, 5173955526, 5173955527, 5173955528, 5173955525], "tags": {"building": "yes"}}, {"type": "way", "id": 533285449, "nodes": [5173955529, 5173955530, 5173955531, 5173955532, 5173955533, 5173955534, 5173955535, 5173955536, 5173955529], "tags": {"building": "yes"}}, {"type": "way", "id": 535047508, "nodes": [5187358630, 5187358631, 5187358632, 5187358633, 5187358634, 5187358635, 5187358636, 5187358637, 5187358638, 5187358639, 5187358630], "tags": {"building": "yes"}}, {"type": "way", "id": 535047509, "nodes": [5187358640, 5187358641, 5187358642, 5187358643, 5187358644, 5187358645, 5187358646, 5187358647, 5187358648, 5187358649, 5187358650, 5187358651, 5187358640], "tags": {"building": "yes"}}, {"type": "way", "id": 535047510, "nodes": [5187358652, 5187358653, 5187358654, 5187358655, 5187358656, 5187358657, 5187358658, 5187358659, 5187358660, 5187358661, 5187358652], "tags": {"building": "yes"}}, {"type": "way", "id": 535047511, "nodes": [5187358684, 5187358685, 5187358686, 5187358687, 5187358688, 5187358689, 5187358684], "tags": {"building": "yes"}}, {"type": "way", "id": 535069990, "nodes": [5187539722, 5187539723, 5187539724, 5187539725, 5187539722], "tags": {"building": "yes"}}, {"type": "way", "id": 535069991, "nodes": [5187539726, 5187539727, 5187539728, 5187539729, 5187539730, 5187539731, 5187539726], "tags": {"building": "yes"}}, {"type": "way", "id": 535069992, "nodes": [5187539732, 5187539733, 5187539734, 5187539735, 5187539736, 5187539737, 5187539738, 5187539739, 5187539740, 5187539741, 5187539732], "tags": {"building": "yes"}}, {"type": "way", "id": 535069993, "nodes": [5187539742, 5187539743, 5187539744, 5187539745, 5187539746, 5187539747, 5187539748, 5187539749, 5187539742], "tags": {"building": "yes"}}, {"type": "way", "id": 535069994, "nodes": [5187539750, 5187539751, 5187539752, 5187539753, 5187539750], "tags": {"building": "yes"}}, {"type": "way", "id": 535069995, "nodes": [5187539754, 5187539755, 5187539756, 5187539757, 5187539758, 5187539759, 5187539760, 5187539761, 5187539754], "tags": {"building": "yes"}}, {"type": "way", "id": 535069996, "nodes": [5187539762, 5187539763, 5187539764, 5187539765, 5187539762], "tags": {"building": "yes"}}, {"type": "way", "id": 535825065, "nodes": [5192376426, 5192376427, 5192376428, 5192376429, 5192376430, 5192376431, 5192376426], "tags": {"building": "yes"}}, {"type": "way", "id": 535825066, "nodes": [5192376432, 5192376433, 5192376434, 5192376435, 5192376436, 5192376437, 5192376438, 5192376439, 5192376440, 5192376441, 5192376432], "tags": {"building": "yes"}}, {"type": "way", "id": 535825067, "nodes": [5192376442, 5192376443, 5192376444, 5192376445, 5192376442], "tags": {"building": "yes"}}, {"type": "way", "id": 543314232, "nodes": [5252241823, 5252241824, 5252241825, 5252241826, 5252241823], "tags": {"building": "yes"}}, {"type": "way", "id": 543314233, "nodes": [5252241827, 5252241828, 5252241829, 5252241830, 5252241827], "tags": {"building": "yes"}}, {"type": "way", "id": 543314234, "nodes": [5252241831, 5252241832, 5252241833, 5252241834, 5252241831], "tags": {"building": "yes"}}, {"type": "way", "id": 543314235, "nodes": [5252241835, 5252241836, 5252241837, 5252241838, 5252241839, 5252241840, 5252241835], "tags": {"building": "yes"}}, {"type": "way", "id": 543314236, "nodes": [5252241841, 5252241842, 5252241843, 5252241844, 5252241841], "tags": {"building": "yes"}}, {"type": "way", "id": 563671540, "nodes": [5431665283, 5431665284, 5431665285, 5431665286, 5431665287, 5431665288, 5431665289, 5431665290, 5431665283], "tags": {"building": "yes"}}, {"type": "way", "id": 614589765, "nodes": [5813449334, 5813449335, 5813449336, 5813449337, 5813449338, 5813449339, 5813449334], "tags": {"building": "yes"}}, {"type": "way", "id": 614589767, "nodes": [5813449340, 5813449341, 5813449342, 5813449343, 5813449344, 5813449345, 5813449346, 5813449347, 5813449340], "tags": {"building": "yes"}}, {"type": "way", "id": 614589769, "nodes": [5813449348, 5813449349, 5813449350, 5813449351, 5813449348], "tags": {"building": "yes"}}, {"type": "way", "id": 614589771, "nodes": [5813449352, 5813451753, 5813451754, 5813451755, 5813449352], "tags": {"building": "yes"}}, {"type": "way", "id": 676936510, "nodes": [6338807490, 6338807491, 6338807492, 6338807493, 6338807494, 6338807495, 6338807490], "tags": {"building": "yes"}}, {"type": "way", "id": 676936511, "nodes": [6338807496, 6338807497, 6338807498, 6338807499, 6338807496], "tags": {"building": "yes"}}, {"type": "way", "id": 741113889, "nodes": [1610699133, 4573360186, 4533221892, 4533221890, 1610700071], "tags": {"highway": "residential", "name": "Sancar Sokak"}}, {"type": "way", "id": 741113891, "nodes": [4556316294, 4533221910, 1610699678, 4743600110, 3745533960, 6307483079, 1610699907, 4833594314, 4833594315, 7078311115, 1610699341, 4833594313, 4833594311, 4833594312, 1610699742, 7078311087, 1610699040, 4902864353, 4743600115, 4743600113, 4743600112, 1610699861], "tags": {"highway": "residential", "name": "Millet Caddesi", "source": "DigitalGlobe"}}, {"type": "way", "id": 741113892, "nodes": [1610699748, 4582167566, 1610698721, 4533221893, 4533221891, 4868176086, 4533221898, 1610699925, 4533221903, 4743600106, 6938356579, 6938356578, 4556316294, 5976101382, 4833637085, 6938356580, 2313378429, 4743600763, 4743600760, 4743600761, 4743600762, 1610699821, 4852268526, 3745533951, 4582596551, 3745533949, 3745533947, 3745533946, 4844383897, 4833637082, 7078311091, 6938356581, 4833637083, 4844383898, 3745533943, 7078311096, 3745533936, 4833637084, 4743600737, 4843849720, 4835527859, 4743600739, 7078311100, 4743600736, 4743600740, 3213712664, 4743600742, 6542289075, 3213712665, 5135194802, 3213712666, 5190450995, 6542289079, 3213712667, 4743600733, 5135194801, 4743600735, 4743600734, 4743600732, 3213712668, 4898411508, 3213712669, 4898411515, 6537958936, 3213712671, 4835527862, 4835527861, 4835527860, 5126779752, 1610698899], "tags": {"highway": "tertiary", "name": "Dr. Ali \u0130hsan \u00c7uhac\u0131 Caddesi", "source": "DigitalGlobe;bing"}}, {"type": "way", "id": 765287038, "nodes": [7147765920, 7147765921, 7147765922, 7147765923, 7147765920], "tags": {"building": "yes"}}, {"type": "node", "id": 1610699732, "lat": 40.8437328, "lon": 26.6399587}, {"type": "node", "id": 1610699958, "lat": 40.8432686, "lon": 26.6395119}, {"type": "node", "id": 1610698721, "lat": 40.8451034, "lon": 26.6419709}, {"type": "node", "id": 1610699097, "lat": 40.8452406, "lon": 26.6442839}, {"type": "node", "id": 1610699127, "lat": 40.8419066, "lon": 26.6414535}, {"type": "node", "id": 1610699133, "lat": 40.8433717, "lon": 26.6428508}, {"type": "node", "id": 1610699522, "lat": 40.8427193, "lon": 26.6404759}, {"type": "node", "id": 1610699581, "lat": 40.8420387, "lon": 26.6415979}, {"type": "node", "id": 1610699678, "lat": 40.8450465, "lon": 26.64623}, {"type": "node", "id": 1610699821, "lat": 40.8424995, "lon": 26.6463905}, {"type": "node", "id": 1610699925, "lat": 40.8443566, "lon": 26.6437835}, {"type": "node", "id": 1610699982, "lat": 40.8452838, "lon": 26.6413714}, {"type": "node", "id": 1610700071, "lat": 40.8444284, "lon": 26.6406463}, {"type": "node", "id": 2313378429, "lat": 40.8428809, "lon": 26.6459223}, {"type": "node", "id": 3423673526, "lat": 40.8445845, "lon": 26.6408016}, {"type": "node", "id": 3423673534, "lat": 40.8425448, "lon": 26.6420858}, {"type": "node", "id": 3745533951, "lat": 40.842299, "lon": 26.6469161}, {"type": "node", "id": 3745533960, "lat": 40.8452092, "lon": 26.6463478}, {"type": "node", "id": 4533221889, "lat": 40.8434417, "lon": 26.6404771}, {"type": "node", "id": 4533221890, "lat": 40.8442004, "lon": 26.6411571}, {"type": "node", "id": 4533221891, "lat": 40.8448555, "lon": 26.6425243}, {"type": "node", "id": 4533221892, "lat": 40.843944, "lon": 26.6417131}, {"type": "node", "id": 4533221893, "lat": 40.8449252, "lon": 26.642368}, {"type": "node", "id": 4533221898, "lat": 40.8446153, "lon": 26.6431765}, {"type": "node", "id": 4533221903, "lat": 40.8441716, "lon": 26.6443027}, {"type": "node", "id": 4533221909, "lat": 40.8440057, "lon": 26.6463931}, {"type": "node", "id": 4533221910, "lat": 40.8441921, "lon": 26.6456843}, {"type": "node", "id": 4556316294, "lat": 40.8437282, "lon": 26.6453514}, {"type": "node", "id": 4558943509, "lat": 40.8446227, "lon": 26.644397}, {"type": "node", "id": 4558943510, "lat": 40.8445709, "lon": 26.6445313}, {"type": "node", "id": 4558943511, "lat": 40.8446534, "lon": 26.6445869}, {"type": "node", "id": 4558943512, "lat": 40.8447052, "lon": 26.6444526}, {"type": "node", "id": 4558943513, "lat": 40.8446012, "lon": 26.6443907}, {"type": "node", "id": 4558943514, "lat": 40.8445535, "lon": 26.6445238}, {"type": "node", "id": 4558943515, "lat": 40.844469, "lon": 26.6444709}, {"type": "node", "id": 4558943516, "lat": 40.8445167, "lon": 26.6443378}, {"type": "node", "id": 4558943517, "lat": 40.8448358, "lon": 26.6442377}, {"type": "node", "id": 4558943518, "lat": 40.8447766, "lon": 26.6444129}, {"type": "node", "id": 4558943519, "lat": 40.8448603, "lon": 26.6444623}, {"type": "node", "id": 4558943520, "lat": 40.8448715, "lon": 26.6442786}, {"type": "node", "id": 4558943521, "lat": 40.8450602, "lon": 26.6443986}, {"type": "node", "id": 4558943522, "lat": 40.8450044, "lon": 26.6445792}, {"type": "node", "id": 4558943523, "lat": 40.8450768, "lon": 26.6446182}, {"type": "node", "id": 4558943524, "lat": 40.8451325, "lon": 26.6444376}, {"type": "node", "id": 4573324832, "lat": 40.8449071, "lon": 26.6444836}, {"type": "node", "id": 4573324833, "lat": 40.8449612, "lon": 26.6445154}, {"type": "node", "id": 4573324834, "lat": 40.8450115, "lon": 26.6443667}, {"type": "node", "id": 4573324836, "lat": 40.8449572, "lon": 26.6443348}, {"type": "node", "id": 4573324837, "lat": 40.8452144, "lon": 26.6451401}, {"type": "node", "id": 4573324838, "lat": 40.8451455, "lon": 26.6450983}, {"type": "node", "id": 4573324839, "lat": 40.8450863, "lon": 26.6452689}, {"type": "node", "id": 4573324840, "lat": 40.8451552, "lon": 26.6453107}, {"type": "node", "id": 4573328241, "lat": 40.8452777, "lon": 26.6456186}, {"type": "node", "id": 4573328242, "lat": 40.8452059, "lon": 26.6455686}, {"type": "node", "id": 4573328243, "lat": 40.8452253, "lon": 26.6455201}, {"type": "node", "id": 4573328244, "lat": 40.8452128, "lon": 26.6455114}, {"type": "node", "id": 4573328245, "lat": 40.8452464, "lon": 26.6454272}, {"type": "node", "id": 4573328247, "lat": 40.8453207, "lon": 26.6456484}, {"type": "node", "id": 4573328250, "lat": 40.8450295, "lon": 26.6459017}, {"type": "node", "id": 4573328251, "lat": 40.845125, "lon": 26.6459678}, {"type": "node", "id": 4573328252, "lat": 40.845062, "lon": 26.6461266}, {"type": "node", "id": 4573328253, "lat": 40.8449863, "lon": 26.6460741}, {"type": "node", "id": 4573328254, "lat": 40.8450027, "lon": 26.6459694}, {"type": "node", "id": 4573328255, "lat": 40.8444199, "lon": 26.6445974}, {"type": "node", "id": 4573328256, "lat": 40.8443727, "lon": 26.6447329}, {"type": "node", "id": 4573328257, "lat": 40.8444412, "lon": 26.6447745}, {"type": "node", "id": 4573328258, "lat": 40.8444883, "lon": 26.644639}, {"type": "node", "id": 4573328259, "lat": 40.8447691, "lon": 26.6437295}, {"type": "node", "id": 4573328260, "lat": 40.8447046, "lon": 26.6438989}, {"type": "node", "id": 4573328261, "lat": 40.8444954, "lon": 26.6437685}, {"type": "node", "id": 4573328262, "lat": 40.8445583, "lon": 26.6435931}, {"type": "node", "id": 4573328263, "lat": 40.8451273, "lon": 26.6430166}, {"type": "node", "id": 4573328264, "lat": 40.8451998, "lon": 26.6430595}, {"type": "node", "id": 4573328265, "lat": 40.845239, "lon": 26.6429438}, {"type": "node", "id": 4573328266, "lat": 40.8451665, "lon": 26.642901}, {"type": "node", "id": 4573328267, "lat": 40.845079, "lon": 26.6425911}, {"type": "node", "id": 4573328268, "lat": 40.8450454, "lon": 26.6426879}, {"type": "node", "id": 4573328269, "lat": 40.8451382, "lon": 26.6427442}, {"type": "node", "id": 4573328270, "lat": 40.8451718, "lon": 26.6426475}, {"type": "node", "id": 4573328271, "lat": 40.8451097, "lon": 26.6432625}, {"type": "node", "id": 4573328272, "lat": 40.8450607, "lon": 26.643401}, {"type": "node", "id": 4573328273, "lat": 40.8449599, "lon": 26.6433387}, {"type": "node", "id": 4573328274, "lat": 40.8450088, "lon": 26.6432002}, {"type": "node", "id": 4573328277, "lat": 40.8452938, "lon": 26.6435344}, {"type": "node", "id": 4573347788, "lat": 40.8437636, "lon": 26.6428725}, {"type": "node", "id": 4573347889, "lat": 40.8436788, "lon": 26.6430157}, {"type": "node", "id": 4573347890, "lat": 40.8436108, "lon": 26.6429456}, {"type": "node", "id": 4573347891, "lat": 40.8436955, "lon": 26.6428022}, {"type": "node", "id": 4573360183, "lat": 40.8443733, "lon": 26.6405906}, {"type": "node", "id": 4573360184, "lat": 40.8431546, "lon": 26.6409845}, {"type": "node", "id": 4573360185, "lat": 40.8428529, "lon": 26.6415242}, {"type": "node", "id": 4573360186, "lat": 40.84367, "lon": 26.6422436}, {"type": "node", "id": 4573360187, "lat": 40.8438658, "lon": 26.6433182}, {"type": "node", "id": 4573360188, "lat": 40.8434554, "lon": 26.6444007}, {"type": "node", "id": 4573360389, "lat": 40.8429986, "lon": 26.6447865}, {"type": "node", "id": 4582167566, "lat": 40.84517, "lon": 26.641857}, {"type": "node", "id": 4584444978, "lat": 40.8452289, "lon": 26.6433671}, {"type": "node", "id": 4584444979, "lat": 40.8452822, "lon": 26.6434044}, {"type": "node", "id": 4584444980, "lat": 40.8452395, "lon": 26.6435109}, {"type": "node", "id": 4584444981, "lat": 40.8451862, "lon": 26.6434735}, {"type": "node", "id": 4584444988, "lat": 40.8452948, "lon": 26.6432368}, {"type": "node", "id": 4584445171, "lat": 40.8441814, "lon": 26.6418571}, {"type": "node", "id": 4584445172, "lat": 40.8441246, "lon": 26.6418065}, {"type": "node", "id": 4584445173, "lat": 40.8442185, "lon": 26.6416222}, {"type": "node", "id": 4584445174, "lat": 40.8442753, "lon": 26.6416727}, {"type": "node", "id": 4584473996, "lat": 40.8441997, "lon": 26.6415457}, {"type": "node", "id": 4584473997, "lat": 40.844146, "lon": 26.6414929}, {"type": "node", "id": 4584473998, "lat": 40.8442325, "lon": 26.6413394}, {"type": "node", "id": 4584473999, "lat": 40.8442861, "lon": 26.6413922}, {"type": "node", "id": 4637419452, "lat": 40.8426005, "lon": 26.6451121}, {"type": "node", "id": 4637419453, "lat": 40.842374, "lon": 26.6457607}, {"type": "node", "id": 4637419454, "lat": 40.8438369, "lon": 26.6437231}, {"type": "node", "id": 4637419455, "lat": 40.8438539, "lon": 26.6436755}, {"type": "node", "id": 4637419456, "lat": 40.8438374, "lon": 26.6436652}, {"type": "node", "id": 4637419457, "lat": 40.8438684, "lon": 26.6435782}, {"type": "node", "id": 4637419458, "lat": 40.8438982, "lon": 26.6435967}, {"type": "node", "id": 4637419459, "lat": 40.8439038, "lon": 26.6435808}, {"type": "node", "id": 4637419460, "lat": 40.8439744, "lon": 26.6436248}, {"type": "node", "id": 4637419461, "lat": 40.8439597, "lon": 26.6436662}, {"type": "node", "id": 4637419462, "lat": 40.843972, "lon": 26.6436739}, {"type": "node", "id": 4637419463, "lat": 40.843986, "lon": 26.6436345}, {"type": "node", "id": 4637419464, "lat": 40.8440554, "lon": 26.6436778}, {"type": "node", "id": 4637419465, "lat": 40.8440491, "lon": 26.6436955}, {"type": "node", "id": 4637419466, "lat": 40.8440753, "lon": 26.6437119}, {"type": "node", "id": 4637419467, "lat": 40.8440458, "lon": 26.6437948}, {"type": "node", "id": 4637419468, "lat": 40.8440302, "lon": 26.6437851}, {"type": "node", "id": 4637419469, "lat": 40.8440188, "lon": 26.6438175}, {"type": "node", "id": 4637419470, "lat": 40.8440326, "lon": 26.643826}, {"type": "node", "id": 4637419471, "lat": 40.8440045, "lon": 26.6439047}, {"type": "node", "id": 4637419472, "lat": 40.8439916, "lon": 26.6438966}, {"type": "node", "id": 4637419473, "lat": 40.8439801, "lon": 26.6439293}, {"type": "node", "id": 4637419474, "lat": 40.8438956, "lon": 26.6438767}, {"type": "node", "id": 4637419475, "lat": 40.8439109, "lon": 26.6438333}, {"type": "node", "id": 4637419476, "lat": 40.8438893, "lon": 26.6438199}, {"type": "node", "id": 4637419477, "lat": 40.843875, "lon": 26.6438599}, {"type": "node", "id": 4637419478, "lat": 40.8438156, "lon": 26.643823}, {"type": "node", "id": 4637419479, "lat": 40.8438223, "lon": 26.6438042}, {"type": "node", "id": 4637419480, "lat": 40.8437925, "lon": 26.6437856}, {"type": "node", "id": 4637419481, "lat": 40.8438188, "lon": 26.6437119}, {"type": "node", "id": 4637517822, "lat": 40.8452142, "lon": 26.6447223}, {"type": "node", "id": 4637517823, "lat": 40.845149, "lon": 26.6449233}, {"type": "node", "id": 4637517824, "lat": 40.8452418, "lon": 26.6449758}, {"type": "node", "id": 4637517825, "lat": 40.8453069, "lon": 26.6447748}, {"type": "node", "id": 4637517827, "lat": 40.8452844, "lon": 26.6449654}, {"type": "node", "id": 4637517830, "lat": 40.8452799, "lon": 26.6452021}, {"type": "node", "id": 4637517831, "lat": 40.845204, "lon": 26.6453166}, {"type": "node", "id": 4637517832, "lat": 40.8452644, "lon": 26.6453572}, {"type": "node", "id": 4637517833, "lat": 40.8453207, "lon": 26.6452072}, {"type": "node", "id": 4637517846, "lat": 40.8446846, "lon": 26.6454204}, {"type": "node", "id": 4637517847, "lat": 40.8446309, "lon": 26.6455573}, {"type": "node", "id": 4637517848, "lat": 40.8446971, "lon": 26.6456026}, {"type": "node", "id": 4637517849, "lat": 40.8447507, "lon": 26.6454656}, {"type": "node", "id": 4637517862, "lat": 40.8441504, "lon": 26.6446968}, {"type": "node", "id": 4637517863, "lat": 40.844106, "lon": 26.6448175}, {"type": "node", "id": 4637517864, "lat": 40.8442365, "lon": 26.6448716}, {"type": "node", "id": 4637517865, "lat": 40.8442992, "lon": 26.6447885}, {"type": "node", "id": 4637517986, "lat": 40.8435159, "lon": 26.6436353}, {"type": "node", "id": 4637517987, "lat": 40.8435231, "lon": 26.6436166}, {"type": "node", "id": 4637517988, "lat": 40.8436189, "lon": 26.6436807}, {"type": "node", "id": 4637517989, "lat": 40.8436032, "lon": 26.6437219}, {"type": "node", "id": 4637517990, "lat": 40.8436194, "lon": 26.6437327}, {"type": "node", "id": 4637517991, "lat": 40.8436019, "lon": 26.6437784}, {"type": "node", "id": 4637517992, "lat": 40.8435933, "lon": 26.6437727}, {"type": "node", "id": 4637517993, "lat": 40.8435754, "lon": 26.6438194}, {"type": "node", "id": 4637517994, "lat": 40.8435862, "lon": 26.6438266}, {"type": "node", "id": 4637517995, "lat": 40.8435675, "lon": 26.6438754}, {"type": "node", "id": 4637517996, "lat": 40.8435523, "lon": 26.6438652}, {"type": "node", "id": 4637517997, "lat": 40.8435377, "lon": 26.6439033}, {"type": "node", "id": 4637517998, "lat": 40.8434367, "lon": 26.6438357}, {"type": "node", "id": 4637517999, "lat": 40.8434444, "lon": 26.6438154}, {"type": "node", "id": 4637518000, "lat": 40.8434067, "lon": 26.6437902}, {"type": "node", "id": 4637518001, "lat": 40.843421, "lon": 26.6437528}, {"type": "node", "id": 4637518002, "lat": 40.843413, "lon": 26.6437474}, {"type": "node", "id": 4637518003, "lat": 40.8434532, "lon": 26.6436423}, {"type": "node", "id": 4637518004, "lat": 40.8434662, "lon": 26.6436511}, {"type": "node", "id": 4637518005, "lat": 40.8434812, "lon": 26.6436121}, {"type": "node", "id": 4637518006, "lat": 40.8433646, "lon": 26.6440211}, {"type": "node", "id": 4637518007, "lat": 40.8433718, "lon": 26.6440024}, {"type": "node", "id": 4637518008, "lat": 40.8434676, "lon": 26.6440665}, {"type": "node", "id": 4637518009, "lat": 40.8434519, "lon": 26.6441077}, {"type": "node", "id": 4637518010, "lat": 40.8434681, "lon": 26.6441185}, {"type": "node", "id": 4637518011, "lat": 40.8434506, "lon": 26.6441642}, {"type": "node", "id": 4637518012, "lat": 40.843442, "lon": 26.6441585}, {"type": "node", "id": 4637518013, "lat": 40.8434241, "lon": 26.6442052}, {"type": "node", "id": 4637518014, "lat": 40.8434349, "lon": 26.6442124}, {"type": "node", "id": 4637518015, "lat": 40.8434162, "lon": 26.6442613}, {"type": "node", "id": 4637518016, "lat": 40.843401, "lon": 26.644251}, {"type": "node", "id": 4637518017, "lat": 40.8433864, "lon": 26.6442891}, {"type": "node", "id": 4637518018, "lat": 40.8432854, "lon": 26.6442215}, {"type": "node", "id": 4637518019, "lat": 40.8432931, "lon": 26.6442012}, {"type": "node", "id": 4637518020, "lat": 40.8432554, "lon": 26.644176}, {"type": "node", "id": 4637518021, "lat": 40.8432698, "lon": 26.6441386}, {"type": "node", "id": 4637518022, "lat": 40.8432617, "lon": 26.6441332}, {"type": "node", "id": 4637518023, "lat": 40.8433019, "lon": 26.6440281}, {"type": "node", "id": 4637518024, "lat": 40.843315, "lon": 26.6440369}, {"type": "node", "id": 4637518025, "lat": 40.8433299, "lon": 26.6439979}, {"type": "node", "id": 4637518026, "lat": 40.8439322, "lon": 26.6440537}, {"type": "node", "id": 4637518027, "lat": 40.8439391, "lon": 26.6440348}, {"type": "node", "id": 4637518028, "lat": 40.8440359, "lon": 26.6440964}, {"type": "node", "id": 4637518029, "lat": 40.8440207, "lon": 26.644138}, {"type": "node", "id": 4637518030, "lat": 40.844037, "lon": 26.6441484}, {"type": "node", "id": 4637518031, "lat": 40.8440202, "lon": 26.6441946}, {"type": "node", "id": 4637518032, "lat": 40.8440116, "lon": 26.6441891}, {"type": "node", "id": 4637518033, "lat": 40.8439944, "lon": 26.6442362}, {"type": "node", "id": 4637518034, "lat": 40.8440053, "lon": 26.6442431}, {"type": "node", "id": 4637518035, "lat": 40.8439873, "lon": 26.6442924}, {"type": "node", "id": 4637518036, "lat": 40.8439719, "lon": 26.6442826}, {"type": "node", "id": 4637518037, "lat": 40.8439578, "lon": 26.6443211}, {"type": "node", "id": 4637518038, "lat": 40.8438558, "lon": 26.644256}, {"type": "node", "id": 4637518039, "lat": 40.8438634, "lon": 26.6442355}, {"type": "node", "id": 4637518040, "lat": 40.8438253, "lon": 26.6442113}, {"type": "node", "id": 4637518041, "lat": 40.843839, "lon": 26.6441735}, {"type": "node", "id": 4637518042, "lat": 40.8438309, "lon": 26.6441684}, {"type": "node", "id": 4637518043, "lat": 40.8438696, "lon": 26.6440622}, {"type": "node", "id": 4637518044, "lat": 40.8438828, "lon": 26.6440706}, {"type": "node", "id": 4637518045, "lat": 40.8438971, "lon": 26.6440313}, {"type": "node", "id": 4637518046, "lat": 40.8437883, "lon": 26.6444588}, {"type": "node", "id": 4637518047, "lat": 40.8437954, "lon": 26.64444}, {"type": "node", "id": 4637518048, "lat": 40.8438913, "lon": 26.6445042}, {"type": "node", "id": 4637518049, "lat": 40.8438755, "lon": 26.6445453}, {"type": "node", "id": 4637518050, "lat": 40.8438917, "lon": 26.6445561}, {"type": "node", "id": 4637518051, "lat": 40.8438742, "lon": 26.6446018}, {"type": "node", "id": 4637518052, "lat": 40.8438657, "lon": 26.6445961}, {"type": "node", "id": 4637518053, "lat": 40.8438478, "lon": 26.6446428}, {"type": "node", "id": 4637518054, "lat": 40.8438586, "lon": 26.64465}, {"type": "node", "id": 4637518055, "lat": 40.8438399, "lon": 26.6446989}, {"type": "node", "id": 4637518056, "lat": 40.8438246, "lon": 26.6446887}, {"type": "node", "id": 4637518057, "lat": 40.84381, "lon": 26.6447267}, {"type": "node", "id": 4637518058, "lat": 40.843709, "lon": 26.6446591}, {"type": "node", "id": 4637518059, "lat": 40.8437168, "lon": 26.6446388}, {"type": "node", "id": 4637518060, "lat": 40.8436791, "lon": 26.6446136}, {"type": "node", "id": 4637518061, "lat": 40.8436934, "lon": 26.6445762}, {"type": "node", "id": 4637518062, "lat": 40.8436853, "lon": 26.6445708}, {"type": "node", "id": 4637518063, "lat": 40.8437256, "lon": 26.6444658}, {"type": "node", "id": 4637518064, "lat": 40.8437386, "lon": 26.6444745}, {"type": "node", "id": 4637518065, "lat": 40.8437535, "lon": 26.6444355}, {"type": "node", "id": 4743600106, "lat": 40.8439728, "lon": 26.6447988}, {"type": "node", "id": 4743600107, "lat": 40.8447521, "lon": 26.6453316}, {"type": "node", "id": 4743600110, "lat": 40.845139, "lon": 26.6462967}, {"type": "node", "id": 4743600760, "lat": 40.8426799, "lon": 26.6460902}, {"type": "node", "id": 4743600761, "lat": 40.8426186, "lon": 26.6461645}, {"type": "node", "id": 4743600762, "lat": 40.8425526, "lon": 26.6462779}, {"type": "node", "id": 4743600763, "lat": 40.8427636, "lon": 26.6460134}, {"type": "node", "id": 4833594316, "lat": 40.8440697, "lon": 26.6460749}, {"type": "node", "id": 4833637085, "lat": 40.8436395, "lon": 26.645434}, {"type": "node", "id": 4835334954, "lat": 40.8433986, "lon": 26.6444714}, {"type": "node", "id": 4835334955, "lat": 40.843499, "lon": 26.6443092}, {"type": "node", "id": 4835334956, "lat": 40.8434769, "lon": 26.6443583}, {"type": "node", "id": 4835334957, "lat": 40.8434283, "lon": 26.6444394}, {"type": "node", "id": 4835338882, "lat": 40.8434766, "lon": 26.6432774}, {"type": "node", "id": 4835338883, "lat": 40.8434897, "lon": 26.643288}, {"type": "node", "id": 4835338884, "lat": 40.843521, "lon": 26.643203}, {"type": "node", "id": 4835338885, "lat": 40.8435884, "lon": 26.6432479}, {"type": "node", "id": 4835338886, "lat": 40.8435805, "lon": 26.6432688}, {"type": "node", "id": 4835338887, "lat": 40.8436081, "lon": 26.6432873}, {"type": "node", "id": 4835338888, "lat": 40.8435841, "lon": 26.6433499}, {"type": "node", "id": 4835338889, "lat": 40.8435667, "lon": 26.6433383}, {"type": "node", "id": 4835338890, "lat": 40.8435406, "lon": 26.6434066}, {"type": "node", "id": 4835338891, "lat": 40.8435548, "lon": 26.6434161}, {"type": "node", "id": 4835338892, "lat": 40.8435316, "lon": 26.6434768}, {"type": "node", "id": 4835338893, "lat": 40.8435026, "lon": 26.6434574}, {"type": "node", "id": 4835338894, "lat": 40.8434924, "lon": 26.643484}, {"type": "node", "id": 4835338895, "lat": 40.8434343, "lon": 26.6434451}, {"type": "node", "id": 4835338896, "lat": 40.8434528, "lon": 26.6433968}, {"type": "node", "id": 4835338897, "lat": 40.8434292, "lon": 26.6433809}, {"type": "node", "id": 4835338898, "lat": 40.8434096, "lon": 26.6434301}, {"type": "node", "id": 4835338899, "lat": 40.8433485, "lon": 26.6433862}, {"type": "node", "id": 4835338900, "lat": 40.8433567, "lon": 26.6433645}, {"type": "node", "id": 4835338901, "lat": 40.8433263, "lon": 26.6433441}, {"type": "node", "id": 4835338902, "lat": 40.8433549, "lon": 26.6432693}, {"type": "node", "id": 4835338903, "lat": 40.8433731, "lon": 26.6432815}, {"type": "node", "id": 4835338904, "lat": 40.843394, "lon": 26.643227}, {"type": "node", "id": 4835338905, "lat": 40.8433757, "lon": 26.6432147}, {"type": "node", "id": 4835338906, "lat": 40.8434052, "lon": 26.6431402}, {"type": "node", "id": 4835338907, "lat": 40.8434412, "lon": 26.643168}, {"type": "node", "id": 4835338908, "lat": 40.8434493, "lon": 26.6431495}, {"type": "node", "id": 4835338909, "lat": 40.8435079, "lon": 26.6431886}, {"type": "node", "id": 4841804667, "lat": 40.8446267, "lon": 26.6440926}, {"type": "node", "id": 4841804668, "lat": 40.8445623, "lon": 26.644257}, {"type": "node", "id": 4841804669, "lat": 40.8446229, "lon": 26.6442985}, {"type": "node", "id": 4841804670, "lat": 40.8446874, "lon": 26.6441341}, {"type": "node", "id": 4842399844, "lat": 40.8440245, "lon": 26.6452597}, {"type": "node", "id": 4842399845, "lat": 40.843966, "lon": 26.6454165}, {"type": "node", "id": 4842399846, "lat": 40.8440405, "lon": 26.6454651}, {"type": "node", "id": 4842399847, "lat": 40.844099, "lon": 26.6453083}, {"type": "node", "id": 4843849937, "lat": 40.8450108, "lon": 26.641654}, {"type": "node", "id": 4843849938, "lat": 40.8449492, "lon": 26.6417638}, {"type": "node", "id": 4843849939, "lat": 40.8450236, "lon": 26.6418367}, {"type": "node", "id": 4843849940, "lat": 40.8450852, "lon": 26.6417269}, {"type": "node", "id": 4844037265, "lat": 40.8439363, "lon": 26.6429885}, {"type": "node", "id": 4844037266, "lat": 40.8438253, "lon": 26.6431948}, {"type": "node", "id": 4844037267, "lat": 40.8438879, "lon": 26.6432537}, {"type": "node", "id": 4844037268, "lat": 40.843999, "lon": 26.6430475}, {"type": "node", "id": 4844037269, "lat": 40.8440258, "lon": 26.6430987}, {"type": "node", "id": 4844037270, "lat": 40.8439281, "lon": 26.6432676}, {"type": "node", "id": 4844037271, "lat": 40.843999, "lon": 26.6433391}, {"type": "node", "id": 4844037272, "lat": 40.8440966, "lon": 26.6431702}, {"type": "node", "id": 4844037273, "lat": 40.844128, "lon": 26.6431911}, {"type": "node", "id": 4844037274, "lat": 40.8440295, "lon": 26.6433633}, {"type": "node", "id": 4844037275, "lat": 40.844105, "lon": 26.6434387}, {"type": "node", "id": 4844037276, "lat": 40.8442035, "lon": 26.6432665}, {"type": "node", "id": 4844037277, "lat": 40.8441438, "lon": 26.6434877}, {"type": "node", "id": 4844037278, "lat": 40.8442028, "lon": 26.6433788}, {"type": "node", "id": 4844037279, "lat": 40.8443413, "lon": 26.6434895}, {"type": "node", "id": 4844037280, "lat": 40.8442749, "lon": 26.643612}, {"type": "node", "id": 4844037281, "lat": 40.8442664, "lon": 26.6433205}, {"type": "node", "id": 4844037282, "lat": 40.8443703, "lon": 26.6434153}, {"type": "node", "id": 4844037283, "lat": 40.8444237, "lon": 26.643313}, {"type": "node", "id": 4844037284, "lat": 40.8443197, "lon": 26.6432182}, {"type": "node", "id": 4844037285, "lat": 40.8442732, "lon": 26.6429286}, {"type": "node", "id": 4844037286, "lat": 40.8441895, "lon": 26.6430936}, {"type": "node", "id": 4844037287, "lat": 40.8442693, "lon": 26.6431644}, {"type": "node", "id": 4844037288, "lat": 40.8443531, "lon": 26.6429993}, {"type": "node", "id": 4844037289, "lat": 40.8441192, "lon": 26.6422251}, {"type": "node", "id": 4844037290, "lat": 40.8441811, "lon": 26.6422824}, {"type": "node", "id": 4844037291, "lat": 40.8442579, "lon": 26.6421335}, {"type": "node", "id": 4844037292, "lat": 40.8441988, "lon": 26.6420978}, {"type": "node", "id": 4844037293, "lat": 40.8440777, "lon": 26.6423081}, {"type": "node", "id": 4844037294, "lat": 40.8439957, "lon": 26.6424706}, {"type": "node", "id": 4844037295, "lat": 40.8440543, "lon": 26.6425222}, {"type": "node", "id": 4844037296, "lat": 40.8441363, "lon": 26.6423597}, {"type": "node", "id": 4844037297, "lat": 40.8439146, "lon": 26.6425761}, {"type": "node", "id": 4844037298, "lat": 40.8438352, "lon": 26.6427308}, {"type": "node", "id": 4844037299, "lat": 40.8437654, "lon": 26.6426682}, {"type": "node", "id": 4844037300, "lat": 40.8438449, "lon": 26.6425135}, {"type": "node", "id": 4844047165, "lat": 40.84431, "lon": 26.6417275}, {"type": "node", "id": 4844047166, "lat": 40.8442186, "lon": 26.6418799}, {"type": "node", "id": 4844047167, "lat": 40.8442714, "lon": 26.6419352}, {"type": "node", "id": 4844047168, "lat": 40.8443628, "lon": 26.6417828}, {"type": "node", "id": 4844047169, "lat": 40.844452, "lon": 26.6417436}, {"type": "node", "id": 4844047170, "lat": 40.8444192, "lon": 26.6418489}, {"type": "node", "id": 4844047171, "lat": 40.8444956, "lon": 26.6418904}, {"type": "node", "id": 4844047172, "lat": 40.8445152, "lon": 26.6418276}, {"type": "node", "id": 4844047173, "lat": 40.8445033, "lon": 26.6418211}, {"type": "node", "id": 4844047174, "lat": 40.8445165, "lon": 26.6417787}, {"type": "node", "id": 4844383901, "lat": 40.844359, "lon": 26.6456663}, {"type": "node", "id": 4844383902, "lat": 40.8444282, "lon": 26.64571}, {"type": "node", "id": 4844383903, "lat": 40.8444766, "lon": 26.6455789}, {"type": "node", "id": 4844383904, "lat": 40.8444067, "lon": 26.6455372}, {"type": "node", "id": 4844383905, "lat": 40.8445481, "lon": 26.6457883}, {"type": "node", "id": 4844383906, "lat": 40.8446089, "lon": 26.6456246}, {"type": "node", "id": 4844383907, "lat": 40.844675, "lon": 26.6456673}, {"type": "node", "id": 4844383908, "lat": 40.8446127, "lon": 26.645832}, {"type": "node", "id": 4844389061, "lat": 40.8445067, "lon": 26.6423613}, {"type": "node", "id": 4844389062, "lat": 40.8444347, "lon": 26.6424921}, {"type": "node", "id": 4844389063, "lat": 40.844499, "lon": 26.6425539}, {"type": "node", "id": 4844389064, "lat": 40.844571, "lon": 26.6424232}, {"type": "node", "id": 4844402266, "lat": 40.8445428, "lon": 26.6425827}, {"type": "node", "id": 4844402267, "lat": 40.8444976, "lon": 26.6426746}, {"type": "node", "id": 4844402268, "lat": 40.8446146, "lon": 26.6427751}, {"type": "node", "id": 4844402269, "lat": 40.8446598, "lon": 26.6426832}, {"type": "node", "id": 4844402270, "lat": 40.8444642, "lon": 26.6427444}, {"type": "node", "id": 4844402271, "lat": 40.8444155, "lon": 26.6428382}, {"type": "node", "id": 4844402272, "lat": 40.844536, "lon": 26.642948}, {"type": "node", "id": 4844402273, "lat": 40.844585, "lon": 26.6428534}, {"type": "node", "id": 4844402274, "lat": 40.8445937, "lon": 26.6428563}, {"type": "node", "id": 4844402275, "lat": 40.8445516, "lon": 26.6429398}, {"type": "node", "id": 4844402276, "lat": 40.8446189, "lon": 26.6428784}, {"type": "node", "id": 4844402277, "lat": 40.8445767, "lon": 26.6429619}, {"type": "node", "id": 4852268526, "lat": 40.842317, "lon": 26.6468688}, {"type": "node", "id": 4852306930, "lat": 40.8439291, "lon": 26.6466222}, {"type": "node", "id": 4868176086, "lat": 40.8448358, "lon": 26.6425756}, {"type": "node", "id": 4868176088, "lat": 40.8450971, "lon": 26.6442293}, {"type": "node", "id": 4868176089, "lat": 40.8451777, "lon": 26.6442666}, {"type": "node", "id": 4868176090, "lat": 40.8451399, "lon": 26.644253}, {"type": "node", "id": 4868203045, "lat": 40.8436891, "lon": 26.6440075}, {"type": "node", "id": 4868203046, "lat": 40.8436247, "lon": 26.6439696}, {"type": "node", "id": 4868203047, "lat": 40.8435451, "lon": 26.6444104}, {"type": "node", "id": 4868203048, "lat": 40.8434731, "lon": 26.6443657}, {"type": "node", "id": 4917694512, "lat": 40.8452594, "lon": 26.6439521}, {"type": "node", "id": 4917694513, "lat": 40.8451821, "lon": 26.6439044}, {"type": "node", "id": 4917694514, "lat": 40.8452533, "lon": 26.6437025}, {"type": "node", "id": 4917694516, "lat": 40.8452405, "lon": 26.6433471}, {"type": "node", "id": 4917694517, "lat": 40.845315, "lon": 26.6433985}, {"type": "node", "id": 4917694519, "lat": 40.8452727, "lon": 26.6432654}, {"type": "node", "id": 4936322067, "lat": 40.8451517, "lon": 26.6439793}, {"type": "node", "id": 4936322068, "lat": 40.8450926, "lon": 26.6441568}, {"type": "node", "id": 4936322069, "lat": 40.8451747, "lon": 26.6442046}, {"type": "node", "id": 4936322070, "lat": 40.8452339, "lon": 26.6440272}, {"type": "node", "id": 4936322071, "lat": 40.8451438, "lon": 26.6439709}, {"type": "node", "id": 4936322072, "lat": 40.8450858, "lon": 26.644146}, {"type": "node", "id": 4936322073, "lat": 40.8450153, "lon": 26.6441052}, {"type": "node", "id": 4936322074, "lat": 40.8450783, "lon": 26.6439151}, {"type": "node", "id": 4936322075, "lat": 40.8451216, "lon": 26.6439401}, {"type": "node", "id": 4936322076, "lat": 40.8451166, "lon": 26.6439551}, {"type": "node", "id": 5135194789, "lat": 40.8450755, "lon": 26.6428374}, {"type": "node", "id": 5135194790, "lat": 40.8450474, "lon": 26.6429232}, {"type": "node", "id": 5135194791, "lat": 40.8451015, "lon": 26.6429542}, {"type": "node", "id": 5135194792, "lat": 40.8450949, "lon": 26.6429743}, {"type": "node", "id": 5135194793, "lat": 40.8451228, "lon": 26.6429903}, {"type": "node", "id": 5135194794, "lat": 40.8451575, "lon": 26.6428844}, {"type": "node", "id": 5135548340, "lat": 40.8448936, "lon": 26.6407321}, {"type": "node", "id": 5135548341, "lat": 40.8448399, "lon": 26.6408054}, {"type": "node", "id": 5135548342, "lat": 40.844768, "lon": 26.6407134}, {"type": "node", "id": 5135548343, "lat": 40.8448239, "lon": 26.6406371}, {"type": "node", "id": 5135548344, "lat": 40.8448413, "lon": 26.6406594}, {"type": "node", "id": 5135548345, "lat": 40.844858, "lon": 26.6406366}, {"type": "node", "id": 5135548346, "lat": 40.8448917, "lon": 26.6406797}, {"type": "node", "id": 5135548347, "lat": 40.8448728, "lon": 26.6407055}, {"type": "node", "id": 5140180878, "lat": 40.8452319, "lon": 26.6452371}, {"type": "node", "id": 5140180879, "lat": 40.8452867, "lon": 26.6451844}, {"type": "node", "id": 5140180880, "lat": 40.8452525, "lon": 26.6451836}, {"type": "node", "id": 5140180881, "lat": 40.8452202, "lon": 26.6452746}, {"type": "node", "id": 5140180882, "lat": 40.845221, "lon": 26.6452297}, {"type": "node", "id": 5140180883, "lat": 40.8452071, "lon": 26.6452657}, {"type": "node", "id": 5140180884, "lat": 40.8449811, "lon": 26.6444563}, {"type": "node", "id": 5140180885, "lat": 40.8449944, "lon": 26.6444176}, {"type": "node", "id": 5140180886, "lat": 40.8450059, "lon": 26.6444244}, {"type": "node", "id": 5140180887, "lat": 40.8449928, "lon": 26.6444632}, {"type": "node", "id": 5140180888, "lat": 40.844881, "lon": 26.644401}, {"type": "node", "id": 5140180889, "lat": 40.8448771, "lon": 26.6442621}, {"type": "node", "id": 5140180890, "lat": 40.8448693, "lon": 26.6443941}, {"type": "node", "id": 5140180891, "lat": 40.8449022, "lon": 26.6442967}, {"type": "node", "id": 5140180892, "lat": 40.8449286, "lon": 26.6439177}, {"type": "node", "id": 5140180893, "lat": 40.844893, "lon": 26.6440351}, {"type": "node", "id": 5140180894, "lat": 40.8449282, "lon": 26.6440537}, {"type": "node", "id": 5140180895, "lat": 40.8449348, "lon": 26.6440321}, {"type": "node", "id": 5140180896, "lat": 40.8449717, "lon": 26.6440516}, {"type": "node", "id": 5140180897, "lat": 40.8449808, "lon": 26.6440218}, {"type": "node", "id": 5140180898, "lat": 40.8449925, "lon": 26.6440279}, {"type": "node", "id": 5140180899, "lat": 40.8450063, "lon": 26.6439824}, {"type": "node", "id": 5140180900, "lat": 40.8449836, "lon": 26.6439704}, {"type": "node", "id": 5140180901, "lat": 40.8449897, "lon": 26.64395}, {"type": "node", "id": 5140180902, "lat": 40.8447491, "lon": 26.6437853}, {"type": "node", "id": 5140180903, "lat": 40.8447224, "lon": 26.6438492}, {"type": "node", "id": 5140180904, "lat": 40.8447355, "lon": 26.6437767}, {"type": "node", "id": 5140180905, "lat": 40.8447118, "lon": 26.6438426}, {"type": "node", "id": 5140180906, "lat": 40.8447151, "lon": 26.6436956}, {"type": "node", "id": 5140180907, "lat": 40.8446143, "lon": 26.6436282}, {"type": "node", "id": 5140180908, "lat": 40.8445493, "lon": 26.6438023}, {"type": "node", "id": 5140180909, "lat": 40.8446558, "lon": 26.6438683}, {"type": "node", "id": 5140180910, "lat": 40.8446491, "lon": 26.6438869}, {"type": "node", "id": 5140180911, "lat": 40.8445429, "lon": 26.6438203}, {"type": "node", "id": 5140180912, "lat": 40.8447224, "lon": 26.6436754}, {"type": "node", "id": 5140180913, "lat": 40.8446203, "lon": 26.6436115}, {"type": "node", "id": 5144269623, "lat": 40.8443989, "lon": 26.6429372}, {"type": "node", "id": 5144269624, "lat": 40.8445258, "lon": 26.6430661}, {"type": "node", "id": 5144269625, "lat": 40.8445775, "lon": 26.6431259}, {"type": "node", "id": 5144303517, "lat": 40.8451655, "lon": 26.6420902}, {"type": "node", "id": 5144303518, "lat": 40.845248, "lon": 26.6421685}, {"type": "node", "id": 5144303519, "lat": 40.8452025, "lon": 26.6422524}, {"type": "node", "id": 5144303520, "lat": 40.8451947, "lon": 26.642245}, {"type": "node", "id": 5144304621, "lat": 40.845187, "lon": 26.6422592}, {"type": "node", "id": 5144304622, "lat": 40.8451297, "lon": 26.6422048}, {"type": "node", "id": 5144304623, "lat": 40.8451418, "lon": 26.6421824}, {"type": "node", "id": 5144304624, "lat": 40.8451086, "lon": 26.6421508}, {"type": "node", "id": 5144304625, "lat": 40.8451298, "lon": 26.6421117}, {"type": "node", "id": 5144304626, "lat": 40.8451457, "lon": 26.6421268}, {"type": "node", "id": 5144339925, "lat": 40.8452975, "lon": 26.6452674}, {"type": "node", "id": 5144339926, "lat": 40.8452843, "lon": 26.6453056}, {"type": "node", "id": 5144339927, "lat": 40.8453075, "lon": 26.6452741}, {"type": "node", "id": 5144339928, "lat": 40.8452931, "lon": 26.6453115}, {"type": "node", "id": 5173953405, "lat": 40.8450441, "lon": 26.6435927}, {"type": "node", "id": 5173953406, "lat": 40.8449951, "lon": 26.643741}, {"type": "node", "id": 5173953407, "lat": 40.8450458, "lon": 26.6437702}, {"type": "node", "id": 5173953408, "lat": 40.8450948, "lon": 26.6436219}, {"type": "node", "id": 5173953409, "lat": 40.8448566, "lon": 26.6434471}, {"type": "node", "id": 5173953410, "lat": 40.8447864, "lon": 26.6436353}, {"type": "node", "id": 5173953411, "lat": 40.844844, "lon": 26.6436728}, {"type": "node", "id": 5173953412, "lat": 40.8449142, "lon": 26.6434845}, {"type": "node", "id": 5173953413, "lat": 40.8448495, "lon": 26.643461}, {"type": "node", "id": 5173953414, "lat": 40.8447914, "lon": 26.6436167}, {"type": "node", "id": 5173953415, "lat": 40.8447267, "lon": 26.6435746}, {"type": "node", "id": 5173953416, "lat": 40.8447849, "lon": 26.6434188}, {"type": "node", "id": 5173953417, "lat": 40.8450561, "lon": 26.6428927}, {"type": "node", "id": 5173953418, "lat": 40.845031, "lon": 26.6429658}, {"type": "node", "id": 5173953419, "lat": 40.8449658, "lon": 26.6429266}, {"type": "node", "id": 5173953420, "lat": 40.8449909, "lon": 26.6428535}, {"type": "node", "id": 5173955521, "lat": 40.8449616, "lon": 26.6429269}, {"type": "node", "id": 5173955522, "lat": 40.8450299, "lon": 26.6429679}, {"type": "node", "id": 5173955523, "lat": 40.8450029, "lon": 26.6430468}, {"type": "node", "id": 5173955524, "lat": 40.8449345, "lon": 26.6430059}, {"type": "node", "id": 5173955525, "lat": 40.8450315, "lon": 26.6429714}, {"type": "node", "id": 5173955526, "lat": 40.8450014, "lon": 26.6430592}, {"type": "node", "id": 5173955527, "lat": 40.8450383, "lon": 26.6430813}, {"type": "node", "id": 5173955528, "lat": 40.8450684, "lon": 26.6429934}, {"type": "node", "id": 5252241835, "lat": 40.844908, "lon": 26.6407858}, {"type": "node", "id": 5252241836, "lat": 40.8448466, "lon": 26.6408854}, {"type": "node", "id": 5252241837, "lat": 40.8448962, "lon": 26.6409388}, {"type": "node", "id": 5252241838, "lat": 40.844888, "lon": 26.640952}, {"type": "node", "id": 5252241839, "lat": 40.8449116, "lon": 26.6409775}, {"type": "node", "id": 5252241840, "lat": 40.8449812, "lon": 26.6408646}, {"type": "node", "id": 5252241841, "lat": 40.8448466, "lon": 26.6410942}, {"type": "node", "id": 5252241842, "lat": 40.8447924, "lon": 26.6411969}, {"type": "node", "id": 5252241843, "lat": 40.8448459, "lon": 26.6412463}, {"type": "node", "id": 5252241844, "lat": 40.8449002, "lon": 26.6411437}, {"type": "node", "id": 5431665283, "lat": 40.8445303, "lon": 26.6412095}, {"type": "node", "id": 5431665284, "lat": 40.8444672, "lon": 26.6413237}, {"type": "node", "id": 5431665285, "lat": 40.8444046, "lon": 26.6412633}, {"type": "node", "id": 5431665286, "lat": 40.8444266, "lon": 26.6412236}, {"type": "node", "id": 5431665287, "lat": 40.8444127, "lon": 26.6412102}, {"type": "node", "id": 5431665288, "lat": 40.8444323, "lon": 26.6411747}, {"type": "node", "id": 5431665289, "lat": 40.8444473, "lon": 26.6411892}, {"type": "node", "id": 5431665290, "lat": 40.8444689, "lon": 26.6411502}, {"type": "node", "id": 5813449334, "lat": 40.8449149, "lon": 26.641567}, {"type": "node", "id": 5813449335, "lat": 40.8448545, "lon": 26.6416871}, {"type": "node", "id": 5813449336, "lat": 40.844918, "lon": 26.641743}, {"type": "node", "id": 5813449337, "lat": 40.8449553, "lon": 26.6416689}, {"type": "node", "id": 5813449338, "lat": 40.8449434, "lon": 26.6416585}, {"type": "node", "id": 5813449339, "lat": 40.8449666, "lon": 26.6416124}, {"type": "node", "id": 5813449340, "lat": 40.844789, "lon": 26.6414801}, {"type": "node", "id": 5813449341, "lat": 40.8447325, "lon": 26.6415875}, {"type": "node", "id": 5813449342, "lat": 40.8448101, "lon": 26.6416588}, {"type": "node", "id": 5813449343, "lat": 40.8448475, "lon": 26.6415877}, {"type": "node", "id": 5813449344, "lat": 40.8448415, "lon": 26.6415822}, {"type": "node", "id": 5813449345, "lat": 40.8448653, "lon": 26.641537}, {"type": "node", "id": 5813449346, "lat": 40.8448367, "lon": 26.6415107}, {"type": "node", "id": 5813449347, "lat": 40.844832, "lon": 26.6415196}, {"type": "node", "id": 5813449348, "lat": 40.8447382, "lon": 26.6407638}, {"type": "node", "id": 5813449349, "lat": 40.8446953, "lon": 26.6408258}, {"type": "node", "id": 5813449350, "lat": 40.8446432, "lon": 26.640763}, {"type": "node", "id": 5813449351, "lat": 40.844686, "lon": 26.6407009}, {"type": "node", "id": 5813449352, "lat": 40.844761, "lon": 26.6407646}, {"type": "node", "id": 5813451753, "lat": 40.8447186, "lon": 26.6408231}, {"type": "node", "id": 5813451754, "lat": 40.8447704, "lon": 26.6408887}, {"type": "node", "id": 5813451755, "lat": 40.8448128, "lon": 26.6408302}, {"type": "node", "id": 5976101382, "lat": 40.8436861, "lon": 26.6453958}, {"type": "node", "id": 6460342309, "lat": 40.8442276, "lon": 26.6448957}, {"type": "node", "id": 6460342310, "lat": 40.8442625, "lon": 26.6448884}, {"type": "node", "id": 6460342311, "lat": 40.8441885, "lon": 26.6447213}, {"type": "node", "id": 6460342312, "lat": 40.8442564, "lon": 26.644761}, {"type": "node", "id": 6460342313, "lat": 40.8442622, "lon": 26.644745}, {"type": "node", "id": 6460342314, "lat": 40.8441955, "lon": 26.6447021}, {"type": "node", "id": 6460342315, "lat": 40.8442934, "lon": 26.6434441}, {"type": "node", "id": 6460342316, "lat": 40.8442521, "lon": 26.6434256}, {"type": "node", "id": 6460342317, "lat": 40.8442657, "lon": 26.6434007}, {"type": "node", "id": 6460342318, "lat": 40.8442996, "lon": 26.6434328}, {"type": "node", "id": 6460342319, "lat": 40.8442654, "lon": 26.641429}, {"type": "node", "id": 6460342320, "lat": 40.844233, "lon": 26.6414865}, {"type": "node", "id": 6460342321, "lat": 40.8442719, "lon": 26.6414353}, {"type": "node", "id": 6460342322, "lat": 40.8442395, "lon": 26.6414929}, {"type": "node", "id": 6460423025, "lat": 40.8442262, "lon": 26.6421042}, {"type": "node", "id": 6460423026, "lat": 40.8441714, "lon": 26.6421267}, {"type": "node", "id": 6460423027, "lat": 40.8441795, "lon": 26.6421341}, {"type": "node", "id": 6460423028, "lat": 40.8442195, "lon": 26.6421169}, {"type": "node", "id": 6460423029, "lat": 40.8442234, "lon": 26.6421985}, {"type": "node", "id": 6460423030, "lat": 40.8442029, "lon": 26.6422412}, {"type": "node", "id": 6460423031, "lat": 40.8442319, "lon": 26.6422064}, {"type": "node", "id": 6460423032, "lat": 40.84421, "lon": 26.6422478}, {"type": "node", "id": 6460423033, "lat": 40.8445424, "lon": 26.6428148}, {"type": "node", "id": 6460423034, "lat": 40.8445034, "lon": 26.6427799}, {"type": "node", "id": 6460423035, "lat": 40.8445087, "lon": 26.6427698}, {"type": "node", "id": 6460423036, "lat": 40.8445475, "lon": 26.6428049}, {"type": "node", "id": 6460423037, "lat": 40.8444914, "lon": 26.6429076}, {"type": "node", "id": 6460423038, "lat": 40.8444501, "lon": 26.6428695}, {"type": "node", "id": 6460423039, "lat": 40.8444438, "lon": 26.6428815}, {"type": "node", "id": 6460423040, "lat": 40.8444855, "lon": 26.6429192}, {"type": "node", "id": 6938356575, "lat": 40.8432438, "lon": 26.6445933}, {"type": "node", "id": 6938356578, "lat": 40.843817, "lon": 26.6451794}, {"type": "node", "id": 6938356579, "lat": 40.8439227, "lon": 26.644933}, {"type": "node", "id": 6938356580, "lat": 40.843243, "lon": 26.6456892}, {"type": "node", "id": 7147765920, "lat": 40.8453135, "lon": 26.6407511}, {"type": "node", "id": 7147765921, "lat": 40.8452715, "lon": 26.6408342}, {"type": "node", "id": 7147765922, "lat": 40.845191, "lon": 26.6407631}, {"type": "node", "id": 7147765923, "lat": 40.845233, "lon": 26.64068}, {"type": "node", "id": 3213712664, "lat": 40.8407125, "lon": 26.6523473}, {"type": "node", "id": 3213712665, "lat": 40.8409171, "lon": 26.6524201}, {"type": "node", "id": 3213712666, "lat": 40.8411297, "lon": 26.6524501}, {"type": "node", "id": 3213712667, "lat": 40.8417589, "lon": 26.6524666}, {"type": "node", "id": 3213712668, "lat": 40.8429693, "lon": 26.6527203}, {"type": "node", "id": 3213712669, "lat": 40.8436268, "lon": 26.6529073}, {"type": "node", "id": 3213712671, "lat": 40.8452233, "lon": 26.6533984}, {"type": "node", "id": 3745533936, "lat": 40.8400005, "lon": 26.6512577}, {"type": "node", "id": 3745533943, "lat": 40.8410932, "lon": 26.6501353}, {"type": "node", "id": 3745533946, "lat": 40.8415213, "lon": 26.6494105}, {"type": "node", "id": 3745533947, "lat": 40.841585, "lon": 26.6492132}, {"type": "node", "id": 3745533949, "lat": 40.8419153, "lon": 26.6480781}, {"type": "node", "id": 4533221907, "lat": 40.8430635, "lon": 26.649181}, {"type": "node", "id": 4533221908, "lat": 40.842454, "lon": 26.6511604}, {"type": "node", "id": 4533221911, "lat": 40.8432618, "lon": 26.6485519}, {"type": "node", "id": 4533221913, "lat": 40.8428532, "lon": 26.6498733}, {"type": "node", "id": 4582596551, "lat": 40.8421513, "lon": 26.6473435}, {"type": "node", "id": 4582596552, "lat": 40.843411, "lon": 26.6481193}, {"type": "node", "id": 4743600732, "lat": 40.8426198, "lon": 26.6526326}, {"type": "node", "id": 4743600733, "lat": 40.8419986, "lon": 26.6524763}, {"type": "node", "id": 4743600734, "lat": 40.8423908, "lon": 26.6525616}, {"type": "node", "id": 4743600735, "lat": 40.8422123, "lon": 26.6525134}, {"type": "node", "id": 4743600736, "lat": 40.840594, "lon": 26.6522336}, {"type": "node", "id": 4743600737, "lat": 40.8399492, "lon": 26.6513391}, {"type": "node", "id": 4743600739, "lat": 40.8399659, "lon": 26.6514769}, {"type": "node", "id": 4743600740, "lat": 40.8406524, "lon": 26.6523011}, {"type": "node", "id": 4743600742, "lat": 40.8407705, "lon": 26.6523811}, {"type": "node", "id": 4833637082, "lat": 40.841434, "lon": 26.6496288}, {"type": "node", "id": 4833637083, "lat": 40.8412407, "lon": 26.649957}, {"type": "node", "id": 4833637084, "lat": 40.8399669, "lon": 26.6512983}, {"type": "node", "id": 4835527859, "lat": 40.8399456, "lon": 26.6514258}, {"type": "node", "id": 4835527862, "lat": 40.8453236, "lon": 26.6534357}, {"type": "node", "id": 4843849720, "lat": 40.8399413, "lon": 26.6513838}, {"type": "node", "id": 4844383897, "lat": 40.8414747, "lon": 26.6495286}, {"type": "node", "id": 4844383898, "lat": 40.8411658, "lon": 26.6500482}, {"type": "node", "id": 4898411508, "lat": 40.8432259, "lon": 26.6527897}, {"type": "node", "id": 4898411515, "lat": 40.8439886, "lon": 26.6530119}, {"type": "node", "id": 5135194801, "lat": 40.8421047, "lon": 26.6524898}, {"type": "node", "id": 5135194802, "lat": 40.8410155, "lon": 26.652438}, {"type": "node", "id": 5190450995, "lat": 40.8411577, "lon": 26.6524508}, {"type": "node", "id": 6537958936, "lat": 40.8442624, "lon": 26.6530976}, {"type": "node", "id": 6542289075, "lat": 40.8408351, "lon": 26.6524015}, {"type": "node", "id": 6542289079, "lat": 40.8415817, "lon": 26.6524619}, {"type": "node", "id": 6938356581, "lat": 40.841306, "lon": 26.6498669}, {"type": "node", "id": 7078311091, "lat": 40.8413754, "lon": 26.649759}, {"type": "node", "id": 7078311096, "lat": 40.8406759, "lon": 26.6505639}, {"type": "node", "id": 7078311100, "lat": 40.8404731, "lon": 26.6520879}, {"type": "node", "id": 1610698776, "lat": 40.8474138, "lon": 26.6387175}, {"type": "node", "id": 1610698842, "lat": 40.8476229, "lon": 26.6381461}, {"type": "node", "id": 1610699060, "lat": 40.8478249, "lon": 26.6376584}, {"type": "node", "id": 3423673183, "lat": 40.8482192, "lon": 26.6393019}, {"type": "node", "id": 3423673184, "lat": 40.8473473, "lon": 26.6388362}, {"type": "node", "id": 3423673185, "lat": 40.8470155, "lon": 26.6392467}, {"type": "node", "id": 3423673187, "lat": 40.8480882, "lon": 26.639724}, {"type": "node", "id": 3423673191, "lat": 40.8465651, "lon": 26.6398249}, {"type": "node", "id": 3423673509, "lat": 40.8479811, "lon": 26.6370037}, {"type": "node", "id": 3423673511, "lat": 40.8476704, "lon": 26.6380171}, {"type": "node", "id": 3423673515, "lat": 40.8474573, "lon": 26.6386086}, {"type": "node", "id": 3423673517, "lat": 40.8472073, "lon": 26.6389996}, {"type": "node", "id": 3423673518, "lat": 40.8468579, "lon": 26.6394461}, {"type": "node", "id": 3423673521, "lat": 40.8462005, "lon": 26.6402317}, {"type": "node", "id": 3423673528, "lat": 40.8461382, "lon": 26.639575}, {"type": "node", "id": 3423673529, "lat": 40.8458098, "lon": 26.6398801}, {"type": "node", "id": 3423673531, "lat": 40.8457429, "lon": 26.6403754}, {"type": "node", "id": 4533314842, "lat": 40.8485097, "lon": 26.6388759}, {"type": "node", "id": 4533314843, "lat": 40.8478772, "lon": 26.6374797}, {"type": "node", "id": 4534757069, "lat": 40.8486198, "lon": 26.6403002}, {"type": "node", "id": 4534757070, "lat": 40.8487374, "lon": 26.640201}, {"type": "node", "id": 4534757071, "lat": 40.8488174, "lon": 26.6401633}, {"type": "node", "id": 4534757072, "lat": 40.8488968, "lon": 26.6401325}, {"type": "node", "id": 4534757073, "lat": 40.8489789, "lon": 26.6401115}, {"type": "node", "id": 4582156825, "lat": 40.8485911, "lon": 26.6385887}, {"type": "node", "id": 4635918031, "lat": 40.8484686, "lon": 26.6389463}, {"type": "node", "id": 4635918032, "lat": 40.8485369, "lon": 26.6388047}, {"type": "node", "id": 4639285506, "lat": 40.8480094, "lon": 26.6399714}, {"type": "node", "id": 4639285516, "lat": 40.848163, "lon": 26.6394837}, {"type": "node", "id": 4639285526, "lat": 40.84865, "lon": 26.6402501}, {"type": "node", "id": 4743600768, "lat": 40.845848, "lon": 26.639793}, {"type": "node", "id": 4743600769, "lat": 40.8458808, "lon": 26.6397613}, {"type": "node", "id": 4833637113, "lat": 40.8480953, "lon": 26.6364474}, {"type": "node", "id": 4843849712, "lat": 40.8464481, "lon": 26.6398628}, {"type": "node", "id": 4843849713, "lat": 40.8465016, "lon": 26.6398357}, {"type": "node", "id": 4843849714, "lat": 40.8464685, "lon": 26.6398442}, {"type": "node", "id": 4843849715, "lat": 40.846554, "lon": 26.6398327}, {"type": "node", "id": 4843849716, "lat": 40.8465292, "lon": 26.6398372}, {"type": "node", "id": 4843919123, "lat": 40.8473844, "lon": 26.6387769}, {"type": "node", "id": 5129383577, "lat": 40.8478543, "lon": 26.6375691}, {"type": "node", "id": 5135548352, "lat": 40.8458622, "lon": 26.6397782}, {"type": "node", "id": 5135548353, "lat": 40.8458324, "lon": 26.6398147}, {"type": "node", "id": 5135548355, "lat": 40.8465425, "lon": 26.6398364}, {"type": "node", "id": 5135548356, "lat": 40.8464837, "lon": 26.6398373}, {"type": "node", "id": 5135700840, "lat": 40.8458381, "lon": 26.6403425}, {"type": "node", "id": 5144360826, "lat": 40.8458232, "lon": 26.6398329}, {"type": "node", "id": 5144360827, "lat": 40.8458145, "lon": 26.6398555}, {"type": "node", "id": 5187358623, "lat": 40.8486342, "lon": 26.6402681}, {"type": "node", "id": 5187529532, "lat": 40.8464583, "lon": 26.6398523}, {"type": "node", "id": 5194199528, "lat": 40.8484906, "lon": 26.6389117}, {"type": "node", "id": 5194199529, "lat": 40.8485252, "lon": 26.6388403}, {"type": "node", "id": 5252241859, "lat": 40.8466815, "lon": 26.6396744}, {"type": "node", "id": 1610698715, "lat": 40.8483806, "lon": 26.6432516}, {"type": "node", "id": 1610698735, "lat": 40.8472954, "lon": 26.6425476}, {"type": "node", "id": 1610698861, "lat": 40.8503937, "lon": 26.6438563}, {"type": "node", "id": 1610698904, "lat": 40.8498904, "lon": 26.6424321}, {"type": "node", "id": 1610699404, "lat": 40.8486962, "lon": 26.6433364}, {"type": "node", "id": 1610699748, "lat": 40.8454254, "lon": 26.6414418}, {"type": "node", "id": 1610699907, "lat": 40.8454582, "lon": 26.6465695}, {"type": "node", "id": 3423673175, "lat": 40.848763, "lon": 26.6420765}, {"type": "node", "id": 3423673176, "lat": 40.8484735, "lon": 26.6419601}, {"type": "node", "id": 3423673177, "lat": 40.8480039, "lon": 26.6418374}, {"type": "node", "id": 3423673178, "lat": 40.8475641, "lon": 26.6415835}, {"type": "node", "id": 3423673179, "lat": 40.8468051, "lon": 26.641202}, {"type": "node", "id": 3423673180, "lat": 40.8464566, "lon": 26.641022}, {"type": "node", "id": 3423673181, "lat": 40.8461898, "lon": 26.6408633}, {"type": "node", "id": 3423673182, "lat": 40.8459198, "lon": 26.640672}, {"type": "node", "id": 3423673188, "lat": 40.8478702, "lon": 26.6404632}, {"type": "node", "id": 3423673520, "lat": 40.8477407, "lon": 26.6409483}, {"type": "node", "id": 3423673530, "lat": 40.8456103, "lon": 26.6411384}, {"type": "node", "id": 4447495549, "lat": 40.849166, "lon": 26.6434992}, {"type": "node", "id": 4447495551, "lat": 40.8484158, "lon": 26.6443361}, {"type": "node", "id": 4447495571, "lat": 40.84792, "lon": 26.6441347}, {"type": "node", "id": 4447495572, "lat": 40.8475017, "lon": 26.6440551}, {"type": "node", "id": 4447495574, "lat": 40.847374, "lon": 26.6440086}, {"type": "node", "id": 4447495575, "lat": 40.846894, "lon": 26.6437392}, {"type": "node", "id": 4447495577, "lat": 40.8481575, "lon": 26.6431222}, {"type": "node", "id": 4447495578, "lat": 40.8480322, "lon": 26.6436577}, {"type": "node", "id": 4447495579, "lat": 40.8470961, "lon": 26.643146}, {"type": "node", "id": 4533221894, "lat": 40.846931, "lon": 26.6436286}, {"type": "node", "id": 4533221895, "lat": 40.8465488, "lon": 26.6433955}, {"type": "node", "id": 4533221896, "lat": 40.846126, "lon": 26.6447786}, {"type": "node", "id": 4533221897, "lat": 40.8457005, "lon": 26.6428822}, {"type": "node", "id": 4533221900, "lat": 40.84628, "lon": 26.644234}, {"type": "node", "id": 4533221901, "lat": 40.84562, "lon": 26.6431316}, {"type": "node", "id": 4533221902, "lat": 40.8458859, "lon": 26.6454706}, {"type": "node", "id": 4534757084, "lat": 40.8481895, "lon": 26.642854}, {"type": "node", "id": 4534757085, "lat": 40.8494532, "lon": 26.6423306}, {"type": "node", "id": 4538660787, "lat": 40.8483763, "lon": 26.6409097}, {"type": "node", "id": 4538660788, "lat": 40.8473949, "lon": 26.642169}, {"type": "node", "id": 4538660990, "lat": 40.8477337, "lon": 26.6424563}, {"type": "node", "id": 4538660993, "lat": 40.8489836, "lon": 26.6421925}, {"type": "node", "id": 4538660997, "lat": 40.8465059, "lon": 26.6450151}, {"type": "node", "id": 4558943525, "lat": 40.8461104, "lon": 26.6451129}, {"type": "node", "id": 4558943526, "lat": 40.8460506, "lon": 26.6452853}, {"type": "node", "id": 4558943527, "lat": 40.846263, "lon": 26.6454141}, {"type": "node", "id": 4558943528, "lat": 40.8463228, "lon": 26.6452417}, {"type": "node", "id": 4558943529, "lat": 40.8463776, "lon": 26.6447074}, {"type": "node", "id": 4558943530, "lat": 40.846347, "lon": 26.644805}, {"type": "node", "id": 4558943531, "lat": 40.8464678, "lon": 26.6448712}, {"type": "node", "id": 4558943532, "lat": 40.8464778, "lon": 26.6447819}, {"type": "node", "id": 4573324813, "lat": 40.8464299, "lon": 26.6444013}, {"type": "node", "id": 4573324814, "lat": 40.8463897, "lon": 26.6445253}, {"type": "node", "id": 4573324815, "lat": 40.846272, "lon": 26.6444586}, {"type": "node", "id": 4573324816, "lat": 40.8463123, "lon": 26.6443345}, {"type": "node", "id": 4573324817, "lat": 40.8465213, "lon": 26.6440815}, {"type": "node", "id": 4573324818, "lat": 40.8464937, "lon": 26.6441751}, {"type": "node", "id": 4573324819, "lat": 40.8463763, "lon": 26.6441145}, {"type": "node", "id": 4573324820, "lat": 40.8464039, "lon": 26.6440209}, {"type": "node", "id": 4573324821, "lat": 40.8460418, "lon": 26.6443837}, {"type": "node", "id": 4573324822, "lat": 40.8459451, "lon": 26.644326}, {"type": "node", "id": 4573324823, "lat": 40.8460084, "lon": 26.6441407}, {"type": "node", "id": 4573324824, "lat": 40.8461052, "lon": 26.6441985}, {"type": "node", "id": 4573324825, "lat": 40.8458126, "lon": 26.6451385}, {"type": "node", "id": 4573324826, "lat": 40.8457473, "lon": 26.6453159}, {"type": "node", "id": 4573324827, "lat": 40.84584, "lon": 26.6453755}, {"type": "node", "id": 4573324828, "lat": 40.8458959, "lon": 26.6452236}, {"type": "node", "id": 4573324829, "lat": 40.8458451, "lon": 26.645191}, {"type": "node", "id": 4573324830, "lat": 40.8458545, "lon": 26.6451655}, {"type": "node", "id": 4573324841, "lat": 40.8457739, "lon": 26.6455118}, {"type": "node", "id": 4573324842, "lat": 40.8457125, "lon": 26.6456909}, {"type": "node", "id": 4573324843, "lat": 40.8456344, "lon": 26.6456442}, {"type": "node", "id": 4573324844, "lat": 40.8456959, "lon": 26.645465}, {"type": "node", "id": 4573324845, "lat": 40.8464812, "lon": 26.6443847}, {"type": "node", "id": 4573324846, "lat": 40.846445, "lon": 26.6445029}, {"type": "node", "id": 4573324847, "lat": 40.8465113, "lon": 26.6445384}, {"type": "node", "id": 4573324848, "lat": 40.846519, "lon": 26.644513}, {"type": "node", "id": 4573324849, "lat": 40.8465612, "lon": 26.6445356}, {"type": "node", "id": 4573324850, "lat": 40.8465896, "lon": 26.6444427}, {"type": "node", "id": 4573328226, "lat": 40.8465663, "lon": 26.6442216}, {"type": "node", "id": 4573328227, "lat": 40.8466379, "lon": 26.6442576}, {"type": "node", "id": 4573328228, "lat": 40.8466741, "lon": 26.6441316}, {"type": "node", "id": 4573328229, "lat": 40.8466026, "lon": 26.6440956}, {"type": "node", "id": 4573328230, "lat": 40.8465744, "lon": 26.6439276}, {"type": "node", "id": 4573328231, "lat": 40.8465592, "lon": 26.6439749}, {"type": "node", "id": 4573328232, "lat": 40.8465685, "lon": 26.6439801}, {"type": "node", "id": 4573328233, "lat": 40.8465468, "lon": 26.6440475}, {"type": "node", "id": 4573328234, "lat": 40.8464965, "lon": 26.6440192}, {"type": "node", "id": 4573328235, "lat": 40.8464921, "lon": 26.644033}, {"type": "node", "id": 4573328236, "lat": 40.8464186, "lon": 26.6439706}, {"type": "node", "id": 4573328237, "lat": 40.8464566, "lon": 26.6438951}, {"type": "node", "id": 4573328238, "lat": 40.8464979, "lon": 26.6439183}, {"type": "node", "id": 4573328239, "lat": 40.8465071, "lon": 26.6438897}, {"type": "node", "id": 4573328240, "lat": 40.8453306, "lon": 26.6454859}, {"type": "node", "id": 4573328246, "lat": 40.8453771, "lon": 26.6455087}, {"type": "node", "id": 4573328248, "lat": 40.8453973, "lon": 26.6457025}, {"type": "node", "id": 4573328249, "lat": 40.8454537, "lon": 26.6455627}, {"type": "node", "id": 4573328275, "lat": 40.8454542, "lon": 26.643415}, {"type": "node", "id": 4573328276, "lat": 40.8453906, "lon": 26.6435944}, {"type": "node", "id": 4573328278, "lat": 40.8453574, "lon": 26.643355}, {"type": "node", "id": 4573328279, "lat": 40.8454606, "lon": 26.6438246}, {"type": "node", "id": 4573328280, "lat": 40.8454012, "lon": 26.6440021}, {"type": "node", "id": 4573328281, "lat": 40.8454737, "lon": 26.6440445}, {"type": "node", "id": 4573328282, "lat": 40.8455331, "lon": 26.643867}, {"type": "node", "id": 4573347892, "lat": 40.8457163, "lon": 26.644785}, {"type": "node", "id": 4573347893, "lat": 40.845652, "lon": 26.6447408}, {"type": "node", "id": 4573347894, "lat": 40.8455993, "lon": 26.6448746}, {"type": "node", "id": 4573347895, "lat": 40.8456635, "lon": 26.6449188}, {"type": "node", "id": 4573347896, "lat": 40.845808, "lon": 26.6458911}, {"type": "node", "id": 4573347897, "lat": 40.8457716, "lon": 26.6459904}, {"type": "node", "id": 4573347898, "lat": 40.8458892, "lon": 26.6460657}, {"type": "node", "id": 4573347899, "lat": 40.8459256, "lon": 26.6459664}, {"type": "node", "id": 4573347900, "lat": 40.8461213, "lon": 26.6454216}, {"type": "node", "id": 4573347901, "lat": 40.8460842, "lon": 26.6455238}, {"type": "node", "id": 4573347902, "lat": 40.8459723, "lon": 26.6454528}, {"type": "node", "id": 4573347903, "lat": 40.8460094, "lon": 26.6453506}, {"type": "node", "id": 4573347904, "lat": 40.8460727, "lon": 26.6455609}, {"type": "node", "id": 4573347905, "lat": 40.8460394, "lon": 26.6456502}, {"type": "node", "id": 4573347906, "lat": 40.8459249, "lon": 26.6455756}, {"type": "node", "id": 4573347907, "lat": 40.8459582, "lon": 26.6454863}, {"type": "node", "id": 4582156827, "lat": 40.8477592, "lon": 26.6417051}, {"type": "node", "id": 4582156830, "lat": 40.8457019, "lon": 26.6410085}, {"type": "node", "id": 4582156831, "lat": 40.8461412, "lon": 26.6413338}, {"type": "node", "id": 4582156832, "lat": 40.846362, "lon": 26.641469}, {"type": "node", "id": 4582156833, "lat": 40.8466021, "lon": 26.6415656}, {"type": "node", "id": 4582156834, "lat": 40.8468183, "lon": 26.6416223}, {"type": "node", "id": 4582156835, "lat": 40.846954, "lon": 26.6416719}, {"type": "node", "id": 4582156837, "lat": 40.8471635, "lon": 26.6417707}, {"type": "node", "id": 4582156838, "lat": 40.8474623, "lon": 26.6419232}, {"type": "node", "id": 4582167567, "lat": 40.8471147, "lon": 26.6430905}, {"type": "node", "id": 4582167568, "lat": 40.8464258, "lon": 26.6437672}, {"type": "node", "id": 4582167569, "lat": 40.8468399, "lon": 26.6439105}, {"type": "node", "id": 4582816834, "lat": 40.8462948, "lon": 26.641998}, {"type": "node", "id": 4582816835, "lat": 40.8461278, "lon": 26.6424907}, {"type": "node", "id": 4582816836, "lat": 40.8459663, "lon": 26.6430385}, {"type": "node", "id": 4584444982, "lat": 40.8454514, "lon": 26.6431357}, {"type": "node", "id": 4584444983, "lat": 40.8454233, "lon": 26.6432157}, {"type": "node", "id": 4584444984, "lat": 40.8455033, "lon": 26.643265}, {"type": "node", "id": 4584444985, "lat": 40.8455315, "lon": 26.643185}, {"type": "node", "id": 4584444986, "lat": 40.8454415, "lon": 26.6431381}, {"type": "node", "id": 4584444987, "lat": 40.8453861, "lon": 26.6432936}, {"type": "node", "id": 4584444989, "lat": 40.8453502, "lon": 26.6430813}, {"type": "node", "id": 4584445126, "lat": 40.8478388, "lon": 26.6423214}, {"type": "node", "id": 4584445127, "lat": 40.8479065, "lon": 26.6423864}, {"type": "node", "id": 4584445128, "lat": 40.8478403, "lon": 26.642507}, {"type": "node", "id": 4584445129, "lat": 40.8477726, "lon": 26.642442}, {"type": "node", "id": 4584445130, "lat": 40.84742, "lon": 26.6417557}, {"type": "node", "id": 4584445131, "lat": 40.847393, "lon": 26.6418513}, {"type": "node", "id": 4584445132, "lat": 40.8472846, "lon": 26.6417976}, {"type": "node", "id": 4584445133, "lat": 40.8473117, "lon": 26.6417021}, {"type": "node", "id": 4584445134, "lat": 40.8463457, "lon": 26.6442495}, {"type": "node", "id": 4584445135, "lat": 40.846373, "lon": 26.6441683}, {"type": "node", "id": 4584445136, "lat": 40.8464732, "lon": 26.6442228}, {"type": "node", "id": 4584445137, "lat": 40.8464447, "lon": 26.6443076}, {"type": "node", "id": 4584445138, "lat": 40.8456847, "lon": 26.6439955}, {"type": "node", "id": 4584445139, "lat": 40.8457392, "lon": 26.6440661}, {"type": "node", "id": 4584445140, "lat": 40.8457212, "lon": 26.6441533}, {"type": "node", "id": 4584445141, "lat": 40.8456457, "lon": 26.6441074}, {"type": "node", "id": 4584445142, "lat": 40.8456357, "lon": 26.6442188}, {"type": "node", "id": 4584445143, "lat": 40.8456776, "lon": 26.6442571}, {"type": "node", "id": 4584445144, "lat": 40.8456454, "lon": 26.6443852}, {"type": "node", "id": 4584445145, "lat": 40.8455641, "lon": 26.6443367}, {"type": "node", "id": 4584445146, "lat": 40.8456555, "lon": 26.6436461}, {"type": "node", "id": 4584445147, "lat": 40.8456192, "lon": 26.643744}, {"type": "node", "id": 4584445148, "lat": 40.8455076, "lon": 26.6436717}, {"type": "node", "id": 4584445149, "lat": 40.845544, "lon": 26.6435738}, {"type": "node", "id": 4584445150, "lat": 40.8454933, "lon": 26.6449244}, {"type": "node", "id": 4584445151, "lat": 40.8455186, "lon": 26.644989}, {"type": "node", "id": 4584445152, "lat": 40.8454907, "lon": 26.6450627}, {"type": "node", "id": 4584445153, "lat": 40.8454015, "lon": 26.6450707}, {"type": "node", "id": 4584445154, "lat": 40.8458604, "lon": 26.6457942}, {"type": "node", "id": 4584445155, "lat": 40.8458241, "lon": 26.6458423}, {"type": "node", "id": 4584445156, "lat": 40.8459348, "lon": 26.6459257}, {"type": "node", "id": 4584445157, "lat": 40.8459474, "lon": 26.6458575}, {"type": "node", "id": 4608867091, "lat": 40.847672, "lon": 26.6419527}, {"type": "node", "id": 4608867092, "lat": 40.8475721, "lon": 26.6418958}, {"type": "node", "id": 4608867093, "lat": 40.8476337, "lon": 26.6417805}, {"type": "node", "id": 4608867094, "lat": 40.8477185, "lon": 26.6418099}, {"type": "node", "id": 4637517814, "lat": 40.8459085, "lon": 26.6441108}, {"type": "node", "id": 4637517815, "lat": 40.8458616, "lon": 26.644251}, {"type": "node", "id": 4637517816, "lat": 40.8459228, "lon": 26.644287}, {"type": "node", "id": 4637517817, "lat": 40.8459645, "lon": 26.6441616}, {"type": "node", "id": 4637517818, "lat": 40.8454503, "lon": 26.6445283}, {"type": "node", "id": 4637517819, "lat": 40.8453977, "lon": 26.6446913}, {"type": "node", "id": 4637517820, "lat": 40.8454784, "lon": 26.6447368}, {"type": "node", "id": 4637517821, "lat": 40.8455346, "lon": 26.6445623}, {"type": "node", "id": 4637517826, "lat": 40.845346, "lon": 26.6447991}, {"type": "node", "id": 4637517828, "lat": 40.8453706, "lon": 26.6450212}, {"type": "node", "id": 4637517829, "lat": 40.8454322, "lon": 26.6448548}, {"type": "node", "id": 4637517834, "lat": 40.8456834, "lon": 26.6451015}, {"type": "node", "id": 4637517835, "lat": 40.8457809, "lon": 26.6451129}, {"type": "node", "id": 4637517836, "lat": 40.8457053, "lon": 26.6452901}, {"type": "node", "id": 4637517837, "lat": 40.845651, "lon": 26.6451833}, {"type": "node", "id": 4637517838, "lat": 40.8460727, "lon": 26.6448538}, {"type": "node", "id": 4637517839, "lat": 40.846017, "lon": 26.6450099}, {"type": "node", "id": 4637517840, "lat": 40.8459379, "lon": 26.6449606}, {"type": "node", "id": 4637517841, "lat": 40.8459936, "lon": 26.6448045}, {"type": "node", "id": 4637517842, "lat": 40.8458373, "lon": 26.6447477}, {"type": "node", "id": 4637517843, "lat": 40.8457867, "lon": 26.64488}, {"type": "node", "id": 4637517844, "lat": 40.8458692, "lon": 26.644935}, {"type": "node", "id": 4637517845, "lat": 40.8459197, "lon": 26.6448027}, {"type": "node", "id": 4743600108, "lat": 40.8453391, "lon": 26.6457319}, {"type": "node", "id": 4743600109, "lat": 40.8456953, "lon": 26.6459464}, {"type": "node", "id": 4833594308, "lat": 40.8485403, "lon": 26.6433206}, {"type": "node", "id": 4833594314, "lat": 40.8457739, "lon": 26.6469353}, {"type": "node", "id": 4834662696, "lat": 40.8477639, "lon": 26.6428384}, {"type": "node", "id": 4834662697, "lat": 40.8475283, "lon": 26.6426824}, {"type": "node", "id": 4834662698, "lat": 40.8479835, "lon": 26.6429927}, {"type": "node", "id": 4834662699, "lat": 40.8484598, "lon": 26.6432896}, {"type": "node", "id": 4834662700, "lat": 40.8486131, "lon": 26.6433372}, {"type": "node", "id": 4834662701, "lat": 40.8485255, "lon": 26.6431621}, {"type": "node", "id": 4834662702, "lat": 40.8486316, "lon": 26.6432642}, {"type": "node", "id": 4841804671, "lat": 40.845428, "lon": 26.6436995}, {"type": "node", "id": 4841804672, "lat": 40.8457395, "lon": 26.6445392}, {"type": "node", "id": 4841804673, "lat": 40.8454725, "lon": 26.6443901}, {"type": "node", "id": 4841804674, "lat": 40.8455975, "lon": 26.6444555}, {"type": "node", "id": 4842399848, "lat": 40.8469196, "lon": 26.6417344}, {"type": "node", "id": 4842399849, "lat": 40.8468841, "lon": 26.6418761}, {"type": "node", "id": 4842399850, "lat": 40.8469826, "lon": 26.6419192}, {"type": "node", "id": 4842399851, "lat": 40.847018, "lon": 26.6417774}, {"type": "node", "id": 4842399852, "lat": 40.846466, "lon": 26.641517}, {"type": "node", "id": 4842399853, "lat": 40.8470689, "lon": 26.6417242}, {"type": "node", "id": 4842399854, "lat": 40.8474554, "lon": 26.6423432}, {"type": "node", "id": 4842399855, "lat": 40.8474165, "lon": 26.6424246}, {"type": "node", "id": 4842399856, "lat": 40.8475126, "lon": 26.6425046}, {"type": "node", "id": 4842399857, "lat": 40.8475514, "lon": 26.6424232}, {"type": "node", "id": 4842399858, "lat": 40.8473388, "lon": 26.6426817}, {"type": "node", "id": 4842399859, "lat": 40.8474113, "lon": 26.6427244}, {"type": "node", "id": 4842399860, "lat": 40.8473686, "lon": 26.6428507}, {"type": "node", "id": 4842399861, "lat": 40.8472962, "lon": 26.642808}, {"type": "node", "id": 4843849931, "lat": 40.845655, "lon": 26.6431638}, {"type": "node", "id": 4843849932, "lat": 40.8456112, "lon": 26.6432814}, {"type": "node", "id": 4843849933, "lat": 40.8456445, "lon": 26.643303}, {"type": "node", "id": 4843849934, "lat": 40.8456313, "lon": 26.6433386}, {"type": "node", "id": 4843849935, "lat": 40.8456636, "lon": 26.6433596}, {"type": "node", "id": 4843849936, "lat": 40.8457206, "lon": 26.6432065}, {"type": "node", "id": 4843849941, "lat": 40.8458192, "lon": 26.6412241}, {"type": "node", "id": 4843849942, "lat": 40.8457613, "lon": 26.641366}, {"type": "node", "id": 4843849943, "lat": 40.8456741, "lon": 26.6413038}, {"type": "node", "id": 4843849944, "lat": 40.845732, "lon": 26.6411619}, {"type": "node", "id": 4843849945, "lat": 40.8462988, "lon": 26.6412263}, {"type": "node", "id": 4843849946, "lat": 40.8462608, "lon": 26.6413458}, {"type": "node", "id": 4843849947, "lat": 40.8461785, "lon": 26.6412999}, {"type": "node", "id": 4843849948, "lat": 40.8462166, "lon": 26.6411805}, {"type": "node", "id": 4843849949, "lat": 40.8464911, "lon": 26.6411665}, {"type": "node", "id": 4843849950, "lat": 40.8464654, "lon": 26.6412689}, {"type": "node", "id": 4843849951, "lat": 40.8465512, "lon": 26.6413066}, {"type": "node", "id": 4843849952, "lat": 40.846577, "lon": 26.6412042}, {"type": "node", "id": 4844683883, "lat": 40.8474252, "lon": 26.6440343}, {"type": "node", "id": 4844683884, "lat": 40.8474634, "lon": 26.6440472}, {"type": "node", "id": 4844683885, "lat": 40.8468707, "lon": 26.6427235}, {"type": "node", "id": 4844683886, "lat": 40.8468234, "lon": 26.642856}, {"type": "node", "id": 4844683887, "lat": 40.8469084, "lon": 26.642909}, {"type": "node", "id": 4844683888, "lat": 40.8469557, "lon": 26.6427766}, {"type": "node", "id": 4844683889, "lat": 40.8467261, "lon": 26.6424034}, {"type": "node", "id": 4844683890, "lat": 40.8466813, "lon": 26.6425337}, {"type": "node", "id": 4844683891, "lat": 40.846754, "lon": 26.6425774}, {"type": "node", "id": 4844683892, "lat": 40.8467988, "lon": 26.642447}, {"type": "node", "id": 4844683893, "lat": 40.8465797, "lon": 26.6423068}, {"type": "node", "id": 4844683894, "lat": 40.8466966, "lon": 26.6423751}, {"type": "node", "id": 4844683895, "lat": 40.8466474, "lon": 26.6425223}, {"type": "node", "id": 4844683896, "lat": 40.8465305, "lon": 26.642454}, {"type": "node", "id": 4844683897, "lat": 40.84634, "lon": 26.6421577}, {"type": "node", "id": 4844683898, "lat": 40.8462894, "lon": 26.6423043}, {"type": "node", "id": 4844683899, "lat": 40.8464783, "lon": 26.6424184}, {"type": "node", "id": 4844683900, "lat": 40.8465289, "lon": 26.6422718}, {"type": "node", "id": 4844683901, "lat": 40.8462499, "lon": 26.6423745}, {"type": "node", "id": 4844683902, "lat": 40.8462156, "lon": 26.6424796}, {"type": "node", "id": 4844683903, "lat": 40.8463226, "lon": 26.6425405}, {"type": "node", "id": 4844683904, "lat": 40.8463571, "lon": 26.6424347}, {"type": "node", "id": 4844683905, "lat": 40.846286, "lon": 26.642734}, {"type": "node", "id": 4844683906, "lat": 40.8462337, "lon": 26.6428852}, {"type": "node", "id": 4844683907, "lat": 40.8462937, "lon": 26.6429214}, {"type": "node", "id": 4844683908, "lat": 40.8463518, "lon": 26.6427553}, {"type": "node", "id": 4844683909, "lat": 40.8466206, "lon": 26.6425617}, {"type": "node", "id": 4844683910, "lat": 40.8465357, "lon": 26.642511}, {"type": "node", "id": 4844683911, "lat": 40.846493, "lon": 26.642636}, {"type": "node", "id": 4844683912, "lat": 40.8465779, "lon": 26.6426867}, {"type": "node", "id": 4844683913, "lat": 40.8467312, "lon": 26.6426234}, {"type": "node", "id": 4844683914, "lat": 40.84666, "lon": 26.6425797}, {"type": "node", "id": 4844683915, "lat": 40.8466089, "lon": 26.6427252}, {"type": "node", "id": 4844683916, "lat": 40.84668, "lon": 26.6427689}, {"type": "node", "id": 4844683917, "lat": 40.8468035, "lon": 26.6425886}, {"type": "node", "id": 4844683918, "lat": 40.8468628, "lon": 26.6426256}, {"type": "node", "id": 4844683919, "lat": 40.8469022, "lon": 26.6425187}, {"type": "node", "id": 4844683920, "lat": 40.8468484, "lon": 26.6424633}, {"type": "node", "id": 4844683921, "lat": 40.8467727, "lon": 26.6426582}, {"type": "node", "id": 4844683922, "lat": 40.8467296, "lon": 26.6427791}, {"type": "node", "id": 4844683923, "lat": 40.8468014, "lon": 26.6428237}, {"type": "node", "id": 4844683924, "lat": 40.8468444, "lon": 26.6427029}, {"type": "node", "id": 4844683925, "lat": 40.8467385, "lon": 26.6429907}, {"type": "node", "id": 4844683926, "lat": 40.8466793, "lon": 26.6431528}, {"type": "node", "id": 4844683927, "lat": 40.8466009, "lon": 26.6431028}, {"type": "node", "id": 4844683928, "lat": 40.8466601, "lon": 26.6429407}, {"type": "node", "id": 4844683929, "lat": 40.8467541, "lon": 26.6432565}, {"type": "node", "id": 4844683930, "lat": 40.8466017, "lon": 26.6431595}, {"type": "node", "id": 4844683931, "lat": 40.8465476, "lon": 26.6433078}, {"type": "node", "id": 4844683932, "lat": 40.8466943, "lon": 26.6434208}, {"type": "node", "id": 4844683933, "lat": 40.8466468, "lon": 26.6433709}, {"type": "node", "id": 4844683934, "lat": 40.846641, "lon": 26.6433868}, {"type": "node", "id": 4844683935, "lat": 40.8468118, "lon": 26.6432214}, {"type": "node", "id": 4844683936, "lat": 40.8467776, "lon": 26.6433003}, {"type": "node", "id": 4844683937, "lat": 40.8469161, "lon": 26.6433793}, {"type": "node", "id": 4844683938, "lat": 40.8469326, "lon": 26.6432904}, {"type": "node", "id": 4844683939, "lat": 40.8468606, "lon": 26.6430911}, {"type": "node", "id": 4844683940, "lat": 40.8468333, "lon": 26.6431785}, {"type": "node", "id": 4844683941, "lat": 40.8469464, "lon": 26.6432401}, {"type": "node", "id": 4844683942, "lat": 40.8469714, "lon": 26.6431598}, {"type": "node", "id": 4844683947, "lat": 40.8465159, "lon": 26.6442499}, {"type": "node", "id": 4844683948, "lat": 40.846488, "lon": 26.644335}, {"type": "node", "id": 4844683949, "lat": 40.8465985, "lon": 26.6443946}, {"type": "node", "id": 4844683950, "lat": 40.8466264, "lon": 26.6443081}, {"type": "node", "id": 4844683951, "lat": 40.8460664, "lon": 26.6443683}, {"type": "node", "id": 4844683952, "lat": 40.8461433, "lon": 26.6444157}, {"type": "node", "id": 4844683953, "lat": 40.8461593, "lon": 26.6443456}, {"type": "node", "id": 4844683954, "lat": 40.8461036, "lon": 26.6442629}, {"type": "node", "id": 4844683955, "lat": 40.8459492, "lon": 26.6423417}, {"type": "node", "id": 4844683956, "lat": 40.8460657, "lon": 26.642418}, {"type": "node", "id": 4844683957, "lat": 40.8461222, "lon": 26.6422672}, {"type": "node", "id": 4844683958, "lat": 40.8460057, "lon": 26.6421909}, {"type": "node", "id": 4844683959, "lat": 40.8457998, "lon": 26.6422547}, {"type": "node", "id": 4844683960, "lat": 40.845687, "lon": 26.6421815}, {"type": "node", "id": 4844683961, "lat": 40.8457363, "lon": 26.6420865}, {"type": "node", "id": 4844683962, "lat": 40.8458378, "lon": 26.6421524}, {"type": "node", "id": 4844683963, "lat": 40.8455137, "lon": 26.6409396}, {"type": "node", "id": 4844683964, "lat": 40.8455783, "lon": 26.6409966}, {"type": "node", "id": 4844683965, "lat": 40.8455284, "lon": 26.6410955}, {"type": "node", "id": 4844683966, "lat": 40.8454638, "lon": 26.6410385}, {"type": "node", "id": 4845991236, "lat": 40.846884, "lon": 26.6416448}, {"type": "node", "id": 4845991237, "lat": 40.8472776, "lon": 26.641894}, {"type": "node", "id": 4845991238, "lat": 40.8472394, "lon": 26.6420295}, {"type": "node", "id": 4845991239, "lat": 40.8471627, "lon": 26.6419917}, {"type": "node", "id": 4845991240, "lat": 40.8472009, "lon": 26.6418562}, {"type": "node", "id": 4845991245, "lat": 40.8472794, "lon": 26.6421043}, {"type": "node", "id": 4845991246, "lat": 40.8472459, "lon": 26.6422118}, {"type": "node", "id": 4845991247, "lat": 40.8471402, "lon": 26.6421542}, {"type": "node", "id": 4845991248, "lat": 40.8471737, "lon": 26.6420466}, {"type": "node", "id": 4845991249, "lat": 40.8470422, "lon": 26.6421299}, {"type": "node", "id": 4845991250, "lat": 40.8469845, "lon": 26.6422894}, {"type": "node", "id": 4845991251, "lat": 40.8470273, "lon": 26.6423}, {"type": "node", "id": 4845991252, "lat": 40.8471049, "lon": 26.6421879}, {"type": "node", "id": 4845991253, "lat": 40.8469108, "lon": 26.6420681}, {"type": "node", "id": 4845991254, "lat": 40.8469823, "lon": 26.6421076}, {"type": "node", "id": 4845991255, "lat": 40.8469301, "lon": 26.6422795}, {"type": "node", "id": 4845991256, "lat": 40.8468573, "lon": 26.6422391}, {"type": "node", "id": 4845991257, "lat": 40.8468758, "lon": 26.6420386}, {"type": "node", "id": 4845991258, "lat": 40.8468177, "lon": 26.6421939}, {"type": "node", "id": 4845991259, "lat": 40.8467457, "lon": 26.6421468}, {"type": "node", "id": 4845991260, "lat": 40.8468044, "lon": 26.6419918}, {"type": "node", "id": 4845991261, "lat": 40.8469005, "lon": 26.6417287}, {"type": "node", "id": 4845991262, "lat": 40.8468747, "lon": 26.6418546}, {"type": "node", "id": 4845991263, "lat": 40.8467885, "lon": 26.6418238}, {"type": "node", "id": 4845991264, "lat": 40.8468143, "lon": 26.6416978}, {"type": "node", "id": 4845991265, "lat": 40.8463821, "lon": 26.6417713}, {"type": "node", "id": 4845991266, "lat": 40.8463378, "lon": 26.6419003}, {"type": "node", "id": 4845991267, "lat": 40.8464022, "lon": 26.641939}, {"type": "node", "id": 4845991268, "lat": 40.8464466, "lon": 26.64181}, {"type": "node", "id": 4845991269, "lat": 40.8458293, "lon": 26.6412198}, {"type": "node", "id": 4845991270, "lat": 40.8457772, "lon": 26.6413432}, {"type": "node", "id": 4845991271, "lat": 40.8458482, "lon": 26.6413956}, {"type": "node", "id": 4845991272, "lat": 40.8458724, "lon": 26.6413219}, {"type": "node", "id": 4846545548, "lat": 40.8476614, "lon": 26.6450274}, {"type": "node", "id": 4846545549, "lat": 40.8474413, "lon": 26.6449445}, {"type": "node", "id": 4846545550, "lat": 40.8473505, "lon": 26.6448816}, {"type": "node", "id": 4846680558, "lat": 40.8478915, "lon": 26.6435349}, {"type": "node", "id": 4846680559, "lat": 40.8479339, "lon": 26.6433884}, {"type": "node", "id": 4846680560, "lat": 40.8480188, "lon": 26.6434314}, {"type": "node", "id": 4846680561, "lat": 40.8479763, "lon": 26.6435779}, {"type": "node", "id": 4846680562, "lat": 40.8477522, "lon": 26.6434654}, {"type": "node", "id": 4846680563, "lat": 40.847865, "lon": 26.6435266}, {"type": "node", "id": 4846680564, "lat": 40.8479102, "lon": 26.6433811}, {"type": "node", "id": 4846680565, "lat": 40.8477974, "lon": 26.6433199}, {"type": "node", "id": 4846680566, "lat": 40.8478581, "lon": 26.6436852}, {"type": "node", "id": 4846680567, "lat": 40.847819, "lon": 26.6438191}, {"type": "node", "id": 4846680568, "lat": 40.847903, "lon": 26.6438619}, {"type": "node", "id": 4846680569, "lat": 40.8479421, "lon": 26.643728}, {"type": "node", "id": 4846680570, "lat": 40.8476505, "lon": 26.6432226}, {"type": "node", "id": 4846680571, "lat": 40.8476014, "lon": 26.6433832}, {"type": "node", "id": 4846680572, "lat": 40.8476641, "lon": 26.6434167}, {"type": "node", "id": 4846680573, "lat": 40.8476822, "lon": 26.6433572}, {"type": "node", "id": 4846680574, "lat": 40.8476971, "lon": 26.6433651}, {"type": "node", "id": 4846680575, "lat": 40.8477078, "lon": 26.6433301}, {"type": "node", "id": 4846680576, "lat": 40.8477279, "lon": 26.6433409}, {"type": "node", "id": 4846680577, "lat": 40.8477481, "lon": 26.6432748}, {"type": "node", "id": 4846680578, "lat": 40.8476229, "lon": 26.6432652}, {"type": "node", "id": 4846680579, "lat": 40.8475901, "lon": 26.6433759}, {"type": "node", "id": 4846680580, "lat": 40.8474782, "lon": 26.6433181}, {"type": "node", "id": 4846680581, "lat": 40.847511, "lon": 26.6432073}, {"type": "node", "id": 4846680582, "lat": 40.8473753, "lon": 26.6432615}, {"type": "node", "id": 4846680583, "lat": 40.8474523, "lon": 26.6433056}, {"type": "node", "id": 4846680584, "lat": 40.8474782, "lon": 26.6432264}, {"type": "node", "id": 4846680585, "lat": 40.8474012, "lon": 26.6431824}, {"type": "node", "id": 4846680586, "lat": 40.8478375, "lon": 26.6430984}, {"type": "node", "id": 4846680587, "lat": 40.8477919, "lon": 26.6432407}, {"type": "node", "id": 4846680588, "lat": 40.8478559, "lon": 26.6432765}, {"type": "node", "id": 4846680589, "lat": 40.8478682, "lon": 26.6432381}, {"type": "node", "id": 4846680590, "lat": 40.8478796, "lon": 26.6432445}, {"type": "node", "id": 4846680591, "lat": 40.8479018, "lon": 26.6431752}, {"type": "node", "id": 4846680592, "lat": 40.847893, "lon": 26.6431703}, {"type": "node", "id": 4846680593, "lat": 40.8479083, "lon": 26.6431224}, {"type": "node", "id": 4852236134, "lat": 40.8474226, "lon": 26.6434333}, {"type": "node", "id": 4852236135, "lat": 40.8473999, "lon": 26.6435134}, {"type": "node", "id": 4852236136, "lat": 40.8473114, "lon": 26.6434697}, {"type": "node", "id": 4852236137, "lat": 40.8473341, "lon": 26.6433895}, {"type": "node", "id": 4852236138, "lat": 40.8474784, "lon": 26.643491}, {"type": "node", "id": 4852236139, "lat": 40.8474232, "lon": 26.6434584}, {"type": "node", "id": 4852236140, "lat": 40.847371, "lon": 26.643613}, {"type": "node", "id": 4852236141, "lat": 40.8474262, "lon": 26.6436456}, {"type": "node", "id": 4852236142, "lat": 40.8472472, "lon": 26.6437346}, {"type": "node", "id": 4852236143, "lat": 40.847269, "lon": 26.6436227}, {"type": "node", "id": 4852236144, "lat": 40.8473348, "lon": 26.6436451}, {"type": "node", "id": 4852236145, "lat": 40.8473305, "lon": 26.643667}, {"type": "node", "id": 4852236146, "lat": 40.8473531, "lon": 26.6436746}, {"type": "node", "id": 4852236147, "lat": 40.8473356, "lon": 26.6437647}, {"type": "node", "id": 4852236148, "lat": 40.84752, "lon": 26.6437581}, {"type": "node", "id": 4852236149, "lat": 40.8475025, "lon": 26.6438539}, {"type": "node", "id": 4852236150, "lat": 40.8474239, "lon": 26.6438288}, {"type": "node", "id": 4852236151, "lat": 40.8474414, "lon": 26.643733}, {"type": "node", "id": 4852236152, "lat": 40.8474322, "lon": 26.6437492}, {"type": "node", "id": 4852236153, "lat": 40.8473908, "lon": 26.6439238}, {"type": "node", "id": 4852236154, "lat": 40.8473227, "lon": 26.6438956}, {"type": "node", "id": 4852236155, "lat": 40.847364, "lon": 26.643721}, {"type": "node", "id": 4852236156, "lat": 40.8473636, "lon": 26.6436204}, {"type": "node", "id": 4852236157, "lat": 40.8473498, "lon": 26.6436612}, {"type": "node", "id": 4852236158, "lat": 40.8474047, "lon": 26.6436937}, {"type": "node", "id": 4852236159, "lat": 40.8474185, "lon": 26.643653}, {"type": "node", "id": 4868176058, "lat": 40.8466978, "lon": 26.6405668}, {"type": "node", "id": 4868176059, "lat": 40.8466358, "lon": 26.64054}, {"type": "node", "id": 4868176060, "lat": 40.8465901, "lon": 26.640725}, {"type": "node", "id": 4868176061, "lat": 40.8466521, "lon": 26.6407518}, {"type": "node", "id": 4868176062, "lat": 40.8461866, "lon": 26.6411531}, {"type": "node", "id": 4868176063, "lat": 40.8461439, "lon": 26.6412604}, {"type": "node", "id": 4868176064, "lat": 40.8460719, "lon": 26.6412103}, {"type": "node", "id": 4868176065, "lat": 40.8461146, "lon": 26.6411031}, {"type": "node", "id": 4868176066, "lat": 40.8460091, "lon": 26.6408429}, {"type": "node", "id": 4868176067, "lat": 40.8459657, "lon": 26.6409336}, {"type": "node", "id": 4868176068, "lat": 40.8460402, "lon": 26.6409959}, {"type": "node", "id": 4868176069, "lat": 40.8460836, "lon": 26.6409052}, {"type": "node", "id": 4868176070, "lat": 40.846003, "lon": 26.6408242}, {"type": "node", "id": 4868176071, "lat": 40.8459517, "lon": 26.6409183}, {"type": "node", "id": 4868176072, "lat": 40.8458915, "lon": 26.6408609}, {"type": "node", "id": 4868176073, "lat": 40.8459428, "lon": 26.6407668}, {"type": "node", "id": 4868176074, "lat": 40.8458477, "lon": 26.6409078}, {"type": "node", "id": 4868176075, "lat": 40.8458098, "lon": 26.6409842}, {"type": "node", "id": 4868176076, "lat": 40.8458284, "lon": 26.6410003}, {"type": "node", "id": 4868176077, "lat": 40.8458086, "lon": 26.6410401}, {"type": "node", "id": 4868176078, "lat": 40.8458945, "lon": 26.6411146}, {"type": "node", "id": 4868176079, "lat": 40.8459446, "lon": 26.6410137}, {"type": "node", "id": 4868176080, "lat": 40.8458736, "lon": 26.6409303}, {"type": "node", "id": 4868176081, "lat": 40.845866, "lon": 26.6409456}, {"type": "node", "id": 4868176082, "lat": 40.8458886, "lon": 26.642442}, {"type": "node", "id": 4868176083, "lat": 40.8458418, "lon": 26.6425611}, {"type": "node", "id": 4868176084, "lat": 40.8459896, "lon": 26.6426604}, {"type": "node", "id": 4868176085, "lat": 40.8460246, "lon": 26.6425313}, {"type": "node", "id": 4868176087, "lat": 40.8455464, "lon": 26.6444261}, {"type": "node", "id": 4908797833, "lat": 40.8486276, "lon": 26.6420077}, {"type": "node", "id": 4908797834, "lat": 40.8487007, "lon": 26.6420421}, {"type": "node", "id": 4909146443, "lat": 40.8470577, "lon": 26.6426126}, {"type": "node", "id": 4909146444, "lat": 40.8470138, "lon": 26.6427445}, {"type": "node", "id": 4909146445, "lat": 40.8470996, "lon": 26.6427948}, {"type": "node", "id": 4909146446, "lat": 40.84713, "lon": 26.6427041}, {"type": "node", "id": 4909146447, "lat": 40.8471282, "lon": 26.642671}, {"type": "node", "id": 4909146448, "lat": 40.8470952, "lon": 26.6426516}, {"type": "node", "id": 4909146449, "lat": 40.8471, "lon": 26.6426374}, {"type": "node", "id": 4917694515, "lat": 40.8453306, "lon": 26.6437502}, {"type": "node", "id": 4917694518, "lat": 40.8453472, "lon": 26.6433168}, {"type": "node", "id": 4917714064, "lat": 40.8477888, "lon": 26.6438588}, {"type": "node", "id": 4917714065, "lat": 40.847712, "lon": 26.6438507}, {"type": "node", "id": 4917714066, "lat": 40.847703, "lon": 26.644001}, {"type": "node", "id": 4917714067, "lat": 40.8477798, "lon": 26.644009}, {"type": "node", "id": 4917714068, "lat": 40.8477931, "lon": 26.643893}, {"type": "node", "id": 4917714069, "lat": 40.8477917, "lon": 26.6440373}, {"type": "node", "id": 4917714070, "lat": 40.8478352, "lon": 26.644038}, {"type": "node", "id": 4917714071, "lat": 40.8478365, "lon": 26.6438937}, {"type": "node", "id": 4917714072, "lat": 40.8477542, "lon": 26.6436307}, {"type": "node", "id": 4917714073, "lat": 40.8477099, "lon": 26.6437875}, {"type": "node", "id": 4917714074, "lat": 40.8477703, "lon": 26.6438174}, {"type": "node", "id": 4917714075, "lat": 40.8478146, "lon": 26.6436605}, {"type": "node", "id": 4917714076, "lat": 40.8477473, "lon": 26.6436392}, {"type": "node", "id": 4917714077, "lat": 40.8477011, "lon": 26.6438074}, {"type": "node", "id": 4917714078, "lat": 40.8476343, "lon": 26.6437754}, {"type": "node", "id": 4917714079, "lat": 40.8476805, "lon": 26.6436071}, {"type": "node", "id": 4917714080, "lat": 40.8475837, "lon": 26.6435411}, {"type": "node", "id": 4917714081, "lat": 40.8475228, "lon": 26.6437056}, {"type": "node", "id": 4917714082, "lat": 40.8475765, "lon": 26.6437403}, {"type": "node", "id": 4917714083, "lat": 40.8476374, "lon": 26.6435758}, {"type": "node", "id": 4917714084, "lat": 40.8475792, "lon": 26.6435406}, {"type": "node", "id": 4917714085, "lat": 40.8475156, "lon": 26.6437098}, {"type": "node", "id": 4917714086, "lat": 40.8474593, "lon": 26.6436729}, {"type": "node", "id": 4917714087, "lat": 40.8475229, "lon": 26.6435036}, {"type": "node", "id": 4936322043, "lat": 40.8461402, "lon": 26.6438846}, {"type": "node", "id": 4936322044, "lat": 40.8460864, "lon": 26.6440474}, {"type": "node", "id": 4936322045, "lat": 40.8462183, "lon": 26.6441236}, {"type": "node", "id": 4936322046, "lat": 40.8462644, "lon": 26.643984}, {"type": "node", "id": 4936322047, "lat": 40.8461787, "lon": 26.6439345}, {"type": "node", "id": 4936322048, "lat": 40.8461864, "lon": 26.6439113}, {"type": "node", "id": 4936322049, "lat": 40.8460329, "lon": 26.6444524}, {"type": "node", "id": 4936322050, "lat": 40.8459903, "lon": 26.6445924}, {"type": "node", "id": 4936322051, "lat": 40.846056, "lon": 26.6446273}, {"type": "node", "id": 4936322052, "lat": 40.8460516, "lon": 26.6446416}, {"type": "node", "id": 4936322053, "lat": 40.8460768, "lon": 26.644655}, {"type": "node", "id": 4936322054, "lat": 40.8460941, "lon": 26.6445981}, {"type": "node", "id": 4936322055, "lat": 40.8460791, "lon": 26.6445902}, {"type": "node", "id": 4936322056, "lat": 40.8460885, "lon": 26.6445595}, {"type": "node", "id": 4936322057, "lat": 40.8461049, "lon": 26.6445682}, {"type": "node", "id": 4936322058, "lat": 40.8461168, "lon": 26.644529}, {"type": "node", "id": 4936322059, "lat": 40.846097, "lon": 26.6445184}, {"type": "node", "id": 4936322060, "lat": 40.8461053, "lon": 26.6444909}, {"type": "node", "id": 4936322061, "lat": 40.8459344, "lon": 26.6443855}, {"type": "node", "id": 4936322062, "lat": 40.8458802, "lon": 26.6445417}, {"type": "node", "id": 4936322063, "lat": 40.8459454, "lon": 26.6445812}, {"type": "node", "id": 4936322064, "lat": 40.8459996, "lon": 26.644425}, {"type": "node", "id": 4936322065, "lat": 40.8457215, "lon": 26.6439904}, {"type": "node", "id": 4936322066, "lat": 40.8457136, "lon": 26.6440131}, {"type": "node", "id": 4941309282, "lat": 40.8471943, "lon": 26.6416264}, {"type": "node", "id": 4941309283, "lat": 40.8471652, "lon": 26.6417256}, {"type": "node", "id": 4941309284, "lat": 40.8472521, "lon": 26.6417702}, {"type": "node", "id": 4941309285, "lat": 40.8472812, "lon": 26.6416711}, {"type": "node", "id": 4941309286, "lat": 40.8472206, "lon": 26.6414984}, {"type": "node", "id": 4941309287, "lat": 40.8471908, "lon": 26.6416101}, {"type": "node", "id": 4941309288, "lat": 40.8472619, "lon": 26.6416432}, {"type": "node", "id": 4941309289, "lat": 40.8472724, "lon": 26.6416038}, {"type": "node", "id": 4941309290, "lat": 40.8472866, "lon": 26.6416104}, {"type": "node", "id": 4941309291, "lat": 40.8473059, "lon": 26.6415381}, {"type": "node", "id": 4941309292, "lat": 40.8470678, "lon": 26.6415564}, {"type": "node", "id": 4941309293, "lat": 40.8470403, "lon": 26.6416625}, {"type": "node", "id": 4941309294, "lat": 40.8471296, "lon": 26.6417029}, {"type": "node", "id": 4941309295, "lat": 40.847157, "lon": 26.6415968}, {"type": "node", "id": 4941309296, "lat": 40.8471517, "lon": 26.6415689}, {"type": "node", "id": 4941309297, "lat": 40.8470643, "lon": 26.6415336}, {"type": "node", "id": 4941309298, "lat": 40.8470911, "lon": 26.6414179}, {"type": "node", "id": 4941309299, "lat": 40.8471784, "lon": 26.6414531}, {"type": "node", "id": 4941309300, "lat": 40.8468157, "lon": 26.6414577}, {"type": "node", "id": 4941309301, "lat": 40.846907, "lon": 26.6414954}, {"type": "node", "id": 4941309302, "lat": 40.8469211, "lon": 26.641436}, {"type": "node", "id": 4941309303, "lat": 40.8469416, "lon": 26.6414445}, {"type": "node", "id": 4941309304, "lat": 40.8469549, "lon": 26.641388}, {"type": "node", "id": 4941309305, "lat": 40.8468431, "lon": 26.6413417}, {"type": "node", "id": 4941309306, "lat": 40.8466138, "lon": 26.641454}, {"type": "node", "id": 4941309307, "lat": 40.8465949, "lon": 26.6415343}, {"type": "node", "id": 4941309308, "lat": 40.846475, "lon": 26.6414851}, {"type": "node", "id": 4941309309, "lat": 40.846498, "lon": 26.6413868}, {"type": "node", "id": 4941309310, "lat": 40.8465434, "lon": 26.6414054}, {"type": "node", "id": 4941309311, "lat": 40.8465391, "lon": 26.6414234}, {"type": "node", "id": 4941309312, "lat": 40.8463489, "lon": 26.6412371}, {"type": "node", "id": 4941309313, "lat": 40.8464401, "lon": 26.6412978}, {"type": "node", "id": 4941309314, "lat": 40.8463945, "lon": 26.6414175}, {"type": "node", "id": 4941309315, "lat": 40.8463033, "lon": 26.6413568}, {"type": "node", "id": 4941309316, "lat": 40.8470756, "lon": 26.642151}, {"type": "node", "id": 4941309317, "lat": 40.8470702, "lon": 26.6421659}, {"type": "node", "id": 4941309318, "lat": 40.8467914, "lon": 26.6432578}, {"type": "node", "id": 4941309319, "lat": 40.8467986, "lon": 26.6432619}, {"type": "node", "id": 4941309320, "lat": 40.8469192, "lon": 26.6433316}, {"type": "node", "id": 4941309621, "lat": 40.8469297, "lon": 26.6433376}, {"type": "node", "id": 4941309622, "lat": 40.8469019, "lon": 26.6431008}, {"type": "node", "id": 4941309623, "lat": 40.846942, "lon": 26.6431226}, {"type": "node", "id": 4941309624, "lat": 40.8469364, "lon": 26.6431408}, {"type": "node", "id": 4941309625, "lat": 40.8468985, "lon": 26.6431118}, {"type": "node", "id": 5129383578, "lat": 40.8463361, "lon": 26.641213}, {"type": "node", "id": 5129383579, "lat": 40.8464383, "lon": 26.6412786}, {"type": "node", "id": 5129383580, "lat": 40.8464555, "lon": 26.641232}, {"type": "node", "id": 5129383581, "lat": 40.8464256, "lon": 26.6412129}, {"type": "node", "id": 5129383582, "lat": 40.846436, "lon": 26.6411847}, {"type": "node", "id": 5129383583, "lat": 40.8464093, "lon": 26.6411676}, {"type": "node", "id": 5129383584, "lat": 40.8463985, "lon": 26.6411969}, {"type": "node", "id": 5129383585, "lat": 40.8463811, "lon": 26.6411857}, {"type": "node", "id": 5129383586, "lat": 40.846387, "lon": 26.6411699}, {"type": "node", "id": 5129383587, "lat": 40.8463586, "lon": 26.6411517}, {"type": "node", "id": 5129383588, "lat": 40.8463709, "lon": 26.6410941}, {"type": "node", "id": 5129383589, "lat": 40.8463303, "lon": 26.6411995}, {"type": "node", "id": 5129383590, "lat": 40.8462419, "lon": 26.64114}, {"type": "node", "id": 5129383591, "lat": 40.8462654, "lon": 26.6410788}, {"type": "node", "id": 5129383592, "lat": 40.846278, "lon": 26.6410873}, {"type": "node", "id": 5129383593, "lat": 40.8462959, "lon": 26.641041}, {"type": "node", "id": 5129383594, "lat": 40.846317, "lon": 26.6410552}, {"type": "node", "id": 5129383595, "lat": 40.8463253, "lon": 26.6410336}, {"type": "node", "id": 5129383596, "lat": 40.8463547, "lon": 26.6410534}, {"type": "node", "id": 5129383597, "lat": 40.8463455, "lon": 26.6410771}, {"type": "node", "id": 5129383598, "lat": 40.8461, "lon": 26.6415342}, {"type": "node", "id": 5129383599, "lat": 40.8461811, "lon": 26.6415966}, {"type": "node", "id": 5129383600, "lat": 40.8462231, "lon": 26.6415014}, {"type": "node", "id": 5129383601, "lat": 40.8461949, "lon": 26.6414797}, {"type": "node", "id": 5129383602, "lat": 40.8462012, "lon": 26.6414656}, {"type": "node", "id": 5129383603, "lat": 40.8461687, "lon": 26.6414406}, {"type": "node", "id": 5129383604, "lat": 40.8461599, "lon": 26.6414606}, {"type": "node", "id": 5129383605, "lat": 40.8461394, "lon": 26.6414448}, {"type": "node", "id": 5129383606, "lat": 40.846102, "lon": 26.6414079}, {"type": "node", "id": 5129383607, "lat": 40.8460648, "lon": 26.6415096}, {"type": "node", "id": 5129383608, "lat": 40.8460099, "lon": 26.6414745}, {"type": "node", "id": 5129383609, "lat": 40.8460315, "lon": 26.6414154}, {"type": "node", "id": 5129383610, "lat": 40.8460184, "lon": 26.6414071}, {"type": "node", "id": 5129383611, "lat": 40.8460341, "lon": 26.6413644}, {"type": "node", "id": 5129383612, "lat": 40.8460211, "lon": 26.6413604}, {"type": "node", "id": 5129383613, "lat": 40.845981, "lon": 26.6414759}, {"type": "node", "id": 5129383614, "lat": 40.8458889, "lon": 26.6414201}, {"type": "node", "id": 5129383615, "lat": 40.8459143, "lon": 26.6413467}, {"type": "node", "id": 5129383616, "lat": 40.8459318, "lon": 26.6413573}, {"type": "node", "id": 5129383617, "lat": 40.8459509, "lon": 26.6413022}, {"type": "node", "id": 5129383618, "lat": 40.8459968, "lon": 26.6413301}, {"type": "node", "id": 5129383619, "lat": 40.8459923, "lon": 26.6413429}, {"type": "node", "id": 5129383620, "lat": 40.8458272, "lon": 26.6414375}, {"type": "node", "id": 5129384421, "lat": 40.8457802, "lon": 26.6415641}, {"type": "node", "id": 5129384422, "lat": 40.8458347, "lon": 26.6415844}, {"type": "node", "id": 5129384423, "lat": 40.8458616, "lon": 26.6414758}, {"type": "node", "id": 5129384424, "lat": 40.8458077, "lon": 26.64143}, {"type": "node", "id": 5129384425, "lat": 40.8457592, "lon": 26.6415467}, {"type": "node", "id": 5129384426, "lat": 40.8456833, "lon": 26.6414902}, {"type": "node", "id": 5129384427, "lat": 40.8457327, "lon": 26.6413742}, {"type": "node", "id": 5129384428, "lat": 40.8456651, "lon": 26.6418143}, {"type": "node", "id": 5129384429, "lat": 40.8456261, "lon": 26.6419244}, {"type": "node", "id": 5129384430, "lat": 40.845707, "lon": 26.6419745}, {"type": "node", "id": 5129384431, "lat": 40.8457398, "lon": 26.6418821}, {"type": "node", "id": 5129384432, "lat": 40.8457153, "lon": 26.641867}, {"type": "node", "id": 5129384433, "lat": 40.8457216, "lon": 26.6418493}, {"type": "node", "id": 5135194747, "lat": 40.847347, "lon": 26.6415817}, {"type": "node", "id": 5135194748, "lat": 40.8474499, "lon": 26.6416324}, {"type": "node", "id": 5135194749, "lat": 40.8474162, "lon": 26.6417519}, {"type": "node", "id": 5135194750, "lat": 40.8473036, "lon": 26.6416964}, {"type": "node", "id": 5135194751, "lat": 40.8473263, "lon": 26.641616}, {"type": "node", "id": 5135194752, "lat": 40.847336, "lon": 26.6416208}, {"type": "node", "id": 5135194753, "lat": 40.8470386, "lon": 26.6426696}, {"type": "node", "id": 5135194754, "lat": 40.8470286, "lon": 26.6427003}, {"type": "node", "id": 5135194755, "lat": 40.8470637, "lon": 26.6426843}, {"type": "node", "id": 5135194756, "lat": 40.8470534, "lon": 26.6427149}, {"type": "node", "id": 5135194777, "lat": 40.8457494, "lon": 26.6440723}, {"type": "node", "id": 5135194778, "lat": 40.8457578, "lon": 26.6440125}, {"type": "node", "id": 5135194779, "lat": 40.8456882, "lon": 26.6442261}, {"type": "node", "id": 5135194780, "lat": 40.8456871, "lon": 26.6442627}, {"type": "node", "id": 5135194781, "lat": 40.8456425, "lon": 26.6441989}, {"type": "node", "id": 5135194782, "lat": 40.8456096, "lon": 26.6442032}, {"type": "node", "id": 5135194783, "lat": 40.8454887, "lon": 26.6445364}, {"type": "node", "id": 5135194784, "lat": 40.845485, "lon": 26.6445479}, {"type": "node", "id": 5135194785, "lat": 40.845674, "lon": 26.6450945}, {"type": "node", "id": 5135194786, "lat": 40.8456397, "lon": 26.6451749}, {"type": "node", "id": 5135194787, "lat": 40.8456296, "lon": 26.6452336}, {"type": "node", "id": 5135194788, "lat": 40.8457032, "lon": 26.645055}, {"type": "node", "id": 5135548377, "lat": 40.847194, "lon": 26.6411869}, {"type": "node", "id": 5135548378, "lat": 40.847159, "lon": 26.6413246}, {"type": "node", "id": 5135548379, "lat": 40.84707, "lon": 26.641285}, {"type": "node", "id": 5135548380, "lat": 40.8471051, "lon": 26.6411473}, {"type": "node", "id": 5135700825, "lat": 40.8457845, "lon": 26.6405}, {"type": "node", "id": 5135700826, "lat": 40.8457532, "lon": 26.6405478}, {"type": "node", "id": 5135700827, "lat": 40.8457745, "lon": 26.6405723}, {"type": "node", "id": 5135700828, "lat": 40.8457353, "lon": 26.6406319}, {"type": "node", "id": 5135700829, "lat": 40.8458002, "lon": 26.6407064}, {"type": "node", "id": 5135700830, "lat": 40.8458437, "lon": 26.6406402}, {"type": "node", "id": 5135700831, "lat": 40.8458545, "lon": 26.6406526}, {"type": "node", "id": 5135700832, "lat": 40.8458815, "lon": 26.6406114}, {"type": "node", "id": 5135700833, "lat": 40.8458982, "lon": 26.6403943}, {"type": "node", "id": 5135700834, "lat": 40.8458303, "lon": 26.640506}, {"type": "node", "id": 5135700835, "lat": 40.8459061, "lon": 26.6405866}, {"type": "node", "id": 5135700836, "lat": 40.845974, "lon": 26.6404748}, {"type": "node", "id": 5135700837, "lat": 40.845888, "lon": 26.6403969}, {"type": "node", "id": 5135700838, "lat": 40.8458335, "lon": 26.6404873}, {"type": "node", "id": 5135700839, "lat": 40.8457996, "lon": 26.6404574}, {"type": "node", "id": 5138725444, "lat": 40.8457288, "lon": 26.6435732}, {"type": "node", "id": 5138725445, "lat": 40.8456955, "lon": 26.6436775}, {"type": "node", "id": 5138725446, "lat": 40.8457579, "lon": 26.6437124}, {"type": "node", "id": 5138725447, "lat": 40.8457629, "lon": 26.6436969}, {"type": "node", "id": 5138725448, "lat": 40.8457914, "lon": 26.6437128}, {"type": "node", "id": 5138725449, "lat": 40.8458189, "lon": 26.6436269}, {"type": "node", "id": 5138725450, "lat": 40.8457705, "lon": 26.6435998}, {"type": "node", "id": 5138725451, "lat": 40.8457747, "lon": 26.6435866}, {"type": "node", "id": 5138725452, "lat": 40.8457443, "lon": 26.6435696}, {"type": "node", "id": 5138725453, "lat": 40.845741, "lon": 26.64358}, {"type": "node", "id": 5138725454, "lat": 40.8457369, "lon": 26.6437006}, {"type": "node", "id": 5138725455, "lat": 40.8457084, "lon": 26.6437865}, {"type": "node", "id": 5138725456, "lat": 40.8457683, "lon": 26.6438241}, {"type": "node", "id": 5138725457, "lat": 40.8458149, "lon": 26.6437027}, {"type": "node", "id": 5138725458, "lat": 40.8457978, "lon": 26.6436929}, {"type": "node", "id": 5138725459, "lat": 40.8456664, "lon": 26.6438762}, {"type": "node", "id": 5138725460, "lat": 40.8455825, "lon": 26.6438769}, {"type": "node", "id": 5138725461, "lat": 40.845583, "lon": 26.6439865}, {"type": "node", "id": 5138725462, "lat": 40.8456669, "lon": 26.6439858}, {"type": "node", "id": 5144303448, "lat": 40.8470096, "lon": 26.6409675}, {"type": "node", "id": 5144303449, "lat": 40.8469781, "lon": 26.6410793}, {"type": "node", "id": 5144303450, "lat": 40.8468833, "lon": 26.6410339}, {"type": "node", "id": 5144303451, "lat": 40.8469007, "lon": 26.6409681}, {"type": "node", "id": 5144303452, "lat": 40.8469383, "lon": 26.6409865}, {"type": "node", "id": 5144303453, "lat": 40.8469516, "lon": 26.6409391}, {"type": "node", "id": 5144303454, "lat": 40.8469464, "lon": 26.6411951}, {"type": "node", "id": 5144303455, "lat": 40.8468516, "lon": 26.6411498}, {"type": "node", "id": 5144303456, "lat": 40.84679, "lon": 26.6409411}, {"type": "node", "id": 5144303457, "lat": 40.8467434, "lon": 26.6410604}, {"type": "node", "id": 5144303458, "lat": 40.8468169, "lon": 26.6411106}, {"type": "node", "id": 5144303459, "lat": 40.8468635, "lon": 26.6409912}, {"type": "node", "id": 5144303476, "lat": 40.8462674, "lon": 26.6417107}, {"type": "node", "id": 5144303477, "lat": 40.8462256, "lon": 26.6418404}, {"type": "node", "id": 5144303478, "lat": 40.8462922, "lon": 26.641878}, {"type": "node", "id": 5144303479, "lat": 40.8463391, "lon": 26.6417325}, {"type": "node", "id": 5144303480, "lat": 40.8462927, "lon": 26.6417063}, {"type": "node", "id": 5144303481, "lat": 40.8462876, "lon": 26.6417221}, {"type": "node", "id": 5144303482, "lat": 40.8462634, "lon": 26.6417233}, {"type": "node", "id": 5144303483, "lat": 40.8462245, "lon": 26.6417014}, {"type": "node", "id": 5144303484, "lat": 40.8462291, "lon": 26.6416879}, {"type": "node", "id": 5144303485, "lat": 40.8461997, "lon": 26.6416698}, {"type": "node", "id": 5144303486, "lat": 40.8461586, "lon": 26.6418033}, {"type": "node", "id": 5144303487, "lat": 40.8458746, "lon": 26.6418759}, {"type": "node", "id": 5144303488, "lat": 40.8458204, "lon": 26.6420252}, {"type": "node", "id": 5144303489, "lat": 40.8457871, "lon": 26.6420041}, {"type": "node", "id": 5144303490, "lat": 40.8457917, "lon": 26.6419916}, {"type": "node", "id": 5144303491, "lat": 40.8457525, "lon": 26.6419668}, {"type": "node", "id": 5144303492, "lat": 40.8457622, "lon": 26.6419401}, {"type": "node", "id": 5144303493, "lat": 40.8457747, "lon": 26.6419479}, {"type": "node", "id": 5144303494, "lat": 40.8458115, "lon": 26.6418464}, {"type": "node", "id": 5144303495, "lat": 40.8458395, "lon": 26.6418641}, {"type": "node", "id": 5144303496, "lat": 40.8458426, "lon": 26.6418556}, {"type": "node", "id": 5144303497, "lat": 40.8458708, "lon": 26.6418864}, {"type": "node", "id": 5144303498, "lat": 40.8459074, "lon": 26.6419109}, {"type": "node", "id": 5144303499, "lat": 40.8458567, "lon": 26.6420557}, {"type": "node", "id": 5144303500, "lat": 40.8458181, "lon": 26.6420336}, {"type": "node", "id": 5144303501, "lat": 40.8458857, "lon": 26.6421573}, {"type": "node", "id": 5144303502, "lat": 40.8458589, "lon": 26.6422231}, {"type": "node", "id": 5144303503, "lat": 40.8459068, "lon": 26.6422571}, {"type": "node", "id": 5144303504, "lat": 40.8459335, "lon": 26.6421913}, {"type": "node", "id": 5144303505, "lat": 40.8458734, "lon": 26.6427824}, {"type": "node", "id": 5144303506, "lat": 40.8458515, "lon": 26.6428848}, {"type": "node", "id": 5144303507, "lat": 40.8459625, "lon": 26.6429262}, {"type": "node", "id": 5144303508, "lat": 40.8459843, "lon": 26.6428238}, {"type": "node", "id": 5144303509, "lat": 40.8456309, "lon": 26.6423948}, {"type": "node", "id": 5144303510, "lat": 40.8456014, "lon": 26.6424798}, {"type": "node", "id": 5144303511, "lat": 40.845693, "lon": 26.6425353}, {"type": "node", "id": 5144303512, "lat": 40.8457213, "lon": 26.6424537}, {"type": "node", "id": 5144303513, "lat": 40.845687, "lon": 26.642433}, {"type": "node", "id": 5144303514, "lat": 40.8456919, "lon": 26.6424188}, {"type": "node", "id": 5144303515, "lat": 40.8456657, "lon": 26.6424029}, {"type": "node", "id": 5144303516, "lat": 40.8456619, "lon": 26.6424137}, {"type": "node", "id": 5144304627, "lat": 40.8457086, "lon": 26.6448044}, {"type": "node", "id": 5144304628, "lat": 40.8457745, "lon": 26.644847}, {"type": "node", "id": 5144304629, "lat": 40.8457243, "lon": 26.6449704}, {"type": "node", "id": 5144304630, "lat": 40.8456594, "lon": 26.6449322}, {"type": "node", "id": 5144304631, "lat": 40.8454983, "lon": 26.6449115}, {"type": "node", "id": 5144304632, "lat": 40.8455382, "lon": 26.6449386}, {"type": "node", "id": 5144304633, "lat": 40.8455253, "lon": 26.6449936}, {"type": "node", "id": 5144304634, "lat": 40.8454968, "lon": 26.6450668}, {"type": "node", "id": 5144304635, "lat": 40.8454696, "lon": 26.645117}, {"type": "node", "id": 5144304636, "lat": 40.8454657, "lon": 26.6449056}, {"type": "node", "id": 5148726542, "lat": 40.8468829, "lon": 26.6424848}, {"type": "node", "id": 5148726543, "lat": 40.8468765, "lon": 26.6425026}, {"type": "node", "id": 5148726544, "lat": 40.8468909, "lon": 26.6425504}, {"type": "node", "id": 5148726545, "lat": 40.8468751, "lon": 26.642591}, {"type": "node", "id": 5148726546, "lat": 40.8468993, "lon": 26.6425556}, {"type": "node", "id": 5148726547, "lat": 40.8468845, "lon": 26.6425969}, {"type": "node", "id": 5148726548, "lat": 40.8463813, "lon": 26.6416193}, {"type": "node", "id": 5148726549, "lat": 40.8463551, "lon": 26.6416975}, {"type": "node", "id": 5148726550, "lat": 40.8462785, "lon": 26.6416526}, {"type": "node", "id": 5148726551, "lat": 40.8463048, "lon": 26.6415744}, {"type": "node", "id": 5148726552, "lat": 40.8467432, "lon": 26.6414309}, {"type": "node", "id": 5148726553, "lat": 40.8467209, "lon": 26.6415194}, {"type": "node", "id": 5148726554, "lat": 40.8468082, "lon": 26.641558}, {"type": "node", "id": 5148726555, "lat": 40.8468306, "lon": 26.6414696}, {"type": "node", "id": 5148726556, "lat": 40.846685, "lon": 26.6412498}, {"type": "node", "id": 5148726557, "lat": 40.8466507, "lon": 26.6413823}, {"type": "node", "id": 5148726558, "lat": 40.8467672, "lon": 26.641435}, {"type": "node", "id": 5148726559, "lat": 40.8468015, "lon": 26.6413025}, {"type": "node", "id": 5148726560, "lat": 40.8467357, "lon": 26.6414329}, {"type": "node", "id": 5148726561, "lat": 40.8467129, "lon": 26.6415216}, {"type": "node", "id": 5148726562, "lat": 40.8466235, "lon": 26.6414814}, {"type": "node", "id": 5148726563, "lat": 40.8466463, "lon": 26.6413927}, {"type": "node", "id": 5148726564, "lat": 40.8466705, "lon": 26.6412628}, {"type": "node", "id": 5148726565, "lat": 40.8466305, "lon": 26.6414184}, {"type": "node", "id": 5148726566, "lat": 40.8465928, "lon": 26.6414023}, {"type": "node", "id": 5148726567, "lat": 40.8465834, "lon": 26.6413825}, {"type": "node", "id": 5148726568, "lat": 40.8465761, "lon": 26.6413472}, {"type": "node", "id": 5148726569, "lat": 40.8465562, "lon": 26.6413377}, {"type": "node", "id": 5148726570, "lat": 40.8465856, "lon": 26.64121}, {"type": "node", "id": 5148726571, "lat": 40.8466489, "lon": 26.641235}, {"type": "node", "id": 5148726572, "lat": 40.846645, "lon": 26.6412526}, {"type": "node", "id": 5148726573, "lat": 40.8466979, "lon": 26.6407833}, {"type": "node", "id": 5148726574, "lat": 40.8468028, "lon": 26.640848}, {"type": "node", "id": 5148726575, "lat": 40.8467661, "lon": 26.6409518}, {"type": "node", "id": 5148726576, "lat": 40.846714, "lon": 26.6409196}, {"type": "node", "id": 5148726577, "lat": 40.8467256, "lon": 26.6408867}, {"type": "node", "id": 5148726578, "lat": 40.8466729, "lon": 26.6408542}, {"type": "node", "id": 5148726579, "lat": 40.846107, "lon": 26.6405719}, {"type": "node", "id": 5148726580, "lat": 40.8460431, "lon": 26.6406999}, {"type": "node", "id": 5148726581, "lat": 40.8461172, "lon": 26.6407645}, {"type": "node", "id": 5148726582, "lat": 40.8461428, "lon": 26.6407132}, {"type": "node", "id": 5148726583, "lat": 40.8461305, "lon": 26.6407024}, {"type": "node", "id": 5148726584, "lat": 40.8461687, "lon": 26.6406257}, {"type": "node", "id": 5166445954, "lat": 40.8486622, "lon": 26.6433398}, {"type": "node", "id": 5166445955, "lat": 40.8460073, "lon": 26.6438365}, {"type": "node", "id": 5166445956, "lat": 40.8459549, "lon": 26.6439727}, {"type": "node", "id": 5166445957, "lat": 40.846027, "lon": 26.6440212}, {"type": "node", "id": 5166445958, "lat": 40.8460472, "lon": 26.6439687}, {"type": "node", "id": 5166445959, "lat": 40.8460575, "lon": 26.6439757}, {"type": "node", "id": 5166445960, "lat": 40.8460729, "lon": 26.6439355}, {"type": "node", "id": 5166445961, "lat": 40.8460623, "lon": 26.6439284}, {"type": "node", "id": 5166445962, "lat": 40.8460732, "lon": 26.6439003}, {"type": "node", "id": 5166445963, "lat": 40.8460462, "lon": 26.6438821}, {"type": "node", "id": 5166445964, "lat": 40.8460521, "lon": 26.6438667}, {"type": "node", "id": 5166445965, "lat": 40.8458487, "lon": 26.6457854}, {"type": "node", "id": 5166445966, "lat": 40.845875, "lon": 26.6457602}, {"type": "node", "id": 5166445967, "lat": 40.8459613, "lon": 26.6458253}, {"type": "node", "id": 5166445968, "lat": 40.8459601, "lon": 26.645867}, {"type": "node", "id": 5167565845, "lat": 40.8471899, "lon": 26.6412841}, {"type": "node", "id": 5167565846, "lat": 40.8472754, "lon": 26.6413353}, {"type": "node", "id": 5167565847, "lat": 40.8472917, "lon": 26.6412877}, {"type": "node", "id": 5167565848, "lat": 40.8472062, "lon": 26.6412365}, {"type": "node", "id": 5167569097, "lat": 40.8470224, "lon": 26.6423134}, {"type": "node", "id": 5167569098, "lat": 40.8470574, "lon": 26.6423191}, {"type": "node", "id": 5167569099, "lat": 40.8473404, "lon": 26.6419283}, {"type": "node", "id": 5167569100, "lat": 40.8473054, "lon": 26.6420535}, {"type": "node", "id": 5167569101, "lat": 40.8472443, "lon": 26.6420237}, {"type": "node", "id": 5167569102, "lat": 40.8472793, "lon": 26.6418984}, {"type": "node", "id": 5167569103, "lat": 40.8467628, "lon": 26.6421013}, {"type": "node", "id": 5167569104, "lat": 40.8467839, "lon": 26.6420465}, {"type": "node", "id": 5167569105, "lat": 40.8467692, "lon": 26.6420369}, {"type": "node", "id": 5167569106, "lat": 40.8467486, "lon": 26.642092}, {"type": "node", "id": 5167569107, "lat": 40.8463707, "lon": 26.6411413}, {"type": "node", "id": 5167569108, "lat": 40.8463959, "lon": 26.6410492}, {"type": "node", "id": 5167569109, "lat": 40.8465043, "lon": 26.6411011}, {"type": "node", "id": 5167569110, "lat": 40.8464726, "lon": 26.6412167}, {"type": "node", "id": 5167569111, "lat": 40.8464406, "lon": 26.6412013}, {"type": "node", "id": 5167569112, "lat": 40.846447, "lon": 26.6411778}, {"type": "node", "id": 5167569113, "lat": 40.8464033, "lon": 26.6408011}, {"type": "node", "id": 5167569114, "lat": 40.8463651, "lon": 26.640917}, {"type": "node", "id": 5167569115, "lat": 40.8464182, "lon": 26.6409476}, {"type": "node", "id": 5167569116, "lat": 40.8464471, "lon": 26.6408601}, {"type": "node", "id": 5167676176, "lat": 40.8464172, "lon": 26.640809}, {"type": "node", "id": 5167676177, "lat": 40.8464454, "lon": 26.6407212}, {"type": "node", "id": 5167676178, "lat": 40.8464802, "lon": 26.6407407}, {"type": "node", "id": 5167676179, "lat": 40.846488, "lon": 26.6407166}, {"type": "node", "id": 5167676180, "lat": 40.8465449, "lon": 26.6407485}, {"type": "node", "id": 5167676181, "lat": 40.8464993, "lon": 26.6408906}, {"type": "node", "id": 5167676182, "lat": 40.846456, "lon": 26.6408653}, {"type": "node", "id": 5167676183, "lat": 40.8464654, "lon": 26.6408368}, {"type": "node", "id": 5167676184, "lat": 40.8466692, "lon": 26.6407774}, {"type": "node", "id": 5167676185, "lat": 40.8466585, "lon": 26.6408293}, {"type": "node", "id": 5167676186, "lat": 40.84656, "lon": 26.6407938}, {"type": "node", "id": 5167676187, "lat": 40.8465707, "lon": 26.6407419}, {"type": "node", "id": 5173955529, "lat": 40.8462246, "lon": 26.644541}, {"type": "node", "id": 5173955530, "lat": 40.8461975, "lon": 26.6446335}, {"type": "node", "id": 5173955531, "lat": 40.8462161, "lon": 26.6446431}, {"type": "node", "id": 5173955532, "lat": 40.8462079, "lon": 26.6446713}, {"type": "node", "id": 5173955533, "lat": 40.8462486, "lon": 26.6446921}, {"type": "node", "id": 5173955534, "lat": 40.8462726, "lon": 26.64461}, {"type": "node", "id": 5173955535, "lat": 40.8462581, "lon": 26.6446026}, {"type": "node", "id": 5173955536, "lat": 40.8462694, "lon": 26.6445639}, {"type": "node", "id": 5185090904, "lat": 40.8485826, "lon": 26.6419908}, {"type": "node", "id": 5185090905, "lat": 40.8486653, "lon": 26.6420241}, {"type": "node", "id": 5187358622, "lat": 40.8484509, "lon": 26.640718}, {"type": "node", "id": 5187358630, "lat": 40.8461172, "lon": 26.6415928}, {"type": "node", "id": 5187358631, "lat": 40.8460552, "lon": 26.6417643}, {"type": "node", "id": 5187358632, "lat": 40.846107, "lon": 26.641797}, {"type": "node", "id": 5187358633, "lat": 40.8461279, "lon": 26.6417389}, {"type": "node", "id": 5187358634, "lat": 40.8461413, "lon": 26.6417473}, {"type": "node", "id": 5187358635, "lat": 40.8461642, "lon": 26.6416839}, {"type": "node", "id": 5187358636, "lat": 40.84615, "lon": 26.641675}, {"type": "node", "id": 5187358637, "lat": 40.8461645, "lon": 26.641635}, {"type": "node", "id": 5187358638, "lat": 40.8461405, "lon": 26.6416199}, {"type": "node", "id": 5187358639, "lat": 40.8461442, "lon": 26.6416099}, {"type": "node", "id": 5187358640, "lat": 40.8460037, "lon": 26.6415473}, {"type": "node", "id": 5187358641, "lat": 40.8459646, "lon": 26.6416721}, {"type": "node", "id": 5187358642, "lat": 40.8459968, "lon": 26.6416898}, {"type": "node", "id": 5187358643, "lat": 40.8459943, "lon": 26.6416977}, {"type": "node", "id": 5187358644, "lat": 40.8460198, "lon": 26.6417117}, {"type": "node", "id": 5187358645, "lat": 40.8460354, "lon": 26.641662}, {"type": "node", "id": 5187358646, "lat": 40.8460431, "lon": 26.6416662}, {"type": "node", "id": 5187358647, "lat": 40.846056, "lon": 26.641625}, {"type": "node", "id": 5187358648, "lat": 40.8460496, "lon": 26.6416216}, {"type": "node", "id": 5187358649, "lat": 40.8460671, "lon": 26.641566}, {"type": "node", "id": 5187358650, "lat": 40.8460348, "lon": 26.6415483}, {"type": "node", "id": 5187358651, "lat": 40.8460305, "lon": 26.641562}, {"type": "node", "id": 5187358652, "lat": 40.8460047, "lon": 26.6415309}, {"type": "node", "id": 5187358653, "lat": 40.8459631, "lon": 26.6416642}, {"type": "node", "id": 5187358654, "lat": 40.8459323, "lon": 26.6416474}, {"type": "node", "id": 5187358655, "lat": 40.8459256, "lon": 26.6416686}, {"type": "node", "id": 5187358656, "lat": 40.8458876, "lon": 26.6416478}, {"type": "node", "id": 5187358657, "lat": 40.8459055, "lon": 26.6415905}, {"type": "node", "id": 5187358658, "lat": 40.8458944, "lon": 26.6415844}, {"type": "node", "id": 5187358659, "lat": 40.8459211, "lon": 26.6414988}, {"type": "node", "id": 5187358660, "lat": 40.8459605, "lon": 26.6415203}, {"type": "node", "id": 5187358661, "lat": 40.8459641, "lon": 26.6415087}, {"type": "node", "id": 5187358662, "lat": 40.845792, "lon": 26.6414669}, {"type": "node", "id": 5187358663, "lat": 40.8457788, "lon": 26.6415006}, {"type": "node", "id": 5187358664, "lat": 40.8458013, "lon": 26.6414738}, {"type": "node", "id": 5187358665, "lat": 40.8457872, "lon": 26.6415069}, {"type": "node", "id": 5187358666, "lat": 40.8458664, "lon": 26.6414629}, {"type": "node", "id": 5187358667, "lat": 40.8458573, "lon": 26.6415655}, {"type": "node", "id": 5187358668, "lat": 40.8458473, "lon": 26.6415925}, {"type": "node", "id": 5187358669, "lat": 40.8458302, "lon": 26.6415965}, {"type": "node", "id": 5187358670, "lat": 40.8458691, "lon": 26.6415731}, {"type": "node", "id": 5187358671, "lat": 40.8458831, "lon": 26.6415354}, {"type": "node", "id": 5187358672, "lat": 40.8458717, "lon": 26.641528}, {"type": "node", "id": 5187358673, "lat": 40.8458853, "lon": 26.6414912}, {"type": "node", "id": 5187358674, "lat": 40.845895, "lon": 26.6412684}, {"type": "node", "id": 5187358675, "lat": 40.8458776, "lon": 26.6413258}, {"type": "node", "id": 5187358676, "lat": 40.8469622, "lon": 26.6421709}, {"type": "node", "id": 5187358677, "lat": 40.8469406, "lon": 26.6422463}, {"type": "node", "id": 5187358678, "lat": 40.8469736, "lon": 26.6421772}, {"type": "node", "id": 5187358679, "lat": 40.8469501, "lon": 26.6422516}, {"type": "node", "id": 5187358680, "lat": 40.8469022, "lon": 26.6420955}, {"type": "node", "id": 5187358681, "lat": 40.8468876, "lon": 26.6421436}, {"type": "node", "id": 5187358682, "lat": 40.8468918, "lon": 26.6420898}, {"type": "node", "id": 5187358683, "lat": 40.8468767, "lon": 26.6421376}, {"type": "node", "id": 5187358684, "lat": 40.8463007, "lon": 26.6407444}, {"type": "node", "id": 5187358685, "lat": 40.8462155, "lon": 26.6406826}, {"type": "node", "id": 5187358686, "lat": 40.8461916, "lon": 26.6407402}, {"type": "node", "id": 5187358687, "lat": 40.8462285, "lon": 26.6407669}, {"type": "node", "id": 5187358688, "lat": 40.8462092, "lon": 26.6408134}, {"type": "node", "id": 5187358689, "lat": 40.8462575, "lon": 26.6408484}, {"type": "node", "id": 5187539722, "lat": 40.8458472, "lon": 26.6425676}, {"type": "node", "id": 5187539723, "lat": 40.845792, "lon": 26.6427027}, {"type": "node", "id": 5187539724, "lat": 40.8458517, "lon": 26.6427452}, {"type": "node", "id": 5187539725, "lat": 40.8459068, "lon": 26.6426101}, {"type": "node", "id": 5187539726, "lat": 40.8457944, "lon": 26.6427115}, {"type": "node", "id": 5187539727, "lat": 40.8457732, "lon": 26.6427668}, {"type": "node", "id": 5187539728, "lat": 40.8458538, "lon": 26.6428206}, {"type": "node", "id": 5187539729, "lat": 40.8458679, "lon": 26.6427836}, {"type": "node", "id": 5187539730, "lat": 40.8458402, "lon": 26.6427651}, {"type": "node", "id": 5187539731, "lat": 40.8458472, "lon": 26.6427468}, {"type": "node", "id": 5187539732, "lat": 40.8460117, "lon": 26.6426633}, {"type": "node", "id": 5187539733, "lat": 40.8459728, "lon": 26.6426592}, {"type": "node", "id": 5187539734, "lat": 40.8459719, "lon": 26.6426726}, {"type": "node", "id": 5187539735, "lat": 40.8459291, "lon": 26.6426685}, {"type": "node", "id": 5187539736, "lat": 40.845922, "lon": 26.6427397}, {"type": "node", "id": 5187539737, "lat": 40.8459339, "lon": 26.6427403}, {"type": "node", "id": 5187539738, "lat": 40.8459313, "lon": 26.6427713}, {"type": "node", "id": 5187539739, "lat": 40.8459529, "lon": 26.6427742}, {"type": "node", "id": 5187539740, "lat": 40.8459516, "lon": 26.6427876}, {"type": "node", "id": 5187539741, "lat": 40.8459931, "lon": 26.6427975}, {"type": "node", "id": 5187539742, "lat": 40.8453388, "lon": 26.6417431}, {"type": "node", "id": 5187539743, "lat": 40.845407, "lon": 26.6418069}, {"type": "node", "id": 5187539744, "lat": 40.8454604, "lon": 26.6417071}, {"type": "node", "id": 5187539745, "lat": 40.8454279, "lon": 26.6416766}, {"type": "node", "id": 5187539746, "lat": 40.8454053, "lon": 26.6417187}, {"type": "node", "id": 5187539747, "lat": 40.8453922, "lon": 26.6417064}, {"type": "node", "id": 5187539748, "lat": 40.8453706, "lon": 26.6417466}, {"type": "node", "id": 5187539749, "lat": 40.8453482, "lon": 26.6417256}, {"type": "node", "id": 5187539750, "lat": 40.8455805, "lon": 26.6420424}, {"type": "node", "id": 5187539751, "lat": 40.845561, "lon": 26.6420909}, {"type": "node", "id": 5187539752, "lat": 40.8456428, "lon": 26.6421486}, {"type": "node", "id": 5187539753, "lat": 40.8456624, "lon": 26.6421}, {"type": "node", "id": 5187539754, "lat": 40.8455942, "lon": 26.6420057}, {"type": "node", "id": 5187539755, "lat": 40.8455587, "lon": 26.6420925}, {"type": "node", "id": 5187539756, "lat": 40.845473, "lon": 26.6420311}, {"type": "node", "id": 5187539757, "lat": 40.8454905, "lon": 26.6419884}, {"type": "node", "id": 5187539758, "lat": 40.8455176, "lon": 26.6420079}, {"type": "node", "id": 5187539759, "lat": 40.8455279, "lon": 26.6419827}, {"type": "node", "id": 5187539760, "lat": 40.845564, "lon": 26.6420085}, {"type": "node", "id": 5187539761, "lat": 40.8455717, "lon": 26.6419895}, {"type": "node", "id": 5187539762, "lat": 40.845429, "lon": 26.6419221}, {"type": "node", "id": 5187539763, "lat": 40.845453, "lon": 26.6418486}, {"type": "node", "id": 5187539764, "lat": 40.8455299, "lon": 26.6418924}, {"type": "node", "id": 5187539765, "lat": 40.8455059, "lon": 26.6419659}, {"type": "node", "id": 5187539766, "lat": 40.8457078, "lon": 26.6421253}, {"type": "node", "id": 5187539767, "lat": 40.8457191, "lon": 26.6421327}, {"type": "node", "id": 5192376426, "lat": 40.8463947, "lon": 26.6415851}, {"type": "node", "id": 5192376427, "lat": 40.8463672, "lon": 26.6416775}, {"type": "node", "id": 5192376428, "lat": 40.8464042, "lon": 26.6416968}, {"type": "node", "id": 5192376429, "lat": 40.8464106, "lon": 26.6416751}, {"type": "node", "id": 5192376430, "lat": 40.8464385, "lon": 26.6416896}, {"type": "node", "id": 5192376431, "lat": 40.8464596, "lon": 26.6416189}, {"type": "node", "id": 5192376432, "lat": 40.8464831, "lon": 26.6416449}, {"type": "node", "id": 5192376433, "lat": 40.846492, "lon": 26.6415992}, {"type": "node", "id": 5192376434, "lat": 40.8465601, "lon": 26.6416224}, {"type": "node", "id": 5192376435, "lat": 40.8465295, "lon": 26.6417796}, {"type": "node", "id": 5192376436, "lat": 40.8464921, "lon": 26.6417669}, {"type": "node", "id": 5192376437, "lat": 40.8464943, "lon": 26.6417559}, {"type": "node", "id": 5192376438, "lat": 40.8464626, "lon": 26.6417451}, {"type": "node", "id": 5192376439, "lat": 40.846469, "lon": 26.6417121}, {"type": "node", "id": 5192376440, "lat": 40.8464541, "lon": 26.641707}, {"type": "node", "id": 5192376441, "lat": 40.8464673, "lon": 26.6416395}, {"type": "node", "id": 5192376442, "lat": 40.8464545, "lon": 26.6418049}, {"type": "node", "id": 5192376443, "lat": 40.8464134, "lon": 26.6419288}, {"type": "node", "id": 5192376444, "lat": 40.8464829, "lon": 26.6419691}, {"type": "node", "id": 5192376445, "lat": 40.846524, "lon": 26.6418452}, {"type": "node", "id": 5192376446, "lat": 40.8462919, "lon": 26.6423985}, {"type": "node", "id": 5192376447, "lat": 40.8463179, "lon": 26.6424124}, {"type": "node", "id": 5192376448, "lat": 40.8463221, "lon": 26.6423997}, {"type": "node", "id": 5192376449, "lat": 40.8462963, "lon": 26.642385}, {"type": "node", "id": 5192376450, "lat": 40.8463307, "lon": 26.6428162}, {"type": "node", "id": 5192376451, "lat": 40.8463161, "lon": 26.6428566}, {"type": "node", "id": 5192376452, "lat": 40.8463392, "lon": 26.6428213}, {"type": "node", "id": 5192376453, "lat": 40.8463251, "lon": 26.642862}, {"type": "node", "id": 5192376454, "lat": 40.8463211, "lon": 26.6427368}, {"type": "node", "id": 5192376455, "lat": 40.8463158, "lon": 26.642752}, {"type": "node", "id": 5192376456, "lat": 40.8459372, "lon": 26.6441278}, {"type": "node", "id": 5192376457, "lat": 40.8459322, "lon": 26.6441427}, {"type": "node", "id": 5192376458, "lat": 40.8458797, "lon": 26.6441974}, {"type": "node", "id": 5192376459, "lat": 40.8459049, "lon": 26.6441214}, {"type": "node", "id": 5192376460, "lat": 40.845897, "lon": 26.6441167}, {"type": "node", "id": 5192376461, "lat": 40.8458714, "lon": 26.6441926}, {"type": "node", "id": 5192376462, "lat": 40.8459527, "lon": 26.6441967}, {"type": "node", "id": 5192376463, "lat": 40.8459419, "lon": 26.6442302}, {"type": "node", "id": 5192376464, "lat": 40.8459511, "lon": 26.6442356}, {"type": "node", "id": 5192376465, "lat": 40.8459623, "lon": 26.6442024}, {"type": "node", "id": 5194199521, "lat": 40.8462505, "lon": 26.6414071}, {"type": "node", "id": 5194199522, "lat": 40.8476134, "lon": 26.6417689}, {"type": "node", "id": 5194199523, "lat": 40.8476389, "lon": 26.6417646}, {"type": "node", "id": 5252241823, "lat": 40.8455869, "lon": 26.6404373}, {"type": "node", "id": 5252241824, "lat": 40.8456715, "lon": 26.6404646}, {"type": "node", "id": 5252241825, "lat": 40.8456813, "lon": 26.6404113}, {"type": "node", "id": 5252241826, "lat": 40.8455967, "lon": 26.640384}, {"type": "node", "id": 5252241827, "lat": 40.8455608, "lon": 26.6404457}, {"type": "node", "id": 5252241828, "lat": 40.8456769, "lon": 26.6404779}, {"type": "node", "id": 5252241829, "lat": 40.8456651, "lon": 26.6405526}, {"type": "node", "id": 5252241830, "lat": 40.845549, "lon": 26.6405204}, {"type": "node", "id": 5252241831, "lat": 40.84537, "lon": 26.6408627}, {"type": "node", "id": 5252241832, "lat": 40.8453329, "lon": 26.6409556}, {"type": "node", "id": 5252241833, "lat": 40.8454132, "lon": 26.6410118}, {"type": "node", "id": 5252241834, "lat": 40.8454504, "lon": 26.6409189}, {"type": "node", "id": 6307483079, "lat": 40.8453389, "lon": 26.6464564}, {"type": "node", "id": 6337695717, "lat": 40.847875, "lon": 26.6431038}, {"type": "node", "id": 6337695718, "lat": 40.8478708, "lon": 26.643117}, {"type": "node", "id": 6338807490, "lat": 40.8465904, "lon": 26.6416311}, {"type": "node", "id": 6338807491, "lat": 40.8465437, "lon": 26.6418068}, {"type": "node", "id": 6338807492, "lat": 40.8466279, "lon": 26.6418511}, {"type": "node", "id": 6338807493, "lat": 40.8466594, "lon": 26.6417451}, {"type": "node", "id": 6338807494, "lat": 40.8466401, "lon": 26.6417357}, {"type": "node", "id": 6338807495, "lat": 40.8466543, "lon": 26.6416593}, {"type": "node", "id": 6338807496, "lat": 40.8466449, "lon": 26.6417293}, {"type": "node", "id": 6338807497, "lat": 40.846658, "lon": 26.6416703}, {"type": "node", "id": 6338807498, "lat": 40.8467451, "lon": 26.6417042}, {"type": "node", "id": 6338807499, "lat": 40.846732, "lon": 26.6417632}, {"type": "node", "id": 6460342293, "lat": 40.8464252, "lon": 26.6447335}, {"type": "node", "id": 6460342294, "lat": 40.84642, "lon": 26.6447502}, {"type": "node", "id": 6460342295, "lat": 40.8464685, "lon": 26.6448117}, {"type": "node", "id": 6460342296, "lat": 40.8464838, "lon": 26.6448201}, {"type": "node", "id": 6460342297, "lat": 40.8464445, "lon": 26.6439328}, {"type": "node", "id": 6460342298, "lat": 40.8464329, "lon": 26.6439263}, {"type": "node", "id": 6460342299, "lat": 40.8464651, "lon": 26.6439968}, {"type": "node", "id": 6460342300, "lat": 40.8464594, "lon": 26.6440146}, {"type": "node", "id": 6460342301, "lat": 40.8464125, "lon": 26.6441718}, {"type": "node", "id": 6460342302, "lat": 40.8464436, "lon": 26.6441901}, {"type": "node", "id": 6460342303, "lat": 40.846407, "lon": 26.6441883}, {"type": "node", "id": 6460342304, "lat": 40.8464393, "lon": 26.6442029}, {"type": "node", "id": 6460342305, "lat": 40.8461416, "lon": 26.6442676}, {"type": "node", "id": 6460342306, "lat": 40.8461787, "lon": 26.6442905}, {"type": "node", "id": 6460342307, "lat": 40.8461665, "lon": 26.64435}, {"type": "node", "id": 6460342308, "lat": 40.8461362, "lon": 26.644283}, {"type": "node", "id": 6937860740, "lat": 40.8456147, "lon": 26.6438166}, {"type": "node", "id": 6937860741, "lat": 40.8463131, "lon": 26.6441279}, {"type": "node", "id": 6937860742, "lat": 40.8462676, "lon": 26.645952}, {"type": "node", "id": 1610699040, "lat": 40.847285, "lon": 26.6474655}, {"type": "node", "id": 1610699341, "lat": 40.846064, "lon": 26.6471997}, {"type": "node", "id": 1610699742, "lat": 40.8463739, "lon": 26.6473254}, {"type": "node", "id": 1610699861, "lat": 40.8488366, "lon": 26.6481843}, {"type": "node", "id": 4743600112, "lat": 40.8481164, "lon": 26.6476379}, {"type": "node", "id": 4743600113, "lat": 40.8480833, "lon": 26.6476199}, {"type": "node", "id": 4743600115, "lat": 40.8480404, "lon": 26.6476069}, {"type": "node", "id": 4833594311, "lat": 40.8462148, "lon": 26.6472759}, {"type": "node", "id": 4833594312, "lat": 40.8462937, "lon": 26.6473046}, {"type": "node", "id": 4833594313, "lat": 40.8461394, "lon": 26.6472393}, {"type": "node", "id": 4833594315, "lat": 40.845919, "lon": 26.6470815}, {"type": "node", "id": 4835527861, "lat": 40.8454221, "lon": 26.6534819}, {"type": "node", "id": 4902864353, "lat": 40.8475417, "lon": 26.6475133}, {"type": "node", "id": 7078311087, "lat": 40.8469945, "lon": 26.6474208}, {"type": "node", "id": 7078311115, "lat": 40.8459915, "lon": 26.6471498}, {"type": "node", "id": 1610698899, "lat": 40.8466066, "lon": 26.6541141}, {"type": "node", "id": 4835527860, "lat": 40.8455192, "lon": 26.6535301}, {"type": "node", "id": 5126779752, "lat": 40.8457395, "lon": 26.6536484}]}