{"version": 0.6, "generator": "Overpass API 0.7.62.7 375dc00a", "osm3s": {"timestamp_osm_base": "2025-07-16T09:52:13Z", "copyright": "The data included in this document is from www.openstreetmap.org. The data is made available under ODbL."}, "elements": [{"type": "way", "id": 47311346, "nodes": [1610698773, 1610699248, 6937796889, 4533077298, 2589163469, 1448180590, 5168719115], "tags": {"highway": "secondary", "name": "Hastane Caddesi", "oneway": "yes", "source": "GPS"}}, {"type": "way", "id": 131602733, "nodes": [1448180590, 1448180592, 5120955040, 5132040231, 1448180650, 4555533246, 4555533247, 1448180769, 4537832734, 1448180848, 1448180877, 4834829922, 5825450435, 1610699632, 3423664482, 3423664488, 3411781899, 4591403120, 1448181113, 3411781912, 1610699578, 4536356253, 3213712093, 6448337580, 6418616245, 1448181410, 4532993245, 4533107588, 1448181525, 4940709269, 6308035962, 4637151780, 1610783634, 4532993251, 1448181552, 1448181563], "tags": {"highway": "secondary", "name": "Pa\u015fayi\u011fit Caddesi", "source": "bing"}}, {"type": "way", "id": 147952664, "nodes": [1610698608, 1610700025, 4843954215, 4634689053, 4634689052, 4831363377], "tags": {"highway": "residential", "name": "Yaylal\u0131 Sokak", "source": "DigitalGlobe"}}, {"type": "way", "id": 147952670, "nodes": [1610698630, 3423673130, 4844534210, 4844534211, 4637276875, 4844534209, 1610698975, 4844534208, 4637276874, 3423673138, 3423673158, 3423673146, 3423673163, 4846666206, 4846666208, 3423673157, 4846666207, 1610698863, 3423673164, 3423673167, 1610699583, 5182568366, 4845726634, 5182568368, 5182568367, 4845726633, 1610699343], "tags": {"highway": "residential", "name": "Ba\u011flar Sokak", "source": "DigitalGlobe"}}, {"type": "way", "id": 147952679, "nodes": [4911605016, 1610699792, 1610698770], "tags": {"highway": "residential", "name": "Zeytin Sokak", "source": "DigitalGlobe"}}, {"type": "way", "id": 147952691, "nodes": [1610699454, 6246316707, 6246316710, 4833649908, 4833649910, 4833649909, 4582920384, 4743602435, 4833637112, 5129383576, 4833637111, 4833637113], "tags": {"highway": "residential", "name": "Karay\u0131lan Sokak", "source": "DigitalGlobe"}}, {"type": "way", "id": 147952695, "nodes": [1610699453, 4637289142, 1610699347, 6372014773, 6372014774, 6372014775, 1610699843, 1610698775], "tags": {"highway": "residential", "name": "Ku\u015f Sokak", "source": "DigitalGlobe"}}, {"type": "way", "id": 147952696, "nodes": [1610699248, 12438186501, 1610699454, 4540192399, 4547544764, 1610698738], "tags": {"highway": "residential", "name": "Hastane Sokak", "source": "DigitalGlobe"}}, {"type": "way", "id": 147952711, "nodes": [1610699493, 5120955043, 1610699213, 4533205081, 4637276868, 4833381049, 5132040230, 4533205082, 4845726657, 4637276867, 4845726655, 4845726656, 5132040229, 1610699043, 2589163469], "tags": {"highway": "residential", "name": "Tayfa Sokak", "source": "DigitalGlobe"}}, {"type": "way", "id": 147952732, "nodes": [1610699412, 1610698720, 1610698689, 4936721633], "tags": {"highway": "residential", "name": "Zincir Sokak", "source": "DigitalGlobe"}}, {"type": "way", "id": 147960361, "nodes": [1610782976, 4833649912, 4833649911, 1448180846], "tags": {"highway": "residential", "name": "Yuva Sokak", "source": "DigitalGlobe"}}, {"type": "way", "id": 147960396, "nodes": [1610782914, 3423673120, 1610783500], "tags": {"highway": "residential", "name": "Beyaz Sokak", "source": "DigitalGlobe"}}, {"type": "way", "id": 335251732, "nodes": [4588205340, 4835412668, 4535104965, 4533256411, 3423673119, 1610698806, 1610699452, 1610699503, 1610699248], "tags": {"highway": "secondary", "name": "\u0130lyasbey Caddesi", "source": "bing"}}, {"type": "way", "id": 335251733, "nodes": [3423673119, 3423673124, 3423673120], "tags": {"highway": "residential"}}, {"type": "way", "id": 335251734, "nodes": [3423673121, 3423673124], "tags": {"highway": "residential"}}, {"type": "way", "id": 335251735, "nodes": [3423673125, 3423673126, 3423673128], "tags": {"highway": "residential", "name": "Demir Sokak", "source": "DigitalGlobe"}}, {"type": "way", "id": 335251737, "nodes": [3423673130, 3423673131, 4844534207, 4538660781, 4844534206, 3423673132, 4538660780, 4845726645, 4538660779, 3423673133, 1610700022, 3423673134, 3423673125, 3423673135], "tags": {"highway": "residential", "name": "G\u00f6\u00e7men Sokak", "source": "DigitalGlobe"}}, {"type": "way", "id": 335251739, "nodes": [1610698608, 3423673137, 3423673138], "tags": {"highway": "residential", "name": "Pelin Sokak", "source": "DigitalGlobe"}}, {"type": "way", "id": 335251740, "nodes": [3423673141, 3423673142, 4844534215, 4844534216, 4844534214, 3423673143, 3423673144, 4844534213, 4844534220, 4844534212, 3423673158], "tags": {"highway": "residential", "name": "Yasemin Sokak", "source": "DigitalGlobe"}}, {"type": "way", "id": 335251742, "nodes": [3423673146, 4844534219, 4844534217, 4844534218, 3423673148], "tags": {"highway": "residential", "name": "Yaren Sokak", "source": "DigitalGlobe"}}, {"type": "way", "id": 335251744, "nodes": [3423673154, 3423673155, 5167676203, 5167676202, 4533256412], "tags": {"highway": "residential", "name": "Gurur Sokak", "source": "DigitalGlobe"}}, {"type": "way", "id": 335251746, "nodes": [3423673158, 3423673159, 3423673160], "tags": {"highway": "residential", "name": "Tarhan Sokak", "source": "DigitalGlobe"}}, {"type": "way", "id": 335251748, "nodes": [3423673161, 3423673162, 3423673163], "tags": {"highway": "residential", "name": "Yap\u0131ncak Sokak", "source": "DigitalGlobe"}}, {"type": "way", "id": 335251750, "nodes": [3423673164, 3423673165], "tags": {"highway": "residential", "name": "Emel Sokak", "source": "DigitalGlobe"}}, {"type": "way", "id": 335251752, "nodes": [3423673166, 3423673167], "tags": {"highway": "residential", "name": "Kiler Sokak", "source": "DigitalGlobe"}}, {"type": "way", "id": 370881615, "nodes": [1610699592, 3423673168, 1610699343, 3423673171, 4533256412, 3423673148, 3423673141, 1610699175, 4533256414, 1610698773], "tags": {"highway": "secondary", "name": "Necati \u0130\u015fcan Caddesi", "source": "bing"}}, {"type": "way", "id": 457107148, "nodes": [4533077296, 4533077297, 4533077300, 12438183500, 4533077298], "tags": {"highway": "residential", "name": "Lise Sokak", "source": "DigitalGlobe"}}, {"type": "way", "id": 457107149, "nodes": [4533077297, 4540192399], "tags": {"highway": "residential", "source": "DigitalGlobe"}}, {"type": "way", "id": 457107150, "nodes": [1610699454, 4533077300], "tags": {"highway": "residential", "source": "DigitalGlobe"}}, {"type": "way", "id": 457107152, "nodes": [1610699452, 6537958895, 6537958896, 3423673128, 1610700022], "tags": {"highway": "residential", "name": "Nokta Sokak", "source": "DigitalGlobe"}}, {"type": "way", "id": 457128383, "nodes": [6553397443, 6553397453, 6553397452, 6553397451, 6553397450, 6553397448, 6553397447, 6553397446, 4533221570, 6553397439, 6553397440, 6553397441, 6553397443], "tags": {"addr:city": "Ke\u015fan", "addr:housenumber": "10", "addr:neighbourhood": "Yukar\u0131 Zaferiye Mahallesi", "addr:postcode": "22800", "addr:street": "Hastane Caddesi", "amenity": "school", "building": "yes", "building:levels": "4", "building:min_level": "0", "layer": "1", "name": "Ke\u015fan Lisesi", "roof:colour": "brown", "roof:shape": "hipped"}}, {"type": "way", "id": 457132986, "nodes": [4582156825, 1610698985, 5509608188, 1610699351, 5127356295, 4834662695, 5127356297, 4834662694, 5127356296, 4834662693, 4582855131, 4582855134, 6246316705, 6416707527, 6246316706, 6246316709, 6246316708, 1610699454], "tags": {"highway": "residential", "name": "Hastane Sokak", "source": "DigitalGlobe"}}, {"type": "way", "id": 457132990, "nodes": [4533256412, 4835527869, 4845726632, 4845726631, 4845726630, 3423673157], "tags": {"highway": "residential", "name": "Yakamoz Sokak", "source": "DigitalGlobe"}}, {"type": "way", "id": 457132991, "nodes": [3423673148, 3423673149, 4582156819, 3423673152], "tags": {"highway": "residential", "name": "G\u00f6n\u00fcl Sokak", "source": "DigitalGlobe"}}, {"type": "way", "id": 457132992, "nodes": [4533256413, 4582156818, 3423673141], "tags": {"highway": "residential", "name": "\u00dc\u00e7ler Sokak", "source": "DigitalGlobe"}}, {"type": "way", "id": 457132993, "nodes": [4533256414, 4533256415], "tags": {"highway": "residential", "name": "Sa\u011fl\u0131k Sokak", "source": "DigitalGlobe"}}, {"type": "way", "id": 457147583, "nodes": [4533373150, 4533373151, 4533373152, 4533373153, 4533373150], "tags": {"building": "yes", "building:levels": "5", "roof:shape": "hipped"}}, {"type": "way", "id": 457148617, "nodes": [4533379099, 4533379100, 4533379101, 4533379102, 4533379099], "tags": {"building": "yes", "building:levels": "5", "roof:colour": "brown", "roof:shape": "hipped"}}, {"type": "way", "id": 457148618, "nodes": [4533379103, 4533379104, 4533379105, 4533379106, 4533379103], "tags": {"building": "yes"}}, {"type": "way", "id": 457148619, "nodes": [4533379107, 4533379108, 4533379109, 4533379110, 4533379107], "tags": {"building": "yes"}}, {"type": "way", "id": 457148620, "nodes": [4533379111, 4533379112, 4533379113, 4533379114, 4533379111], "tags": {"building": "yes"}}, {"type": "way", "id": 457148621, "nodes": [4533379115, 4533379116, 4533379117, 4533379118, 4533379115], "tags": {"building": "yes"}}, {"type": "way", "id": 457148622, "nodes": [4533379119, 4533379120, 4533379121, 4533379122, 4533379119], "tags": {"building": "yes"}}, {"type": "way", "id": 457148623, "nodes": [4533379123, 4533379124, 4533379125, 4533379126, 4533379123], "tags": {"building": "yes"}}, {"type": "way", "id": 457148624, "nodes": [4533379127, 4533379128, 4533379129, 4533379130, 4533379127], "tags": {"building": "yes"}}, {"type": "way", "id": 457148648, "nodes": [4533378957, 4533378958, 4533378959, 4533378960, 4533378957], "tags": {"building": "yes"}}, {"type": "way", "id": 457148649, "nodes": [4533378961, 4533378962, 4533378963, 4533378964, 4533378961], "tags": {"building": "yes"}}, {"type": "way", "id": 457148650, "nodes": [4533378965, 4533378966, 4533378967, 4533378968, 4533378965], "tags": {"building": "yes"}}, {"type": "way", "id": 457151925, "nodes": [4533397877, 4533397878, 4533397879, 4533397880, 4533397877], "tags": {"building": "apartments", "name": "Bayg\u00fcl Apt."}}, {"type": "way", "id": 457151926, "nodes": [4533397881, 4533397882, 4533397883, 4533397884, 4533397881], "tags": {"building": "apartments", "name": "Altan Apt."}}, {"type": "way", "id": 457151927, "nodes": [4533397885, 4533397886, 4533397887, 4533397888, 4533397885], "tags": {"building": "apartments", "name": "Y\u0131lmaz Ermi\u015f Apt."}}, {"type": "way", "id": 457151928, "nodes": [4533397889, 4533397890, 4533397891, 4533397892, 4533397889], "tags": {"building": "apartments", "name": "Recep ve Mustafa Y\u0131lmaz Apt."}}, {"type": "way", "id": 457151929, "nodes": [4533397893, 4533397894, 4533397895, 4533397896, 4533397893], "tags": {"building": "apartments", "name": "Arma\u011fan Apt."}}, {"type": "way", "id": 457151930, "nodes": [4533397897, 4533397898, 4533397899, 4533397900, 4533397897], "tags": {"building": "apartments", "name": "Canan Apt."}}, {"type": "way", "id": 457151931, "nodes": [4533397901, 4533397902, 4533397903, 4533397904, 4533397901], "tags": {"building": "apartments", "name": "Mehmet Korkmaz Apt."}}, {"type": "way", "id": 457151932, "nodes": [4533397905, 4533397906, 4533397907, 4533397908, 4533397905], "tags": {"building": "apartments", "name": "Ek\u015fi Apt."}}, {"type": "way", "id": 457151933, "nodes": [4533397909, 4533397910, 4533397911, 4533397912, 4533397909], "tags": {"building": "apartments", "name": "\u00d6zg\u00fcn Apt."}}, {"type": "way", "id": 457151934, "nodes": [4533397913, 4533397914, 4533397915, 4533397916, 4533397913], "tags": {"building": "apartments", "name": "\u00d6v\u00fcncem Apt."}}, {"type": "way", "id": 457151935, "nodes": [4533397917, 4533397918, 4533397919, 4533397920, 4533397917], "tags": {"building": "apartments", "name": "Emek Apt.", "roof:colour": "brown", "roof:shape": "hipped"}}, {"type": "way", "id": 457151936, "nodes": [4533397921, 4533397922, 4533397923, 4533397924, 4533397921], "tags": {"building": "apartments", "name": "G\u00f6l Apt."}}, {"type": "way", "id": 457151937, "nodes": [4533397925, 4533397926, 4533397927, 4533397928, 4533397930, 4533397929, 4533397925], "tags": {"addr:street": "An\u0131l Sokak", "building": "apartments", "name": "\u00c7elik Apt."}}, {"type": "way", "id": 457151938, "nodes": [4533397931, 4533397932, 4533397933, 4533397934, 4533397931], "tags": {"building": "apartments", "name": "\u00d6z\u00e7elik Apt."}}, {"type": "way", "id": 457151939, "nodes": [4533397935, 4533397936, 4533397937, 4533397938, 4533397935], "tags": {"building": "apartments", "name": "Askeri Lojman"}}, {"type": "way", "id": 457151941, "nodes": [4533397951, 4533397952, 4533397953, 4533397954, 4533397951], "tags": {"addr:neighbourhood": "Yukar\u0131 Zaferiye Mahallesi", "amenity": "school", "building": "school", "building:levels": "5", "name": "K\u0131z Meslek Lisesi", "roof:colour": "brown", "roof:shape": "gabled"}}, {"type": "way", "id": 457151942, "nodes": [4533397955, 4533397956, 4533397957, 4533397958, 4533397955], "tags": {"building": "yes"}}, {"type": "way", "id": 457151943, "nodes": [4533397959, 4533397960, 4533397961, 4533397962, 4533397959], "tags": {"building": "yes"}}, {"type": "way", "id": 457151944, "nodes": [4533397963, 4533397964, 4533397965, 4533397966, 4533397963], "tags": {"building": "yes"}}, {"type": "way", "id": 457151945, "nodes": [4533397967, 4533397968, 4533397969, 4533397970, 4533397967], "tags": {"building": "yes"}}, {"type": "way", "id": 457151946, "nodes": [4533397971, 4533397972, 4533397973, 4533397974, 4533397971], "tags": {"building": "yes"}}, {"type": "way", "id": 457151947, "nodes": [4533397975, 4533397976, 4533397977, 4533397978, 4533397975], "tags": {"building": "yes"}}, {"type": "way", "id": 457151948, "nodes": [4533397979, 4533397980, 4533397981, 4533397982, 4533397979], "tags": {"building": "yes"}}, {"type": "way", "id": 457151949, "nodes": [4533397983, 4533397984, 4533397985, 4533397986, 4533397983], "tags": {"building": "yes"}}, {"type": "way", "id": 457162345, "nodes": [4533479008, 4533479009, 4533479010, 4533479011, 4533479012, 4533479013, 4533479014, 4533479015, 4533479008], "tags": {"building": "yes", "roof:material": "roof_tiles", "roof:shape": "hipped"}}, {"type": "way", "id": 457163968, "nodes": [4533487599, 4533487600, 4533487601, 4533487602, 4533487599], "tags": {"building": "yes", "roof:colour": "brown", "roof:shape": "pyramidal"}}, {"type": "way", "id": 457166702, "nodes": [4533505169, 4533505170, 4533505171, 4533505172, 4533505169], "tags": {"addr:neighbourhood": "Yukar\u0131 Zaferiye Mahallesi", "building": "apartments", "name": "G\u00f6rg\u00fcl\u00fc Apt."}}, {"type": "way", "id": 457166703, "nodes": [4533505173, 4533505174, 4533505175, 4533505176, 4533505173], "tags": {"addr:neighbourhood": "Yukar\u0131 Zaferiye Mahallesi", "building": "apartments", "name": "\u0130ki Mim Apt."}}, {"type": "way", "id": 457166705, "nodes": [4533505177, 4533505178, 4533505179, 5189435136, 4533505180, 4533505177], "tags": {"addr:neighbourhood": "Yukar\u0131 Zaferiye Mahallesi", "building": "apartments", "name": "Veziro\u011flu Apt."}}, {"type": "way", "id": 457166708, "nodes": [4533505185, 4533505186, 4533505187, 4533505188, 4533505185], "tags": {"building": "apartments", "name": "Tezcan Apt."}}, {"type": "way", "id": 457166710, "nodes": [4533505689, 4533505690, 4533505691, 4533505692, 4533505689], "tags": {"building": "apartments", "name": "\u015eap\u00e7\u0131 Apt.", "roof:colour": "brown", "roof:shape": "hipped"}}, {"type": "way", "id": 457166711, "nodes": [4533505693, 4533505694, 4533505695, 4533505696, 4533505693], "tags": {"addr:neighbourhood": "Yukar\u0131 Zaferiye Mahallesi", "building": "apartments", "name": "Dalk\u0131l\u0131\u00e7 apt."}}, {"type": "way", "id": 457166713, "nodes": [4664403654, 4533505697, 4533505698, 4664403655, 4664403654], "tags": {"building": "apartments", "name": "\u00d6zg\u00fcr Apt."}}, {"type": "way", "id": 457166714, "nodes": [4533505699, 4533505700, 4533505701, 4533505702, 4533505703, 4533505699], "tags": {"building": "yes", "building:levels": "6", "roof:material": "roof_tiles", "roof:shape": "flat"}}, {"type": "way", "id": 457166719, "nodes": [4533505704, 6448862351, 6448862353, 6448862354, 6448862352, 4533505705, 4533505706, 4533505707, 4533505708, 4533505704], "tags": {"building": "yes"}}, {"type": "way", "id": 457166721, "nodes": [4533505709, 5139186914, 5139186916, 5139186917, 5139186915, 4533505710, 4533505711, 4533505712, 4533505709], "tags": {"building": "apartments", "name": "Sad\u0131k Apt.", "roof:colour": "brown", "roof:shape": "hipped"}}, {"type": "way", "id": 457166722, "nodes": [4533505713, 4533505714, 4533505715, 4533505716, 4533505717, 4533505718, 4533505719, 4533505720, 4533505721, 4533505722, 4533505713], "tags": {"building": "apartments", "name": "\u0130\u015f\u00e7imen Apt.", "roof:colour": "brown", "roof:shape": "hipped"}}, {"type": "way", "id": 457166724, "nodes": [4533505723, 4533505724, 4533505725, 4533505726, 4533505723], "tags": {"building": "apartments", "name": "Akyol Apt."}}, {"type": "way", "id": 457166726, "nodes": [4533505727, 4533505728, 4533505729, 4533505730, 4533505727], "tags": {"building": "apartments", "name": "K\u00f6ykent"}}, {"type": "way", "id": 457166727, "nodes": [4533505731, 4533505732, 4533505733, 4533505734, 4533505731], "tags": {"building": "yes"}}, {"type": "way", "id": 457166729, "nodes": [4533505735, 4533505736, 4533505737, 4533505738, 4533505735], "tags": {"building": "apartments", "name": "G\u00fcn I\u015f\u0131\u011f\u0131 Apt."}}, {"type": "way", "id": 457166730, "nodes": [4533505739, 4533505740, 4533505741, 4533505742, 4533505739], "tags": {"building": "apartments", "name": "G\u00fczel Apt."}}, {"type": "way", "id": 457166732, "nodes": [4533505743, 4533505744, 4533505745, 4533505746, 4533505743], "tags": {"building": "yes"}}, {"type": "way", "id": 457166733, "nodes": [4533505747, 4533505748, 4533505749, 4533505750, 4533505747], "tags": {"building": "yes"}}, {"type": "way", "id": 457166737, "nodes": [4533505755, 4533505756, 4533505757, 4533505758, 4533505755], "tags": {"building": "yes"}}, {"type": "way", "id": 457167282, "nodes": [4533510718, 4533510719, 4533510720, 4533510721, 4533510718], "tags": {"building": "yes"}}, {"type": "way", "id": 457167283, "nodes": [4533510722, 4533510723, 4533510724, 4533510725, 4533510722], "tags": {"building": "yes"}}, {"type": "way", "id": 457167920, "nodes": [4533515444, 4533515448, 4533515445, 4533515446, 4533515447, 4533515444], "tags": {"addr:neighbourhood": "Yukar\u0131 Zaferiye Mahallesi", "building": "yes", "building:levels": "7", "roof:colour": "brown", "roof:shape": "hipped"}}, {"type": "way", "id": 457167922, "nodes": [4533515449, 4533515450, 4533515452, 4533515453, 5147731396, 4533515449], "tags": {"addr:neighbourhood": "Yukar\u0131 Zaferiye Mahallesi", "building": "yes", "building:levels": "7", "roof:colour": "brown", "roof:shape": "hipped"}}, {"type": "way", "id": 457301108, "nodes": [4534688978, 4534688979, 4534688980, 4534688981, 4845726652, 4534688978], "tags": {"building": "apartments", "name": "An\u0131l Kent Apt."}}, {"type": "way", "id": 457301109, "nodes": [4534688982, 4534688984, 4534689092, 4845726654, 4845726653, 4534688987, 4534688988, 4534688982], "tags": {"building": "yes"}}, {"type": "way", "id": 457301110, "nodes": [4534689089, 4534689090, 4534689091, 4534689092, 4845726654, 4845726653, 4534689089], "tags": {"building": "apartments", "name": "Binyap\u0131 \u0130n\u015faat/Agora Evleri"}}, {"type": "way", "id": 457301111, "nodes": [4534689093, 5189435145, 5189435152, 5189435151, 5189435146, 4534689094, 4534689095, 5189435148, 5189435150, 5189435149, 5189435147, 4534689096, 4534689093], "tags": {"building": "apartments", "name": "Doktorlar Sitesi"}}, {"type": "way", "id": 457301112, "nodes": [4534689097, 4843919176, 4534689098, 4534689099, 4534689100, 4534689097], "tags": {"building": "apartments", "name": "Banguo\u011flu Apt."}}, {"type": "way", "id": 457301113, "nodes": [4534689101, 4534689102, 4534689103, 4534689104, 4534689101], "tags": {"building": "yes"}}, {"type": "way", "id": 457301114, "nodes": [4534689105, 4534689106, 4534689107, 4534689108, 4534689105], "tags": {"building": "yes"}}, {"type": "way", "id": 457301115, "nodes": [4534689109, 4534689110, 4846666114, 4534689111, 4534689112, 4534689109], "tags": {"building": "yes"}}, {"type": "way", "id": 457301116, "nodes": [4534689113, 4534689114, 4534689115, 4534689116, 4534689113], "tags": {"building": "yes"}}, {"type": "way", "id": 457308208, "nodes": [4534757026, 4534757027, 4534757028, 4534757029, 4852204311, 4534757026], "tags": {"building": "apartments", "name": "Ermi\u015f Apt."}}, {"type": "way", "id": 457308209, "nodes": [4534757030, 4534757031, 4534757032, 4534757033, 4534757030], "tags": {"building": "apartments", "name": "Emek Apt."}}, {"type": "way", "id": 457350182, "nodes": [4535095438, 4535095439, 4535095440, 4535095441, 4535095438], "tags": {"building": "yes"}}, {"type": "way", "id": 457350183, "nodes": [4535095442, 4535095443, 4535095444, 4535095445, 4535095442], "tags": {"building": "yes"}}, {"type": "way", "id": 457350184, "nodes": [4535095446, 4535095447, 4535095448, 4535095449, 4535095446], "tags": {"building": "yes"}}, {"type": "way", "id": 457350185, "nodes": [4535095450, 4535095451, 4535095452, 4535095453, 4535095450], "tags": {"building": "yes"}}, {"type": "way", "id": 457350186, "nodes": [4535095454, 4535095455, 4535095456, 4535095457, 4535095454], "tags": {"building": "yes"}}, {"type": "way", "id": 457350187, "nodes": [4535095458, 4535095459, 4535095460, 4535095461, 4535095458], "tags": {"building": "house", "roof:colour": "brown", "roof:shape": "gabled"}}, {"type": "way", "id": 457350188, "nodes": [4535095462, 4535095463, 4535095464, 4535095465, 4535095462], "tags": {"building": "yes"}}, {"type": "way", "id": 457354005, "nodes": [4535123270, 4535123271, 4535123272, 4535123273, 4535123270], "tags": {"building": "yes"}}, {"type": "way", "id": 457354006, "nodes": [4535123274, 4535123275, 4535123276, 4535123277, 4535123278, 4535123279, 4535123280, 4535123281, 4535123274], "tags": {"building": "yes", "roof:shape": "hipped"}}, {"type": "way", "id": 457354007, "nodes": [4535123282, 4535123283, 4535123284, 4535123285, 4535123282], "tags": {"building": "yes"}}, {"type": "way", "id": 457510638, "nodes": [5171708774, 4536594626, 4536594627, 4536594628, 5171708775, 5171708774], "tags": {"building": "yes"}}, {"type": "way", "id": 457510639, "nodes": [4536594629, 4536594630, 4536594631, 4536594632, 4536594633, 4536594629], "tags": {"building": "yes"}}, {"type": "way", "id": 457510643, "nodes": [4536594662, 4536594663, 4536594665, 4536594667, 4536594668, 4536594669, 4536594670, 6257625276, 6257625275, 4536594671, 4536594672, 4536594662], "tags": {"building": "yes", "name": "Orman \u0130\u015fletme"}}, {"type": "way", "id": 457520911, "nodes": [4536667272, 4536667273, 4536667274, 4536667275, 4536667276, 4536667277, 4536667272], "tags": {"building": "yes"}}, {"type": "way", "id": 457520913, "nodes": [4536667278, 4536667279, 4536667280, 4536667281, 4536667278], "tags": {"building": "yes"}}, {"type": "way", "id": 457520915, "nodes": [4536667282, 4536667283, 4536667284, 4536667285, 4536667282], "tags": {"building": "yes"}}, {"type": "way", "id": 457767273, "nodes": [4538660762, 4538660763, 4538660764, 4538660765, 4538660762], "tags": {"building": "yes"}}, {"type": "way", "id": 457767276, "nodes": [3423673134, 3423673137, 3423673159], "tags": {"highway": "residential", "name": "A\u011fa\u00e7l\u0131k Sokak", "source": "DigitalGlobe"}}, {"type": "way", "id": 457962654, "nodes": [4540192400, 4540192401, 4540192402, 4540192403, 4540192400], "tags": {"building": "yes"}}, {"type": "way", "id": 457962655, "nodes": [4540192404, 4540192405, 4540192406, 4540192407, 4540192404], "tags": {"building": "yes"}}, {"type": "way", "id": 457962656, "nodes": [4540192408, 4540192409, 4540192410, 4540192411, 4540192412, 4540192413, 4540192414, 4540192415, 4540192416, 4540192417, 4540192418, 4540192419, 4540192408], "tags": {"building": "yes"}}, {"type": "way", "id": 457962657, "nodes": [4540192420, 4540192421, 4540192422, 4540192423, 4540192420], "tags": {"building": "yes"}}, {"type": "way", "id": 457962658, "nodes": [4540192424, 4540192425, 4540192426, 4540192427, 4540192424], "tags": {"building": "house"}}, {"type": "way", "id": 457962659, "nodes": [4540192424, 4540192428, 4540192430, 4540192425, 4540192424], "tags": {"building": "yes"}}, {"type": "way", "id": 457962660, "nodes": [4540192431, 4540192432, 4540192433, 4540192434, 4540192431], "tags": {"building": "yes"}}, {"type": "way", "id": 457962661, "nodes": [4540192435, 4540192436, 4540192437, 4540192438, 4540192435], "tags": {"building": "yes"}}, {"type": "way", "id": 457962662, "nodes": [4540192439, 4540192440, 4540192441, 4540192442, 4540192443, 4540192444, 4540192445, 4540192446, 4540192439], "tags": {"building": "yes"}}, {"type": "way", "id": 457962663, "nodes": [4540192447, 4540192448, 4540192449, 4540192450, 4540192447], "tags": {"building": "house"}}, {"type": "way", "id": 457962664, "nodes": [4540192451, 4540192452, 4540192453, 4540192454, 4540192451], "tags": {"building": "yes"}}, {"type": "way", "id": 457962665, "nodes": [4540192455, 4540192456, 4540192457, 4540192458, 4540192455], "tags": {"building": "yes"}}, {"type": "way", "id": 457962666, "nodes": [4540192459, 4540192460, 4540192461, 4540192462, 4540192459], "tags": {"building": "yes"}}, {"type": "way", "id": 458802667, "nodes": [4547509666, 4547509667, 4547509668, 4547509669, 4547509666], "tags": {"building": "yes"}}, {"type": "way", "id": 458802668, "nodes": [4547509671, 4547509672, 4547509673, 5189435144, 5189435140, 5189435141, 5189435139, 5189435142, 5189435138, 5189435143, 4547509674, 5189435137, 4547509671], "tags": {"building": "apartments", "name": "Ceyhan Apt."}}, {"type": "way", "id": 458802669, "nodes": [4547509675, 4547509676, 4547509677, 4547509678, 4547509675], "tags": {"building": "yes"}}, {"type": "way", "id": 459908214, "nodes": [4556316301, 4556316302, 4556316303, 4556316305, 4556316306, 4556316301], "tags": {"building": "yes"}}, {"type": "way", "id": 460222970, "nodes": [4558966556, 4558966557, 4558966558, 4558966559, 4558966556], "tags": {"building": "yes"}}, {"type": "way", "id": 460222971, "nodes": [4558966560, 4558966561, 4558966562, 4558966563, 4558966560], "tags": {"building": "yes"}}, {"type": "way", "id": 460222972, "nodes": [4558966564, 4558966565, 4558966566, 4558966567, 4558966564], "tags": {"building": "yes"}}, {"type": "way", "id": 460222973, "nodes": [4558966568, 4558966569, 4558966570, 4558966571, 4558966568], "tags": {"building": "yes"}}, {"type": "way", "id": 460222974, "nodes": [4558966572, 4558966573, 4558966574, 4558966575, 4558966572], "tags": {"building": "yes"}}, {"type": "way", "id": 460222975, "nodes": [4558966576, 5147731408, 5147731411, 5147731410, 5147731409, 4558966577, 4558966578, 5147731405, 5147731406, 5147731407, 5147731404, 4558966579, 4558966580, 4558966581, 4558966576], "tags": {"addr:neighbourhood": "Yukar\u0131 Zaferiye Mahallesi", "building": "yes", "name": "Ula\u015ft\u0131rma Hizmetleri", "roof:material": "roof_tiles", "roof:shape": "hipped"}}, {"type": "way", "id": 460222976, "nodes": [4558966582, 4558966583, 4558966584, 4558966585, 4558966582], "tags": {"building": "yes", "roof:colour": "brown", "roof:shape": "pyramidal"}}, {"type": "way", "id": 460222977, "nodes": [4558966586, 4843919177, 4558966587, 4558966588, 4843919180, 4843919182, 4843919181, 4843919179, 4558966789, 4843919178, 4558966586], "tags": {"building": "yes", "name": "Ke\u015fan \u0130l\u00e7e Milli E\u011fitim"}}, {"type": "way", "id": 460610496, "nodes": [4562362174, 4562362175, 4562362176, 4562362177, 4562362174], "tags": {"building": "yes"}}, {"type": "way", "id": 460610497, "nodes": [4562362178, 4562362179, 4562362180, 4562362181, 4562362178], "tags": {"building": "yes"}}, {"type": "way", "id": 460610498, "nodes": [4562362182, 4562362183, 4562362184, 4562362185, 4562362182], "tags": {"building": "yes"}}, {"type": "way", "id": 460610499, "nodes": [4562362186, 4562362187, 4562362188, 4562362689, 4562362186], "tags": {"building": "yes"}}, {"type": "way", "id": 460610500, "nodes": [4562362690, 4562362691, 4562362692, 4562362693, 4562362690], "tags": {"building": "yes"}}, {"type": "way", "id": 460610501, "nodes": [4562362695, 4562362696, 4562362697, 4562362698, 4562362695], "tags": {"building": "yes"}}, {"type": "way", "id": 463767648, "nodes": [4589999489, 4589999490, 4589999491, 4589999492, 4589999489], "tags": {"building": "yes"}}, {"type": "way", "id": 463767649, "nodes": [4589999493, 4589999494, 4589999495, 4589999496, 4589999493], "tags": {"building": "yes"}}, {"type": "way", "id": 463767650, "nodes": [4589999497, 4589999498, 4589999499, 4589999500, 4589999497], "tags": {"building": "yes"}}, {"type": "way", "id": 463767651, "nodes": [4589999501, 5179174572, 5179174574, 5179174573, 5179174571, 4589999502, 4589999503, 4589999504, 4589999501], "tags": {"building": "yes"}}, {"type": "way", "id": 463767652, "nodes": [4589999505, 4589999506, 4589999507, 4589999508, 4589999505], "tags": {"building": "yes"}}, {"type": "way", "id": 463767653, "nodes": [4589999509, 4589999510, 4589999511, 4589999512, 4589999509], "tags": {"building": "yes"}}, {"type": "way", "id": 463767654, "nodes": [4589999513, 4589999514, 4589999515, 4589999516, 4589999513], "tags": {"building": "yes"}}, {"type": "way", "id": 463767655, "nodes": [4589999517, 4589999518, 4589999519, 4589999520, 4589999517], "tags": {"building": "yes"}}, {"type": "way", "id": 463767661, "nodes": [4589999549, 4589999550, 4589999551, 4589999552, 4589999549], "tags": {"building": "yes"}}, {"type": "way", "id": 463767662, "nodes": [4589999553, 4589999554, 4589999555, 4589999556, 4589999553], "tags": {"building": "yes"}}, {"type": "way", "id": 463767663, "nodes": [4589999557, 4589999558, 4589999559, 4589999560, 4589999557], "tags": {"building": "yes"}}, {"type": "way", "id": 463767664, "nodes": [4589999561, 4589999562, 4589999563, 4589999564, 4589999561], "tags": {"building": "yes"}}, {"type": "way", "id": 463767665, "nodes": [4589999565, 4589999566, 4589999567, 4589999568, 4589999565], "tags": {"building": "yes"}}, {"type": "way", "id": 463767666, "nodes": [4589999569, 4589999570, 4589999571, 4589999572, 4589999573, 4589999574, 4589999575, 4589999576, 4589999577, 4589999580, 4589999569], "tags": {"building": "yes"}}, {"type": "way", "id": 463767667, "nodes": [4589999581, 4589999582, 4589999583, 4589999584, 4589999581], "tags": {"building": "yes"}}, {"type": "way", "id": 463767668, "nodes": [4589999585, 4589999586, 4589999587, 4589999588, 4589999585], "tags": {"building": "yes"}}, {"type": "way", "id": 463999557, "nodes": [4591856444, 4591856445, 4591856446, 4591856447, 4591856444], "tags": {"building": "yes"}}, {"type": "way", "id": 463999558, "nodes": [4591856448, 4591856449, 4591856450, 4591856451, 4591856448], "tags": {"building": "yes"}}, {"type": "way", "id": 463999559, "nodes": [4591856452, 4591856453, 4591856454, 4591856455, 4591856452], "tags": {"building": "yes"}}, {"type": "way", "id": 463999560, "nodes": [4591856456, 4591856457, 4591856458, 4591856459, 4591856456], "tags": {"building": "yes"}}, {"type": "way", "id": 463999561, "nodes": [4591856460, 4591856461, 4591856462, 4591856463, 4591856460], "tags": {"building": "yes"}}, {"type": "way", "id": 464001783, "nodes": [4591871092, 4591871093, 4591871094, 4591871095, 4591871092], "tags": {"building": "yes"}}, {"type": "way", "id": 464001784, "nodes": [4591871096, 4591871097, 4591871098, 4591871099, 4591871096], "tags": {"building": "yes"}}, {"type": "way", "id": 464053175, "nodes": [4592169346, 4592169347, 4592169348, 4592169349, 4592169346], "tags": {"building": "yes"}}, {"type": "way", "id": 464053176, "nodes": [4592169350, 4592169351, 4592169352, 4592169353, 4592169350], "tags": {"building": "yes"}}, {"type": "way", "id": 464053177, "nodes": [4592169354, 4592169355, 4592169356, 4592169357, 4592169354], "tags": {"building": "yes"}}, {"type": "way", "id": 464053178, "nodes": [4592169358, 4592169359, 4592169360, 4592169361, 4592169358], "tags": {"building": "apartments", "name": "\u00c7elik Apt.", "roof:colour": "brown", "roof:shape": "skillion"}}, {"type": "way", "id": 464053179, "nodes": [4592169362, 4592169363, 4592169364, 4592169365, 4592169362], "tags": {"building": "yes", "roof:shape": "hipped"}}, {"type": "way", "id": 464053180, "nodes": [4592169366, 4592169367, 4592169368, 4592169369, 4592169366], "tags": {"building": "yes"}}, {"type": "way", "id": 464053196, "nodes": [4592169551, 4592169552, 4592169553, 4592169554, 4592169555, 4592169556, 4843919183, 4592169551], "tags": {"building": "apartments", "name": "Yener Apt."}}, {"type": "way", "id": 464053197, "nodes": [4592169557, 4592169558, 4592169559, 4592169560, 4592169557], "tags": {"building": "apartments", "name": "G\u00fcvenal Apt."}}, {"type": "way", "id": 466005409, "nodes": [4608996646, 4608996647, 4608996648, 4608996649, 4608996646], "tags": {"building": "yes", "roof:colour": "brown", "roof:shape": "hipped"}}, {"type": "way", "id": 467825193, "nodes": [4624282991, 4624282990, 4624282989, 4624282688, 4624282991], "tags": {"building": "yes"}}, {"type": "way", "id": 469109150, "nodes": [4635103498, 6545890085, 6545890086, 4635103504, 4635103501, 4635103497, 6545890088, 6545890089, 6545890090, 6545890092, 6545890091, 6545890087, 4635103498], "tags": {"building": "yes"}}, {"type": "way", "id": 469109151, "nodes": [4635103500, 4635103502, 4635103503, 4635103499, 4635103500], "tags": {"building": "yes"}}, {"type": "way", "id": 469396310, "nodes": [4637243169, 4637243170, 4637243171, 4637243172, 4637243169], "tags": {"building": "yes"}}, {"type": "way", "id": 469396311, "nodes": [4637243173, 4637243174, 4637243175, 4637243176, 4637243173], "tags": {"building": "yes"}}, {"type": "way", "id": 469396312, "nodes": [4637243177, 4637243178, 4637243179, 4637243180, 4637243177], "tags": {"building": "yes"}}, {"type": "way", "id": 469396313, "nodes": [4637243181, 4637243182, 4637243183, 4637243184, 4637243181], "tags": {"building": "yes"}}, {"type": "way", "id": 469396314, "nodes": [4654362188, 4637243186, 4637243185, 4637244489, 4637243188, 4654362206, 4654362209, 4654362188], "tags": {"building": "yes"}}, {"type": "way", "id": 469400577, "nodes": [1610699043, 6304484022, 12204790152, 1610699503, 4844534202, 4844534204, 4844534203, 4844534205, 4833381056, 1610698630, 1610699175], "tags": {"highway": "residential", "name": "An\u0131l Sokak", "source": "bing;DigitalGlobe"}}, {"type": "way", "id": 469400578, "nodes": [4637276876, 4637276877, 4637276878, 5253300476, 5253300477, 4637276879, 5253300478, 5253300479, 4637276876], "tags": {"building": "yes"}}, {"type": "way", "id": 469400580, "nodes": [4637276880, 4637276881, 4637276882, 4637276883, 4637276880], "tags": {"building": "yes"}}, {"type": "way", "id": 469400582, "nodes": [4637276884, 4637276885, 4637276886, 4637276887, 4637276884], "tags": {"building": "yes"}}, {"type": "way", "id": 469400584, "nodes": [4637276888, 4637277789, 4637277790, 4637277791, 4637276888], "tags": {"building": "yes"}}, {"type": "way", "id": 469400586, "nodes": [4637277792, 4637277793, 4637277794, 4637277795, 4637277792], "tags": {"building": "yes"}}, {"type": "way", "id": 469401826, "nodes": [4637289142, 1610699614], "tags": {"highway": "residential", "name": "Y\u0131lmaz Sokak", "source": "DigitalGlobe"}}, {"type": "way", "id": 469553181, "nodes": [4638516761, 4638516759, 4638516765, 4908797836, 4638516745, 4908797835, 4638516761], "tags": {"building": "yes", "roof:colour": "brown", "roof:shape": "gabled"}}, {"type": "way", "id": 471269228, "nodes": [4654350111, 4654350120, 4654350130, 4654350119, 4654350111], "tags": {"building": "yes"}}, {"type": "way", "id": 471269230, "nodes": [4654350125, 4654350126, 4654350101, 4654350103, 4654350125], "tags": {"building": "yes"}}, {"type": "way", "id": 471269231, "nodes": [4654350123, 4654350106, 4654350107, 4654350109, 4654350123], "tags": {"building": "yes"}}, {"type": "way", "id": 471269232, "nodes": [4654350110, 4654350105, 4654350102, 4654350129, 4654350110], "tags": {"building": "yes"}}, {"type": "way", "id": 471269234, "nodes": [4654350112, 4654350108, 4654350118, 4654350104, 4654350112], "tags": {"building": "yes"}}, {"type": "way", "id": 471269236, "nodes": [4654350121, 4654350113, 4654350116, 4654350100, 4654350121], "tags": {"building": "yes"}}, {"type": "way", "id": 471270054, "nodes": [4654362193, 4654362208, 4654362194, 4654362195, 4654362193], "tags": {"building": "yes"}}, {"type": "way", "id": 471270056, "nodes": [4654362198, 4654362196, 4654362204, 4654362199, 4654362203, 4654362198], "tags": {"building": "yes"}}, {"type": "way", "id": 471270059, "nodes": [4654362192, 4654362205, 4654362202, 4654362201, 4654362192], "tags": {"building": "yes"}}, {"type": "way", "id": 471270060, "nodes": [4654362190, 4654362197, 4654362189, 5194199532, 4654362207, 5194199531, 4654362191, 4654362190], "tags": {"building": "apartments", "name": "Demircio\u011flu Apt."}}, {"type": "way", "id": 492372326, "nodes": [4843954173, 4843954174, 4843954175, 4843954176, 5166450132, 4843954173], "tags": {"building": "yes"}}, {"type": "way", "id": 492372328, "nodes": [4843954177, 4843954178, 4843954179, 4843954180, 4843954177], "tags": {"building": "yes"}}, {"type": "way", "id": 492372329, "nodes": [4843954181, 4843954182, 4843954183, 4843954184, 4843954181], "tags": {"building": "yes", "roof:colour": "brown", "roof:shape": "hipped"}}, {"type": "way", "id": 492372331, "nodes": [4843954185, 4843954186, 4843954187, 6545890086, 4843954188, 4843954185], "tags": {"building": "yes"}}, {"type": "way", "id": 492372332, "nodes": [4843954189, 4843954190, 4843954191, 4843954192, 4843954189], "tags": {"building": "yes"}}, {"type": "way", "id": 492372334, "nodes": [4843954193, 4843954194, 4843954195, 4843954196, 4843954193], "tags": {"building": "yes"}}, {"type": "way", "id": 492372335, "nodes": [4843954197, 4843954198, 4843954199, 4843954200, 4843954197], "tags": {"building": "yes"}}, {"type": "way", "id": 492372337, "nodes": [4843954201, 4843954202, 4843954203, 4843954204, 4843954201], "tags": {"building": "yes"}}, {"type": "way", "id": 492372338, "nodes": [4843954205, 4843954206, 4843954207, 4843954208, 4843954209, 4843954210, 4843954205], "tags": {"building": "yes"}}, {"type": "way", "id": 492372340, "nodes": [4843954211, 4843954212, 4843954213, 4843954214, 4843954211], "tags": {"building": "yes"}}, {"type": "way", "id": 492432519, "nodes": [4844535921, 6937796888, 6937796887, 4844535922, 4844535923, 4844535924, 4844535921], "tags": {"building": "yes"}}, {"type": "way", "id": 492432520, "nodes": [4844535925, 4844535926, 4844535927, 4844535928, 4844535925], "tags": {"building": "yes"}}, {"type": "way", "id": 492432521, "nodes": [4844535929, 4844535930, 4844535931, 4844535932, 4844535929], "tags": {"building": "yes"}}, {"type": "way", "id": 492432522, "nodes": [4844535933, 4844535934, 4844535935, 4844535936, 4844535933], "tags": {"building": "yes"}}, {"type": "way", "id": 492432523, "nodes": [4844535937, 4844535938, 5147940885, 4844535939, 4844535940, 4844535937], "tags": {"building": "yes"}}, {"type": "way", "id": 492432524, "nodes": [4844535941, 4844535942, 4844535943, 4844535944, 4844535941], "tags": {"building": "yes"}}, {"type": "way", "id": 492432525, "nodes": [4844535945, 4844535946, 4844535947, 4844535948, 4844535945], "tags": {"building": "yes"}}, {"type": "way", "id": 492432526, "nodes": [4844535949, 4844535950, 4844535951, 4844535952, 4844535949], "tags": {"building": "yes"}}, {"type": "way", "id": 492578271, "nodes": [4845726635, 4845726636, 4845726637, 4845726638, 4845726639, 4845726640, 4845726635], "tags": {"building": "yes"}}, {"type": "way", "id": 492578272, "nodes": [4845726641, 4845726642, 4845726643, 4845726644, 4845726641], "tags": {"building": "yes"}}, {"type": "way", "id": 492578273, "nodes": [4845726646, 4845726647, 5180485994, 4845726648, 5180485995, 4845726649, 4845726650, 4845726651, 4845726646], "tags": {"building": "apartments"}}, {"type": "way", "id": 492680127, "nodes": [4846666093, 4846666094, 4846666095, 4846666096, 4909771013, 4846666093], "tags": {"building": "yes"}}, {"type": "way", "id": 492680128, "nodes": [4846666097, 4846666098, 4846666099, 4846666100, 4846666097], "tags": {"building": "yes"}}, {"type": "way", "id": 492680129, "nodes": [4846666101, 4846666102, 4846666103, 4846666104, 4846666101], "tags": {"building": "yes"}}, {"type": "way", "id": 492680130, "nodes": [4846666105, 4846666106, 4846666107, 4846666108, 4846666105], "tags": {"building": "yes", "roof:colour": "brown", "roof:shape": "hipped"}}, {"type": "way", "id": 492680131, "nodes": [4846666109, 4846666110, 4846666111, 4846666112, 4846666113, 4846666109], "tags": {"building": "yes"}}, {"type": "way", "id": 492680132, "nodes": [4846666115, 4846666116, 4846666117, 4846666118, 4846666119, 4846666120, 4846666115], "tags": {"building": "yes"}}, {"type": "way", "id": 492680133, "nodes": [4846666122, 4846666123, 4846666124, 4846666125, 4846666122], "tags": {"building": "yes"}}, {"type": "way", "id": 492680134, "nodes": [4846666126, 4846666127, 4846666128, 4846666129, 4846666126], "tags": {"building": "yes"}}, {"type": "way", "id": 492680135, "nodes": [4846666130, 4846666131, 4846666132, 4846666133, 4846666134, 4846666135, 4846666136, 4846666137, 4846666130], "tags": {"building": "yes"}}, {"type": "way", "id": 492680136, "nodes": [4846666138, 4846666139, 4846666140, 4846666141, 4846666138], "tags": {"building": "yes"}}, {"type": "way", "id": 492680137, "nodes": [4846666142, 4846666143, 4846666144, 4846666145, 4846666142], "tags": {"building": "yes"}}, {"type": "way", "id": 492680138, "nodes": [4846666146, 4846666147, 4846666148, 4846666149, 4846666146], "tags": {"building": "yes"}}, {"type": "way", "id": 492680139, "nodes": [4846666150, 4846666151, 4846666152, 4846666153, 4846666150], "tags": {"building": "yes"}}, {"type": "way", "id": 492680140, "nodes": [4846666154, 4846666155, 4846666156, 4846666157, 4846666158, 4846666159, 4846666160, 4846666154], "tags": {"building": "yes"}}, {"type": "way", "id": 492680141, "nodes": [4846666161, 4846666162, 4846666163, 4846666164, 4846666161], "tags": {"building": "yes"}}, {"type": "way", "id": 492680142, "nodes": [4846666165, 4846666166, 4846666167, 4846666168, 4846666165], "tags": {"building": "yes"}}, {"type": "way", "id": 492680143, "nodes": [4846666169, 4846666170, 4846666171, 4846666172, 4846666173, 4846666174, 4846666169], "tags": {"building": "yes"}}, {"type": "way", "id": 492680144, "nodes": [4846666175, 4846666176, 4846666177, 4846666178, 4846666179, 4846666175], "tags": {"building": "yes"}}, {"type": "way", "id": 492680145, "nodes": [4846666180, 4846666181, 4846666182, 4846666183, 4846666180], "tags": {"building": "apartments", "name": "\u00d6ztepe Apartman"}}, {"type": "way", "id": 492680146, "nodes": [4846666184, 4846666185, 4846666186, 4846666187, 4846666184], "tags": {"building": "yes"}}, {"type": "way", "id": 492680147, "nodes": [4846666188, 4846666189, 4846666190, 4846666191, 4846666192, 4846666193, 4846666188], "tags": {"building": "yes"}}, {"type": "way", "id": 492680148, "nodes": [4846666194, 4846666195, 4846666196, 4846666197, 4846666194], "tags": {"building": "yes"}}, {"type": "way", "id": 492680149, "nodes": [4846666198, 4846666199, 4846666200, 4846666201, 4846666202, 4846666203, 4846666204, 4846666205, 4846666198], "tags": {"building": "yes"}}, {"type": "way", "id": 492680150, "nodes": [4846666209, 4846666210, 4846666211, 4846666212, 4846666213, 4846666214, 4846666209], "tags": {"building": "yes"}}, {"type": "way", "id": 492680151, "nodes": [4846666215, 4846666216, 4846666217, 4846666218, 4846666219, 4846666220, 4846666221, 4846666222, 4846666223, 4846666224, 4846666225, 4846666215], "tags": {"building": "yes"}}, {"type": "way", "id": 492680152, "nodes": [4846666226, 4846666227, 4846666228, 4846666229, 4846666230, 4846666226], "tags": {"building": "yes", "name": "R\u00fczgarl\u0131 \u015eato"}}, {"type": "way", "id": 492680153, "nodes": [4846666231, 4846666232, 4846666233, 4846666234, 4846666231], "tags": {"building": "yes"}}, {"type": "way", "id": 492680269, "nodes": [4846666752, 4846666753, 4846666754, 4846666755, 4846666752], "tags": {"building": "yes"}}, {"type": "way", "id": 492680270, "nodes": [4846666756, 4846666757, 4846666758, 4846666759, 4846666756], "tags": {"building": "yes"}}, {"type": "way", "id": 492681252, "nodes": [4846680297, 4846680298, 4846680299, 4846680300, 4846680297], "tags": {"building": "yes"}}, {"type": "way", "id": 492681253, "nodes": [4846680301, 4846680302, 4846680303, 4846680304, 4846680305, 4846680308, 4846680307, 4846680306, 4846680301], "tags": {"building": "yes"}}, {"type": "way", "id": 492681254, "nodes": [4846680309, 5144375235, 5144375237, 5144375238, 5144375236, 4846680310, 4846680311, 4846680312, 4846680313, 4846680314, 4846680309], "tags": {"building": "yes"}}, {"type": "way", "id": 493273029, "nodes": [4851998147, 4851998148, 4851998149, 4851998150, 4851998151, 4851998152, 4851998153, 4851998154, 4851998155, 4851998156, 4851998147], "tags": {"building": "yes"}}, {"type": "way", "id": 493273030, "nodes": [4851998168, 4851998169, 4851998170, 4851998157, 5138793547, 5138793548, 4851998168], "tags": {"building": "yes"}}, {"type": "way", "id": 493296836, "nodes": [4852204307, 4852204308, 4852204309, 4852204310, 4852204307], "tags": {"building": "yes"}}, {"type": "way", "id": 493296838, "nodes": [4852204312, 4852204313, 4852204314, 4852204315, 4852204316, 4852204317, 4852204318, 4852204319, 4852204312], "tags": {"building": "apartments", "name": "\u00c7elik \u0130n\u015faat"}}, {"type": "way", "id": 493510117, "nodes": [4854196898, 4854196899, 4854196900, 4854196901, 4854196898], "tags": {"building": "yes"}}, {"type": "way", "id": 493510118, "nodes": [4854196902, 4854196903, 4854196904, 4854196905, 4854196902], "tags": {"building": "yes"}}, {"type": "way", "id": 493510119, "nodes": [4854196906, 4854196907, 4854196908, 4854196909, 4854196910, 4854196911, 4854196906], "tags": {"building": "yes"}}, {"type": "way", "id": 499670148, "nodes": [4909146490, 4909146491, 4909146492, 4909146493, 4909146490], "tags": {"building": "yes"}}, {"type": "way", "id": 499670150, "nodes": [4909146494, 4909146495, 4909146496, 4909146497, 4909146494], "tags": {"building": "yes"}}, {"type": "way", "id": 499670152, "nodes": [4909146498, 4909146499, 4909146500, 4909146501, 4909146498], "tags": {"building": "yes"}}, {"type": "way", "id": 499670153, "nodes": [4909146502, 4909146503, 4909146504, 4909146505, 4909146502], "tags": {"building": "yes"}}, {"type": "way", "id": 499670155, "nodes": [4909146506, 4909146507, 4909146508, 4909146509, 4909146506], "tags": {"building": "yes"}}, {"type": "way", "id": 499670157, "nodes": [4909146510, 4909146511, 4909146512, 4909146513, 4909146510], "tags": {"building": "yes"}}, {"type": "way", "id": 499670158, "nodes": [4909146514, 4909146515, 4909146516, 4909146517, 4909146514], "tags": {"building": "yes"}}, {"type": "way", "id": 499670160, "nodes": [4909146518, 4909146519, 4909146520, 4909146921, 4909146518], "tags": {"building": "yes"}}, {"type": "way", "id": 499739155, "nodes": [4909770989, 4909770990, 4909770991, 4909770992, 4909770989], "tags": {"building": "yes", "roof:colour": "brown", "roof:shape": "hipped"}}, {"type": "way", "id": 499739156, "nodes": [4909770993, 4909770994, 4909770995, 4909770996, 4909770993], "tags": {"building": "yes", "roof:colour": "brown", "roof:shape": "gabled"}}, {"type": "way", "id": 499739157, "nodes": [4909770997, 4909770998, 4909770999, 4909771000, 4909770997], "tags": {"building": "yes"}}, {"type": "way", "id": 499739158, "nodes": [4909771001, 4909771002, 4909771003, 4909771004, 4909771001], "tags": {"building": "yes"}}, {"type": "way", "id": 499739159, "nodes": [4535123270, 4909771005, 4909771010, 4909771009, 4535123271, 4535123270], "tags": {"building": "yes"}}, {"type": "way", "id": 499739160, "nodes": [4909771006, 4909771007, 4909771008, 4909771009, 4909771010, 4909771006], "tags": {"building": "yes"}}, {"type": "way", "id": 499739161, "nodes": [4909771006, 4909771011, 4909771012, 4909771005, 4909771010, 4909771006], "tags": {"building": "yes"}}, {"type": "way", "id": 499739162, "nodes": [4909771007, 4846666093, 4909771013, 4909771008, 4909771007], "tags": {"building": "yes"}}, {"type": "way", "id": 499739163, "nodes": [4909771014, 4909771015, 4909771016, 4909771017, 4909771014], "tags": {"building": "yes"}}, {"type": "way", "id": 499739164, "nodes": [4909771018, 4909771019, 4909771020, 4909771221, 4909771018], "tags": {"building": "yes"}}, {"type": "way", "id": 499739165, "nodes": [4909771222, 4909771223, 4909771224, 4909771225, 4909771222], "tags": {"building": "yes"}}, {"type": "way", "id": 499739166, "nodes": [4909771226, 4909771227, 4909771228, 4909771229, 4909771230, 4909771231, 4909771232, 4909771233, 4909771226], "tags": {"building": "yes"}}, {"type": "way", "id": 499739167, "nodes": [4909771234, 4909771235, 4909771236, 4909771237, 4909771234], "tags": {"building": "yes"}}, {"type": "way", "id": 499739168, "nodes": [4909771238, 4909771239, 4909771240, 4909771241, 4909771238], "tags": {"building": "yes"}}, {"type": "way", "id": 499739169, "nodes": [4909771242, 4909771243, 4909771244, 4909771245, 4909771242], "tags": {"building": "yes"}}, {"type": "way", "id": 499739170, "nodes": [4909771246, 4909771247, 4909771248, 4909771249, 4909771246], "tags": {"building": "yes"}}, {"type": "way", "id": 499739171, "nodes": [4909771250, 4909771251, 4909771252, 5147933515, 5147933518, 4909771253, 5147933517, 5147933516, 4909771250], "tags": {"building": "yes"}}, {"type": "way", "id": 499739172, "nodes": [4909771254, 4909771255, 4909771256, 4909771257, 4909771254], "tags": {"building": "yes"}}, {"type": "way", "id": 499739173, "nodes": [4909771258, 4909771259, 4909771260, 4909771261, 4909771258], "tags": {"building": "yes"}}, {"type": "way", "id": 499739174, "nodes": [4909771262, 4909771263, 4909771264, 4909771265, 4909771266, 4909771267, 4909771268, 4909771269, 4909771262], "tags": {"building": "yes"}}, {"type": "way", "id": 499739175, "nodes": [4909771270, 4909771271, 4909771272, 4909771273, 4909771270], "tags": {"building": "yes"}}, {"type": "way", "id": 499739176, "nodes": [4909771274, 4909771275, 4909771276, 4909771277, 4909771274], "tags": {"building": "yes"}}, {"type": "way", "id": 499739177, "nodes": [4909771278, 4909771279, 4909771280, 4909771281, 4909771278], "tags": {"building": "yes"}}, {"type": "way", "id": 499978477, "nodes": [4911503960, 4911503961, 4911503962, 4911503963, 4911503960], "tags": {"building": "yes"}}, {"type": "way", "id": 499978478, "nodes": [4911503964, 4911503967, 4911503968, 5148353087, 4911503969, 4911503964], "tags": {"building": "yes"}}, {"type": "way", "id": 499988983, "nodes": [4911604966, 4911604967, 4911604968, 4911604969, 4911604966], "tags": {"building": "yes"}}, {"type": "way", "id": 499988984, "nodes": [4911604970, 4911604971, 4911604972, 5147933520, 4911604973, 5147933519, 4911604970], "tags": {"building": "yes"}}, {"type": "way", "id": 499988985, "nodes": [4911604974, 4911604975, 4911604976, 4911604977, 4911604978, 4911604979, 4911604974], "tags": {"building": "yes"}}, {"type": "way", "id": 499988986, "nodes": [4911604980, 5179566177, 5179566178, 4911604981, 5179566179, 4911604982, 5179566180, 4911604983, 5179566181, 5179566184, 5179566183, 5179566182, 4911604980], "tags": {"building": "yes"}}, {"type": "way", "id": 499988987, "nodes": [4911604984, 4911604985, 4911604986, 4911604987, 4911604984], "tags": {"building": "yes"}}, {"type": "way", "id": 499988988, "nodes": [4911604988, 4911604989, 4911604990, 4911604991, 4911604992, 4911604993, 4911604988], "tags": {"building": "yes"}}, {"type": "way", "id": 499988989, "nodes": [4911604994, 4911604995, 4911604996, 5179566185, 4911604997, 5179566186, 4911604994], "tags": {"building": "yes"}}, {"type": "way", "id": 499988990, "nodes": [4911604998, 4911604999, 4911605000, 4911605001, 4911605002, 4911605003, 4911605004, 4911605005, 4911604998], "tags": {"building": "yes"}}, {"type": "way", "id": 499988991, "nodes": [4911605006, 4911605007, 4911605008, 4911605009, 4911605006], "tags": {"building": "yes"}}, {"type": "way", "id": 499988992, "nodes": [4911605010, 4911605011, 4911605012, 4911605013, 4911605014, 4911605015, 4911605010], "tags": {"building": "yes"}}, {"type": "way", "id": 500004215, "nodes": [4911748642, 4911748643, 4911748644, 4911748645, 4911748642], "tags": {"building": "yes"}}, {"type": "way", "id": 500004216, "nodes": [4911748646, 4911748647, 4911748648, 4911748649, 4911748646], "tags": {"building": "yes"}}, {"type": "way", "id": 500004217, "nodes": [4911748650, 4911748651, 4911748652, 4911748653, 4911748650], "tags": {"building": "yes"}}, {"type": "way", "id": 503334041, "nodes": [4936647802, 4936647803, 4936647804, 4936647805, 4936647806, 4936647807, 4936647808, 4936647809, 4936647810, 4936647811, 4936647812, 4936647813, 4936647802], "tags": {"building": "yes"}}, {"type": "way", "id": 503344114, "nodes": [4936721638, 4936721639, 4936721640, 4936721641, 4936721638], "tags": {"building": "yes"}}, {"type": "way", "id": 503344115, "nodes": [4936721642, 4936721643, 4936721644, 4936721645, 4936721642], "tags": {"building": "house"}}, {"type": "way", "id": 526615583, "nodes": [5120955040, 5120955041, 5120955042], "tags": {"highway": "residential"}}, {"type": "way", "id": 526615584, "nodes": [5132040231, 5120955045, 5120955043], "tags": {"highway": "residential"}}, {"type": "way", "id": 526615585, "nodes": [5120955044, 5120955045], "tags": {"highway": "residential"}}, {"type": "way", "id": 527153402, "nodes": [5125429229, 5125429230, 5125429231, 5125429232, 5125429229], "tags": {"building": "yes"}}, {"type": "way", "id": 527153403, "nodes": [5125429233, 5125429234, 5125429235, 5125429236, 5125429237, 5125429238, 5125429239, 5125429240, 5125429241, 5125429242, 5125429233], "tags": {"building": "yes"}}, {"type": "way", "id": 527174079, "nodes": [6394425142, 6394425141, 6394425140, 6394425139, 5125614783, 5125614784, 6394425142], "tags": {"addr:city": "Edirne", "addr:district": "Ke\u015fan", "addr:housenumber": "23", "addr:neighbourhood": "Yukar\u0131 Zaferiye Mahallesi", "addr:postcode": "22800", "addr:street": "\u0130lyasbey Caddesi", "amenity": "townhall", "building": "yes", "building:levels": "7", "layer": "-1", "name": "Ke\u015fan Belediyesi", "phone": "+90 284 714 11 85", "phone_1": "+90 284 714 10 26", "website": "https://www.kesan.bel.tr/"}}, {"type": "way", "id": 527452868, "nodes": [5127831089, 5127831090, 5127831091, 5127831092, 5127831089], "tags": {"building": "yes"}}, {"type": "way", "id": 527611214, "nodes": [5129049283, 5129049284, 5129049285, 5129049286, 5129049283], "tags": {"building": "yes", "roof:colour": "brown", "roof:orientation": "across", "roof:shape": "gabled"}}, {"type": "way", "id": 527695923, "nodes": [5129764717, 5129764718, 5129764719, 5129764720, 5129764717], "tags": {"building": "yes"}}, {"type": "way", "id": 527833293, "nodes": [5130759396, 5130759397, 5130759398, 5130759399, 5130759396], "tags": {"building": "yes"}}, {"type": "way", "id": 527833294, "nodes": [5130759400, 5130759401, 5130759402, 5130759403, 5130759404, 5130759405, 5130759400], "tags": {"building": "yes"}}, {"type": "way", "id": 527833296, "nodes": [5130759410, 5130759411, 5130759412, 5130759413, 5130759410], "tags": {"building": "yes"}}, {"type": "way", "id": 527989172, "nodes": [5132040723, 5132040724, 5132040725, 5132040726, 5132040723], "tags": {"amenity": "place_of_worship", "building": "mosque", "denomination": "sunni", "religion": "muslim"}}, {"type": "way", "id": 527989173, "nodes": [5132040727, 5132040728, 5132040729, 5132040730, 5132040727], "tags": {"building": "yes"}}, {"type": "way", "id": 527989174, "nodes": [5132040731, 5132040732, 5132040733, 5132040734, 5132040735, 5132040736, 5132040731], "tags": {"building": "yes"}}, {"type": "way", "id": 528404012, "nodes": [5135081146, 5135081147, 5135081148, 5135081149, 5135081146], "tags": {"building": "yes"}}, {"type": "way", "id": 528914761, "nodes": [4851998166, 5138793548, 5138793547, 4851998158, 4851998159, 4851998160, 4851998161, 4851998162, 4851998163, 4851998164, 4851998165, 4851998166], "tags": {"building": "apartments", "name": "Sat\u0131rba\u015f\u0131 Apartman\u0131"}}, {"type": "way", "id": 529061154, "nodes": [5140171612, 5140171613, 5140171614, 5140171615, 5140171612], "tags": {"building": "yes"}}, {"type": "way", "id": 529061155, "nodes": [5140171616, 5140171617, 5140171618, 5140171619, 5140171616], "tags": {"building": "yes"}}, {"type": "way", "id": 529061156, "nodes": [5140171620, 5140173021, 5140173022, 5140173023, 5140171620], "tags": {"building": "yes"}}, {"type": "way", "id": 529599103, "nodes": [5144375239, 5144375240, 5144375241, 5144375242, 5144375243, 5144375239], "tags": {"building": "yes"}}, {"type": "way", "id": 530033480, "nodes": [5147926995, 5147926996, 5147926997, 5147926998, 5147926995], "tags": {"building": "yes"}}, {"type": "way", "id": 530035355, "nodes": [4844535938, 5147940883, 5147940884, 5147940888, 5147940885, 4844535938], "tags": {"building": "yes"}}, {"type": "way", "id": 530035358, "nodes": [5147940884, 5147940886, 5147940887, 5147940888, 5147940884], "tags": {"building": "yes"}}, {"type": "way", "id": 530035360, "nodes": [5147940889, 5147940890, 5147940891, 5147940892, 5147940889], "tags": {"building": "yes"}}, {"type": "way", "id": 530035363, "nodes": [5147940890, 5147940893, 5147940894, 5147940895, 5147940891, 5147940890], "tags": {"building": "yes"}}, {"type": "way", "id": 530035365, "nodes": [5147940896, 5147940906, 5147940908, 5147940909, 5147940907, 5147940897, 5147940898, 5147940899, 5147940900, 5147940901, 5147940902, 5147940903, 5147940904, 5147940905, 5147940896], "tags": {"building": "yes"}}, {"type": "way", "id": 530091793, "nodes": [5148353087, 5148353088, 5148353089, 5148353090, 5148353091, 5148353092, 5148353093, 5148353094, 4911503968, 5148353087], "tags": {"building": "yes"}}, {"type": "way", "id": 532418968, "nodes": [5166450132, 5166450133, 5166450135, 5166450134, 4843954176, 5166450132], "tags": {"building": "yes"}}, {"type": "way", "id": 532418969, "nodes": [5166450135, 5166450136, 5166450137, 5166450134, 5166450135], "tags": {"building": "yes"}}, {"type": "way", "id": 532418970, "nodes": [5166450136, 5166450138, 5166450139, 5166450137, 5166450136], "tags": {"building": "yes"}}, {"type": "way", "id": 533827828, "nodes": [5178441917, 5178441918, 5178441919, 5178441920, 5178441917], "tags": {"building": "yes"}}, {"type": "way", "id": 543420907, "nodes": [5253300462, 5253300463, 5253300464, 5253300465, 5253300466, 5253300467, 5253300462], "tags": {"building": "yes"}}, {"type": "way", "id": 543420908, "nodes": [5253300468, 5253300469, 5253300470, 5253300471, 5253300468], "tags": {"building": "yes"}}, {"type": "way", "id": 543420909, "nodes": [5253300472, 5253300473, 5253300474, 5253300475, 5253300472], "tags": {"building": "yes"}}, {"type": "way", "id": 573754997, "nodes": [5509608188, 5509608183, 5509608187, 5509608186, 5509608185], "tags": {"highway": "service"}}, {"type": "way", "id": 667117609, "nodes": [6246309399, 6246309398, 6246309400, 6246309401, 6246309402, 6246309399], "tags": {"building": "yes"}}, {"type": "way", "id": 667117610, "nodes": [6246309403, 6246309404, 6246309405, 6246309406, 6246309403], "tags": {"building": "yes"}}, {"type": "way", "id": 668137220, "nodes": [1448180592, 1610699213, 1610699452], "tags": {"highway": "residential", "name": "\u015eehitlik Caddesi"}}, {"type": "way", "id": 673130473, "nodes": [6303730639, 6303730640, 6303730641, 6303730642, 6303730639], "tags": {"building": "yes", "building:levels": "1", "name": "Dan\u0131\u015fma Binas\u0131"}}, {"type": "way", "id": 682476120, "nodes": [4654362192, 6391402896, 6391402897, 4637244489, 4637243188, 4654362206, 4654362201, 4654362192], "tags": {"building": "yes"}}, {"type": "way", "id": 684838227, "nodes": [4833649910, 6416707534, 6416707535, 6416707529, 6416707536, 6416707533, 6416707537, 6416707528, 6416707538, 6416707532, 6416707539, 6416707530, 6416707540, 6416707531, 6416707527], "tags": {"highway": "residential"}}, {"type": "way", "id": 684838228, "nodes": [6416707541, 6416707542, 6416707543, 6416707544, 6416707545, 6416707541], "tags": {"building": "yes"}}, {"type": "way", "id": 741053181, "nodes": [4556316306, 6937860736, 6937860737, 6937860738, 4556316305, 4556316306], "tags": {"building": "apartments"}}, {"type": "way", "id": 741053182, "nodes": [4556316305, 4556316303, 6937860739, 6937860738, 4556316305], "tags": {"building": "apartments"}}, {"type": "way", "id": 938233312, "nodes": [4555533243, 4555533244, 1448180650, 5120955044, 1610699493, 1610698806, 1610782914, 1610782976, 3423673135, 1610698608, 1610699453, 3423673160, 1610698770, 3423673161, 1610699412, 3423673165, 3423673166, 1610699592], "tags": {"highway": "secondary", "name": "K\u00f6\u015fkler Caddesi", "source": "bing"}}, {"type": "way", "id": 1318760212, "nodes": [4533478996, 12204790160, 4538663304, 5168719537, 1610699826, 6246309393, 6256636335, 6256636334, 6246309394, 1448180592], "tags": {"highway": "residential", "name": "\u00c7ifteyelde\u011firmeni Sokak"}}, {"type": "way", "id": 1318760215, "nodes": [5168719114, 12204790167, 4533478997, 12438183500, 12438186501, 12204790163, 12204790162], "tags": {"highway": "secondary", "name": "Hastane Caddesi", "oneway": "yes"}}, {"type": "way", "id": 1360457005, "nodes": [12594045979, 12594045980, 12594045981, 12594045982, 12594045979], "tags": {"addr:neighbourhood": "Yukar\u0131 Zaferiye Mahallesi", "building": "apartments", "name": "\u0130ki Mim Apt."}}, {"type": "relation", "id": 7595318, "members": [{"type": "way", "ref": 457351184, "role": "outer"}, {"type": "way", "ref": 526615971, "role": "inner"}], "tags": {"building": "commercial", "building:levels": "3", "type": "multipolygon"}}, {"type": "relation", "id": 9692855, "members": [{"type": "way", "ref": 697011688, "role": "outer"}, {"type": "way", "ref": 697011689, "role": "outer"}, {"type": "way", "ref": 697011690, "role": "outer"}], "tags": {"building": "yes", "building:levels": "2.5", "building:min_level": "2", "type": "multipolygon"}}, {"type": "node", "id": 1448180590, "lat": 40.851078, "lon": 26.6332635}, {"type": "node", "id": 1610698738, "lat": 40.849217, "lon": 26.6331764}, {"type": "node", "id": 1610699826, "lat": 40.8517041, "lon": 26.6327346}, {"type": "node", "id": 2589163469, "lat": 40.8508953, "lon": 26.6338202}, {"type": "node", "id": 4533077296, "lat": 40.8496132, "lon": 26.6328668}, {"type": "node", "id": 4533221570, "lat": 40.8505669, "lon": 26.6335022}, {"type": "node", "id": 4533478996, "lat": 40.8514064, "lon": 26.6320853}, {"type": "node", "id": 4533478997, "lat": 40.8510293, "lon": 26.6333253}, {"type": "node", "id": 4533515444, "lat": 40.850839, "lon": 26.6331128}, {"type": "node", "id": 4533515445, "lat": 40.8509639, "lon": 26.6332084}, {"type": "node", "id": 4533515446, "lat": 40.8509031, "lon": 26.6334224}, {"type": "node", "id": 4533515447, "lat": 40.8507698, "lon": 26.6333496}, {"type": "node", "id": 4533515448, "lat": 40.8509432, "lon": 26.6331608}, {"type": "node", "id": 4533515449, "lat": 40.8507683, "lon": 26.6333613}, {"type": "node", "id": 4533515450, "lat": 40.8509012, "lon": 26.6334344}, {"type": "node", "id": 4533515452, "lat": 40.8508238, "lon": 26.6336686}, {"type": "node", "id": 4533515453, "lat": 40.8507364, "lon": 26.6334773}, {"type": "node", "id": 4536594630, "lat": 40.8517833, "lon": 26.6327527}, {"type": "node", "id": 4536594631, "lat": 40.8517815, "lon": 26.6327731}, {"type": "node", "id": 4538663304, "lat": 40.8514448, "lon": 26.6321717}, {"type": "node", "id": 4547544764, "lat": 40.8495066, "lon": 26.6337686}, {"type": "node", "id": 4592169551, "lat": 40.8514228, "lon": 26.6333532}, {"type": "node", "id": 4592169552, "lat": 40.851362, "lon": 26.6335619}, {"type": "node", "id": 4592169553, "lat": 40.8513253, "lon": 26.6335424}, {"type": "node", "id": 4592169554, "lat": 40.8512676, "lon": 26.6337282}, {"type": "node", "id": 4592169555, "lat": 40.8510272, "lon": 26.6335927}, {"type": "node", "id": 4592169556, "lat": 40.8511185, "lon": 26.6333258}, {"type": "node", "id": 4592169557, "lat": 40.8510311, "lon": 26.6336097}, {"type": "node", "id": 4592169558, "lat": 40.8512244, "lon": 26.6337175}, {"type": "node", "id": 4592169560, "lat": 40.8509757, "lon": 26.6337833}, {"type": "node", "id": 4637243185, "lat": 40.8518507, "lon": 26.6336589}, {"type": "node", "id": 4637243188, "lat": 40.851705, "lon": 26.6337839}, {"type": "node", "id": 4637244489, "lat": 40.8518322, "lon": 26.6336569}, {"type": "node", "id": 4654362189, "lat": 40.8513832, "lon": 26.6335145}, {"type": "node", "id": 4654362190, "lat": 40.8515396, "lon": 26.6333317}, {"type": "node", "id": 4654362191, "lat": 40.8515416, "lon": 26.6336073}, {"type": "node", "id": 4654362192, "lat": 40.8517038, "lon": 26.6333291}, {"type": "node", "id": 4654362197, "lat": 40.8514442, "lon": 26.6333323}, {"type": "node", "id": 4654362198, "lat": 40.8516312, "lon": 26.6336524}, {"type": "node", "id": 4654362201, "lat": 40.8517046, "lon": 26.6336134}, {"type": "node", "id": 4654362202, "lat": 40.8515467, "lon": 26.6336141}, {"type": "node", "id": 4654362203, "lat": 40.8515096, "lon": 26.6336511}, {"type": "node", "id": 4654362205, "lat": 40.8515472, "lon": 26.6333286}, {"type": "node", "id": 4654362206, "lat": 40.8517047, "lon": 26.633653}, {"type": "node", "id": 4654362207, "lat": 40.8514146, "lon": 26.6335861}, {"type": "node", "id": 4654362209, "lat": 40.8516367, "lon": 26.6336527}, {"type": "node", "id": 4843919183, "lat": 40.8513962, "lon": 26.6333325}, {"type": "node", "id": 4851998147, "lat": 40.8514752, "lon": 26.6337273}, {"type": "node", "id": 4851998154, "lat": 40.8512716, "lon": 26.6337389}, {"type": "node", "id": 4851998155, "lat": 40.8513065, "lon": 26.633757}, {"type": "node", "id": 4851998156, "lat": 40.8513471, "lon": 26.6336455}, {"type": "node", "id": 5147731396, "lat": 40.8507545, "lon": 26.6334114}, {"type": "node", "id": 5168719114, "lat": 40.8513405, "lon": 26.6323686}, {"type": "node", "id": 5168719115, "lat": 40.8513805, "lon": 26.6323771}, {"type": "node", "id": 5168719537, "lat": 40.8516524, "lon": 26.6326225}, {"type": "node", "id": 5194199531, "lat": 40.8514236, "lon": 26.6336055}, {"type": "node", "id": 5194199532, "lat": 40.8513812, "lon": 26.6335858}, {"type": "node", "id": 6246309393, "lat": 40.8518711, "lon": 26.6330882}, {"type": "node", "id": 6303730639, "lat": 40.8508257, "lon": 26.6338067}, {"type": "node", "id": 6303730642, "lat": 40.8507792, "lon": 26.633784}, {"type": "node", "id": 6391402896, "lat": 40.8518486, "lon": 26.6333253}, {"type": "node", "id": 6391402897, "lat": 40.85185, "lon": 26.6336376}, {"type": "node", "id": 6553397439, "lat": 40.8504997, "lon": 26.6333857}, {"type": "node", "id": 6553397440, "lat": 40.8503469, "lon": 26.633545}, {"type": "node", "id": 6553397441, "lat": 40.8503035, "lon": 26.633555}, {"type": "node", "id": 6553397443, "lat": 40.8501244, "lon": 26.633457}, {"type": "node", "id": 6553397446, "lat": 40.8504165, "lon": 26.6336626}, {"type": "node", "id": 6553397447, "lat": 40.8504003, "lon": 26.6337227}, {"type": "node", "id": 6553397451, "lat": 40.8502905, "lon": 26.6337379}, {"type": "node", "id": 6553397452, "lat": 40.8502631, "lon": 26.6336871}, {"type": "node", "id": 6553397453, "lat": 40.8500875, "lon": 26.6335929}, {"type": "node", "id": 12204790160, "lat": 40.8514241, "lon": 26.6321278}, {"type": "node", "id": 12204790167, "lat": 40.8511862, "lon": 26.6328516}, {"type": "node", "id": 1448180592, "lat": 40.8519073, "lon": 26.6332657}, {"type": "node", "id": 1448180650, "lat": 40.8533263, "lon": 26.6332595}, {"type": "node", "id": 1448180769, "lat": 40.8544186, "lon": 26.6329935}, {"type": "node", "id": 1448180848, "lat": 40.8551243, "lon": 26.6327812}, {"type": "node", "id": 1448180877, "lat": 40.8553992, "lon": 26.6326853}, {"type": "node", "id": 1448181113, "lat": 40.8582149, "lon": 26.6325219}, {"type": "node", "id": 1610699632, "lat": 40.8563728, "lon": 26.6326314}, {"type": "node", "id": 3411781899, "lat": 40.8572758, "lon": 26.6325715}, {"type": "node", "id": 3423664482, "lat": 40.8564555, "lon": 26.632631}, {"type": "node", "id": 3423664488, "lat": 40.85704, "lon": 26.63259}, {"type": "node", "id": 4533479008, "lat": 40.8523206, "lon": 26.633377}, {"type": "node", "id": 4533479009, "lat": 40.851942, "lon": 26.6333763}, {"type": "node", "id": 4533479010, "lat": 40.8519408, "lon": 26.6336587}, {"type": "node", "id": 4533479011, "lat": 40.8520882, "lon": 26.6336563}, {"type": "node", "id": 4533479012, "lat": 40.8520875, "lon": 26.6335841}, {"type": "node", "id": 4533479013, "lat": 40.8521463, "lon": 26.6335831}, {"type": "node", "id": 4533479014, "lat": 40.852147, "lon": 26.6336548}, {"type": "node", "id": 4533479015, "lat": 40.8523187, "lon": 26.6336548}, {"type": "node", "id": 4535104966, "lat": 40.854161, "lon": 26.6337991}, {"type": "node", "id": 4535104967, "lat": 40.8545805, "lon": 26.6337475}, {"type": "node", "id": 4535104968, "lat": 40.8545843, "lon": 26.6337688}, {"type": "node", "id": 4535104969, "lat": 40.8546542, "lon": 26.6337567}, {"type": "node", "id": 4535104981, "lat": 40.8534132, "lon": 26.6334782}, {"type": "node", "id": 4535104983, "lat": 40.8540483, "lon": 26.6333244}, {"type": "node", "id": 4535104984, "lat": 40.8541311, "lon": 26.633414}, {"type": "node", "id": 4536594626, "lat": 40.8523603, "lon": 26.6327475}, {"type": "node", "id": 4536594627, "lat": 40.8523593, "lon": 26.6332074}, {"type": "node", "id": 4536594628, "lat": 40.8526453, "lon": 26.6332085}, {"type": "node", "id": 4536594629, "lat": 40.8522795, "lon": 26.6327529}, {"type": "node", "id": 4536594632, "lat": 40.8519691, "lon": 26.6332106}, {"type": "node", "id": 4536594633, "lat": 40.8522803, "lon": 26.6332114}, {"type": "node", "id": 4537832734, "lat": 40.8549704, "lon": 26.6328323}, {"type": "node", "id": 4538660762, "lat": 40.8531132, "lon": 26.6333821}, {"type": "node", "id": 4538660763, "lat": 40.8529534, "lon": 26.63338}, {"type": "node", "id": 4538660764, "lat": 40.8529484, "lon": 26.6335686}, {"type": "node", "id": 4538660765, "lat": 40.8531159, "lon": 26.6335731}, {"type": "node", "id": 4555533243, "lat": 40.8532861, "lon": 26.6327472}, {"type": "node", "id": 4555533244, "lat": 40.8533094, "lon": 26.6327983}, {"type": "node", "id": 4555533246, "lat": 40.8535297, "lon": 26.633253}, {"type": "node", "id": 4555533247, "lat": 40.854161, "lon": 26.6331982}, {"type": "node", "id": 4591403120, "lat": 40.8580309, "lon": 26.6325308}, {"type": "node", "id": 4592169366, "lat": 40.8529875, "lon": 26.6335793}, {"type": "node", "id": 4592169367, "lat": 40.8528768, "lon": 26.6335768}, {"type": "node", "id": 4592169368, "lat": 40.8528744, "lon": 26.6337643}, {"type": "node", "id": 4592169369, "lat": 40.8529851, "lon": 26.6337668}, {"type": "node", "id": 4637243169, "lat": 40.8527997, "lon": 26.6333794}, {"type": "node", "id": 4637243170, "lat": 40.8527105, "lon": 26.6333807}, {"type": "node", "id": 4637243171, "lat": 40.8527125, "lon": 26.6336208}, {"type": "node", "id": 4637243172, "lat": 40.8528018, "lon": 26.6336194}, {"type": "node", "id": 4637243173, "lat": 40.8527083, "lon": 26.633384}, {"type": "node", "id": 4637243174, "lat": 40.8527089, "lon": 26.6336035}, {"type": "node", "id": 4637243175, "lat": 40.8526014, "lon": 26.6336027}, {"type": "node", "id": 4637243176, "lat": 40.8526015, "lon": 26.6333863}, {"type": "node", "id": 4637243177, "lat": 40.8527986, "lon": 26.6336221}, {"type": "node", "id": 4637243178, "lat": 40.8527278, "lon": 26.6336235}, {"type": "node", "id": 4637243179, "lat": 40.8527302, "lon": 26.6338094}, {"type": "node", "id": 4637243180, "lat": 40.8528018, "lon": 26.633809}, {"type": "node", "id": 4637243181, "lat": 40.8526088, "lon": 26.6336345}, {"type": "node", "id": 4637243182, "lat": 40.8526073, "lon": 26.6337995}, {"type": "node", "id": 4637243183, "lat": 40.8527232, "lon": 26.6338008}, {"type": "node", "id": 4637243184, "lat": 40.8527232, "lon": 26.6336358}, {"type": "node", "id": 4834829922, "lat": 40.8558708, "lon": 26.6326449}, {"type": "node", "id": 4843954173, "lat": 40.8533104, "lon": 26.6337271}, {"type": "node", "id": 4843954174, "lat": 40.8533105, "lon": 26.6337893}, {"type": "node", "id": 4843954175, "lat": 40.8531449, "lon": 26.6337898}, {"type": "node", "id": 4843954176, "lat": 40.8531447, "lon": 26.6337276}, {"type": "node", "id": 4843954177, "lat": 40.853081, "lon": 26.6336106}, {"type": "node", "id": 4843954178, "lat": 40.8530808, "lon": 26.6337994}, {"type": "node", "id": 4843954179, "lat": 40.8530235, "lon": 26.6337993}, {"type": "node", "id": 4843954180, "lat": 40.8530237, "lon": 26.6336105}, {"type": "node", "id": 4843954181, "lat": 40.8519441, "lon": 26.6336626}, {"type": "node", "id": 4843954182, "lat": 40.8521254, "lon": 26.633661}, {"type": "node", "id": 4843954183, "lat": 40.8521259, "lon": 26.6337544}, {"type": "node", "id": 4843954184, "lat": 40.8519445, "lon": 26.6337561}, {"type": "node", "id": 4843954185, "lat": 40.8521315, "lon": 26.6337594}, {"type": "node", "id": 4843954186, "lat": 40.851938, "lon": 26.6337606}, {"type": "node", "id": 4843954189, "lat": 40.85233, "lon": 26.6336557}, {"type": "node", "id": 4843954190, "lat": 40.8521672, "lon": 26.6336556}, {"type": "node", "id": 4843954191, "lat": 40.8521671, "lon": 26.6337488}, {"type": "node", "id": 4843954192, "lat": 40.8523299, "lon": 26.6337489}, {"type": "node", "id": 4843954193, "lat": 40.85233, "lon": 26.6337515}, {"type": "node", "id": 4843954194, "lat": 40.8521683, "lon": 26.6337518}, {"type": "node", "id": 4846666115, "lat": 40.8525075, "lon": 26.6333781}, {"type": "node", "id": 4846666116, "lat": 40.85236, "lon": 26.6333756}, {"type": "node", "id": 4846666117, "lat": 40.8523576, "lon": 26.6336294}, {"type": "node", "id": 4846666118, "lat": 40.8524548, "lon": 26.633631}, {"type": "node", "id": 4846666119, "lat": 40.8524553, "lon": 26.6335846}, {"type": "node", "id": 4846666120, "lat": 40.8525054, "lon": 26.6335855}, {"type": "node", "id": 5120955040, "lat": 40.8523171, "lon": 26.6332726}, {"type": "node", "id": 5120955041, "lat": 40.8523222, "lon": 26.632725}, {"type": "node", "id": 5120955042, "lat": 40.8523164, "lon": 26.6320857}, {"type": "node", "id": 5120955045, "lat": 40.8523449, "lon": 26.6338301}, {"type": "node", "id": 5120957877, "lat": 40.8540116, "lon": 26.6338123}, {"type": "node", "id": 5132040231, "lat": 40.8523436, "lon": 26.6332722}, {"type": "node", "id": 5154284629, "lat": 40.8539743, "lon": 26.6333309}, {"type": "node", "id": 5154284631, "lat": 40.8534839, "lon": 26.633372}, {"type": "node", "id": 5166450132, "lat": 40.8532928, "lon": 26.6337272}, {"type": "node", "id": 5166450133, "lat": 40.8532913, "lon": 26.6336531}, {"type": "node", "id": 5166450134, "lat": 40.8531459, "lon": 26.6336561}, {"type": "node", "id": 5166450135, "lat": 40.853282, "lon": 26.6336533}, {"type": "node", "id": 5166450136, "lat": 40.8532826, "lon": 26.6335806}, {"type": "node", "id": 5166450137, "lat": 40.8531448, "lon": 26.6335797}, {"type": "node", "id": 5166450138, "lat": 40.8532806, "lon": 26.6335178}, {"type": "node", "id": 5166450139, "lat": 40.8531434, "lon": 26.6335186}, {"type": "node", "id": 5171708774, "lat": 40.8526462, "lon": 26.6327486}, {"type": "node", "id": 5171708775, "lat": 40.8526457, "lon": 26.6329873}, {"type": "node", "id": 5825450435, "lat": 40.8560321, "lon": 26.6326333}, {"type": "node", "id": 6246309394, "lat": 40.8519054, "lon": 26.633213}, {"type": "node", "id": 6256636334, "lat": 40.8518986, "lon": 26.6331682}, {"type": "node", "id": 6256636335, "lat": 40.8518875, "lon": 26.6331274}, {"type": "node", "id": 1448181410, "lat": 40.8605973, "lon": 26.6322409}, {"type": "node", "id": 1448181525, "lat": 40.862116, "lon": 26.6311261}, {"type": "node", "id": 1448181552, "lat": 40.862567, "lon": 26.6306332}, {"type": "node", "id": 1448181563, "lat": 40.8631312, "lon": 26.6299551}, {"type": "node", "id": 1610699578, "lat": 40.8587037, "lon": 26.6324857}, {"type": "node", "id": 1610783634, "lat": 40.8623287, "lon": 26.6309208}, {"type": "node", "id": 3213712093, "lat": 40.8599527, "lon": 26.6323241}, {"type": "node", "id": 3411781912, "lat": 40.8584697, "lon": 26.6325016}, {"type": "node", "id": 4532993245, "lat": 40.8609862, "lon": 26.6319559}, {"type": "node", "id": 4532993251, "lat": 40.8624785, "lon": 26.6307379}, {"type": "node", "id": 4533107588, "lat": 40.8611883, "lon": 26.6318041}, {"type": "node", "id": 4536356253, "lat": 40.8595118, "lon": 26.6323708}, {"type": "node", "id": 4637151780, "lat": 40.8622768, "lon": 26.6309847}, {"type": "node", "id": 4940709269, "lat": 40.8621879, "lon": 26.6310703}, {"type": "node", "id": 6308035962, "lat": 40.8622315, "lon": 26.6310321}, {"type": "node", "id": 6418616245, "lat": 40.8604005, "lon": 26.6322663}, {"type": "node", "id": 6448337580, "lat": 40.8603358, "lon": 26.6322747}, {"type": "node", "id": 1610698630, "lat": 40.8509293, "lon": 26.6360366}, {"type": "node", "id": 1610698773, "lat": 40.8498383, "lon": 26.637251}, {"type": "node", "id": 1610698863, "lat": 40.8516865, "lon": 26.6379533}, {"type": "node", "id": 1610698975, "lat": 40.8512456, "lon": 26.6362426}, {"type": "node", "id": 1610698985, "lat": 40.8486898, "lon": 26.6381102}, {"type": "node", "id": 1610699043, "lat": 40.8512558, "lon": 26.6340244}, {"type": "node", "id": 1610699175, "lat": 40.8504295, "lon": 26.6378494}, {"type": "node", "id": 1610699248, "lat": 40.8503872, "lon": 26.6354199}, {"type": "node", "id": 1610699343, "lat": 40.8515409, "lon": 26.6391118}, {"type": "node", "id": 1610699351, "lat": 40.8487957, "lon": 26.6377004}, {"type": "node", "id": 1610699454, "lat": 40.8499772, "lon": 26.6347732}, {"type": "node", "id": 1610699503, "lat": 40.8510698, "lon": 26.6353588}, {"type": "node", "id": 1610699583, "lat": 40.8516007, "lon": 26.6389244}, {"type": "node", "id": 1610700022, "lat": 40.8518102, "lon": 26.6361237}, {"type": "node", "id": 3423673130, "lat": 40.8511363, "lon": 26.6361334}, {"type": "node", "id": 3423673131, "lat": 40.8511537, "lon": 26.636114}, {"type": "node", "id": 3423673132, "lat": 40.8512589, "lon": 26.6360418}, {"type": "node", "id": 3423673133, "lat": 40.8514499, "lon": 26.6360294}, {"type": "node", "id": 3423673138, "lat": 40.8512836, "lon": 26.6363592}, {"type": "node", "id": 3423673141, "lat": 40.8505552, "lon": 26.6379861}, {"type": "node", "id": 3423673142, "lat": 40.8510221, "lon": 26.6371302}, {"type": "node", "id": 3423673143, "lat": 40.8512464, "lon": 26.6370619}, {"type": "node", "id": 3423673144, "lat": 40.8513637, "lon": 26.6370253}, {"type": "node", "id": 3423673146, "lat": 40.851509, "lon": 26.6372723}, {"type": "node", "id": 3423673148, "lat": 40.8508265, "lon": 26.6383094}, {"type": "node", "id": 3423673149, "lat": 40.8505764, "lon": 26.6388142}, {"type": "node", "id": 3423673152, "lat": 40.8500762, "lon": 26.6399318}, {"type": "node", "id": 3423673154, "lat": 40.8504091, "lon": 26.6402785}, {"type": "node", "id": 3423673155, "lat": 40.850864, "lon": 26.6393839}, {"type": "node", "id": 3423673157, "lat": 40.8516812, "lon": 26.6378841}, {"type": "node", "id": 3423673158, "lat": 40.8514491, "lon": 26.637036}, {"type": "node", "id": 3423673163, "lat": 40.8516492, "lon": 26.6377546}, {"type": "node", "id": 3423673164, "lat": 40.85166, "lon": 26.6382701}, {"type": "node", "id": 3423673167, "lat": 40.8516177, "lon": 26.6387402}, {"type": "node", "id": 3423673168, "lat": 40.8518165, "lon": 26.6394034}, {"type": "node", "id": 3423673171, "lat": 40.8514196, "lon": 26.6389689}, {"type": "node", "id": 4533077297, "lat": 40.8501927, "lon": 26.6341391}, {"type": "node", "id": 4533077298, "lat": 40.8507699, "lon": 26.6342205}, {"type": "node", "id": 4533077300, "lat": 40.8504224, "lon": 26.6341727}, {"type": "node", "id": 4533205081, "lat": 40.8516897, "lon": 26.6341115}, {"type": "node", "id": 4533205082, "lat": 40.8514895, "lon": 26.6339883}, {"type": "node", "id": 4533256412, "lat": 40.8511182, "lon": 26.6386224}, {"type": "node", "id": 4533256413, "lat": 40.8497786, "lon": 26.6396259}, {"type": "node", "id": 4533256414, "lat": 40.850301, "lon": 26.6377159}, {"type": "node", "id": 4533256415, "lat": 40.8495485, "lon": 26.639416}, {"type": "node", "id": 4533378957, "lat": 40.8498604, "lon": 26.6357677}, {"type": "node", "id": 4533378958, "lat": 40.8497171, "lon": 26.6356899}, {"type": "node", "id": 4533378959, "lat": 40.8496608, "lon": 26.635871}, {"type": "node", "id": 4533378960, "lat": 40.8498041, "lon": 26.6359489}, {"type": "node", "id": 4533378961, "lat": 40.8499518, "lon": 26.6356106}, {"type": "node", "id": 4533378962, "lat": 40.8497775, "lon": 26.6355047}, {"type": "node", "id": 4533378963, "lat": 40.8497243, "lon": 26.6356576}, {"type": "node", "id": 4533378964, "lat": 40.8498987, "lon": 26.6357636}, {"type": "node", "id": 4533378965, "lat": 40.8498423, "lon": 26.6353134}, {"type": "node", "id": 4533378966, "lat": 40.849791, "lon": 26.6354588}, {"type": "node", "id": 4533378967, "lat": 40.8499605, "lon": 26.6355633}, {"type": "node", "id": 4533378968, "lat": 40.8500118, "lon": 26.6354178}, {"type": "node", "id": 4533379099, "lat": 40.8500364, "lon": 26.6354534}, {"type": "node", "id": 4533379100, "lat": 40.8499878, "lon": 26.6356095}, {"type": "node", "id": 4533379101, "lat": 40.8502015, "lon": 26.6357259}, {"type": "node", "id": 4533379102, "lat": 40.8502502, "lon": 26.6355697}, {"type": "node", "id": 4533379103, "lat": 40.8501918, "lon": 26.6357563}, {"type": "node", "id": 4533379104, "lat": 40.8501417, "lon": 26.6359246}, {"type": "node", "id": 4533379105, "lat": 40.8499326, "lon": 26.6358158}, {"type": "node", "id": 4533379106, "lat": 40.8499827, "lon": 26.6356475}, {"type": "node", "id": 4533379107, "lat": 40.8501231, "lon": 26.6359666}, {"type": "node", "id": 4533379108, "lat": 40.8500732, "lon": 26.6361308}, {"type": "node", "id": 4533379109, "lat": 40.8498857, "lon": 26.6360312}, {"type": "node", "id": 4533379110, "lat": 40.8499356, "lon": 26.635867}, {"type": "node", "id": 4533379111, "lat": 40.8500593, "lon": 26.6361698}, {"type": "node", "id": 4533379112, "lat": 40.8500094, "lon": 26.6363306}, {"type": "node", "id": 4533379113, "lat": 40.8497932, "lon": 26.6362134}, {"type": "node", "id": 4533379114, "lat": 40.8498431, "lon": 26.6360525}, {"type": "node", "id": 4533379115, "lat": 40.8500069, "lon": 26.6363529}, {"type": "node", "id": 4533379116, "lat": 40.849956, "lon": 26.636516}, {"type": "node", "id": 4533379117, "lat": 40.8497585, "lon": 26.6364084}, {"type": "node", "id": 4533379118, "lat": 40.8498093, "lon": 26.6362453}, {"type": "node", "id": 4533379119, "lat": 40.8499433, "lon": 26.636553}, {"type": "node", "id": 4533379120, "lat": 40.8498898, "lon": 26.636724}, {"type": "node", "id": 4533379121, "lat": 40.8496673, "lon": 26.6366022}, {"type": "node", "id": 4533379122, "lat": 40.8497208, "lon": 26.6364312}, {"type": "node", "id": 4533379123, "lat": 40.8497554, "lon": 26.6362154}, {"type": "node", "id": 4533379124, "lat": 40.849575, "lon": 26.6361145}, {"type": "node", "id": 4533379125, "lat": 40.8494612, "lon": 26.6364703}, {"type": "node", "id": 4533379126, "lat": 40.8496417, "lon": 26.6365712}, {"type": "node", "id": 4533379127, "lat": 40.8498083, "lon": 26.6360206}, {"type": "node", "id": 4533379128, "lat": 40.8496484, "lon": 26.635925}, {"type": "node", "id": 4533379129, "lat": 40.8495984, "lon": 26.6360711}, {"type": "node", "id": 4533379130, "lat": 40.8497583, "lon": 26.6361667}, {"type": "node", "id": 4533397877, "lat": 40.8504181, "lon": 26.6356713}, {"type": "node", "id": 4533397878, "lat": 40.8503704, "lon": 26.6358263}, {"type": "node", "id": 4533397879, "lat": 40.8506031, "lon": 26.6359515}, {"type": "node", "id": 4533397880, "lat": 40.8506508, "lon": 26.6357964}, {"type": "node", "id": 4533397881, "lat": 40.8503439, "lon": 26.635852}, {"type": "node", "id": 4533397882, "lat": 40.8503025, "lon": 26.6359864}, {"type": "node", "id": 4533397883, "lat": 40.8505393, "lon": 26.6361141}, {"type": "node", "id": 4533397884, "lat": 40.8505807, "lon": 26.6359796}, {"type": "node", "id": 4533397885, "lat": 40.8502808, "lon": 26.6360221}, {"type": "node", "id": 4533397886, "lat": 40.850232, "lon": 26.6361796}, {"type": "node", "id": 4533397887, "lat": 40.8504862, "lon": 26.6363173}, {"type": "node", "id": 4533397888, "lat": 40.8505351, "lon": 26.6361598}, {"type": "node", "id": 4533397889, "lat": 40.850216, "lon": 26.6362109}, {"type": "node", "id": 4533397890, "lat": 40.8501658, "lon": 26.6363722}, {"type": "node", "id": 4533397891, "lat": 40.8504249, "lon": 26.6365133}, {"type": "node", "id": 4533397892, "lat": 40.8504751, "lon": 26.6363519}, {"type": "node", "id": 4533397893, "lat": 40.8501637, "lon": 26.6364072}, {"type": "node", "id": 4533397894, "lat": 40.850107, "lon": 26.6365769}, {"type": "node", "id": 4533397895, "lat": 40.8503595, "lon": 26.6367241}, {"type": "node", "id": 4533397896, "lat": 40.8504162, "lon": 26.6365544}, {"type": "node", "id": 4533397897, "lat": 40.8501087, "lon": 26.6366124}, {"type": "node", "id": 4533397898, "lat": 40.8500491, "lon": 26.6367989}, {"type": "node", "id": 4533397899, "lat": 40.8502385, "lon": 26.6369048}, {"type": "node", "id": 4533397900, "lat": 40.8502982, "lon": 26.6367183}, {"type": "node", "id": 4533397901, "lat": 40.8500294, "lon": 26.6368156}, {"type": "node", "id": 4533397902, "lat": 40.849982, "lon": 26.6369723}, {"type": "node", "id": 4533397903, "lat": 40.8502479, "lon": 26.637113}, {"type": "node", "id": 4533397904, "lat": 40.8502953, "lon": 26.6369563}, {"type": "node", "id": 4533397905, "lat": 40.8506341, "lon": 26.635991}, {"type": "node", "id": 4533397906, "lat": 40.8505855, "lon": 26.6361471}, {"type": "node", "id": 4533397907, "lat": 40.8507992, "lon": 26.6362635}, {"type": "node", "id": 4533397908, "lat": 40.8508478, "lon": 26.6361073}, {"type": "node", "id": 4533397909, "lat": 40.8505752, "lon": 26.6361864}, {"type": "node", "id": 4533397910, "lat": 40.8505213, "lon": 26.63636}, {"type": "node", "id": 4533397911, "lat": 40.8507329, "lon": 26.6364747}, {"type": "node", "id": 4533397912, "lat": 40.8507867, "lon": 26.6363011}, {"type": "node", "id": 4533397913, "lat": 40.8505126, "lon": 26.6363816}, {"type": "node", "id": 4533397914, "lat": 40.850458, "lon": 26.6365639}, {"type": "node", "id": 4533397915, "lat": 40.8506741, "lon": 26.636677}, {"type": "node", "id": 4533397916, "lat": 40.8507287, "lon": 26.6364947}, {"type": "node", "id": 4533397917, "lat": 40.8504554, "lon": 26.6365803}, {"type": "node", "id": 4533397918, "lat": 40.8503994, "lon": 26.6367616}, {"type": "node", "id": 4533397919, "lat": 40.8506144, "lon": 26.6368776}, {"type": "node", "id": 4533397920, "lat": 40.8506704, "lon": 26.6366963}, {"type": "node", "id": 4533397921, "lat": 40.8504296, "lon": 26.6368088}, {"type": "node", "id": 4533397922, "lat": 40.8503822, "lon": 26.6369653}, {"type": "node", "id": 4533397923, "lat": 40.8505586, "lon": 26.6370587}, {"type": "node", "id": 4533397924, "lat": 40.850606, "lon": 26.6369022}, {"type": "node", "id": 4533397925, "lat": 40.8503495, "lon": 26.6370164}, {"type": "node", "id": 4533397926, "lat": 40.8503017, "lon": 26.6371658}, {"type": "node", "id": 4533397927, "lat": 40.8505034, "lon": 26.6372787}, {"type": "node", "id": 4533397928, "lat": 40.850559, "lon": 26.6371051}, {"type": "node", "id": 4533397929, "lat": 40.8504382, "lon": 26.637066}, {"type": "node", "id": 4533397930, "lat": 40.850446, "lon": 26.6370419}, {"type": "node", "id": 4533397931, "lat": 40.8502802, "lon": 26.6371919}, {"type": "node", "id": 4533397932, "lat": 40.8501945, "lon": 26.6374659}, {"type": "node", "id": 4533397933, "lat": 40.8503852, "lon": 26.637671}, {"type": "node", "id": 4533397934, "lat": 40.850494, "lon": 26.6373082}, {"type": "node", "id": 4533397935, "lat": 40.8499943, "lon": 26.6370205}, {"type": "node", "id": 4533397936, "lat": 40.8499428, "lon": 26.6371789}, {"type": "node", "id": 4533397937, "lat": 40.8501046, "lon": 26.6372707}, {"type": "node", "id": 4533397938, "lat": 40.850156, "lon": 26.6371123}, {"type": "node", "id": 4533397951, "lat": 40.8503635, "lon": 26.6345357}, {"type": "node", "id": 4533397952, "lat": 40.8502709, "lon": 26.6348248}, {"type": "node", "id": 4533397953, "lat": 40.8504131, "lon": 26.6349044}, {"type": "node", "id": 4533397954, "lat": 40.8505057, "lon": 26.6346152}, {"type": "node", "id": 4533397955, "lat": 40.8518067, "lon": 26.6375481}, {"type": "node", "id": 4533397956, "lat": 40.8517653, "lon": 26.6377261}, {"type": "node", "id": 4533397968, "lat": 40.8518638, "lon": 26.6380922}, {"type": "node", "id": 4533487599, "lat": 40.8502415, "lon": 26.6346867}, {"type": "node", "id": 4533487600, "lat": 40.850205, "lon": 26.6348011}, {"type": "node", "id": 4533487601, "lat": 40.8501137, "lon": 26.6347503}, {"type": "node", "id": 4533487602, "lat": 40.8501502, "lon": 26.6346358}, {"type": "node", "id": 4533505169, "lat": 40.8505961, "lon": 26.6351049}, {"type": "node", "id": 4533505170, "lat": 40.850535, "lon": 26.6353222}, {"type": "node", "id": 4533505171, "lat": 40.8507951, "lon": 26.6353202}, {"type": "node", "id": 4533505172, "lat": 40.8508199, "lon": 26.6352283}, {"type": "node", "id": 4533505173, "lat": 40.8506547, "lon": 26.6349145}, {"type": "node", "id": 4533505174, "lat": 40.8506065, "lon": 26.6350766}, {"type": "node", "id": 4533505175, "lat": 40.8507954, "lon": 26.6351747}, {"type": "node", "id": 4533505176, "lat": 40.8508436, "lon": 26.6350126}, {"type": "node", "id": 4533505177, "lat": 40.8506716, "lon": 26.6349062}, {"type": "node", "id": 4533505178, "lat": 40.8507173, "lon": 26.6347374}, {"type": "node", "id": 4533505179, "lat": 40.8509801, "lon": 26.6348781}, {"type": "node", "id": 4533505180, "lat": 40.8509123, "lon": 26.6350094}, {"type": "node", "id": 4533505185, "lat": 40.8508514, "lon": 26.6342995}, {"type": "node", "id": 4533505186, "lat": 40.8507912, "lon": 26.6344655}, {"type": "node", "id": 4533505187, "lat": 40.8510173, "lon": 26.6345763}, {"type": "node", "id": 4533505188, "lat": 40.8510695, "lon": 26.6344139}, {"type": "node", "id": 4533505689, "lat": 40.8509005, "lon": 26.6341186}, {"type": "node", "id": 4533505690, "lat": 40.8508483, "lon": 26.634291}, {"type": "node", "id": 4533505691, "lat": 40.8510583, "lon": 26.6344022}, {"type": "node", "id": 4533505692, "lat": 40.8511105, "lon": 26.6342297}, {"type": "node", "id": 4533505693, "lat": 40.8510834, "lon": 26.633991}, {"type": "node", "id": 4533505694, "lat": 40.8510316, "lon": 26.6341575}, {"type": "node", "id": 4533505695, "lat": 40.8509065, "lon": 26.6340894}, {"type": "node", "id": 4533505696, "lat": 40.8509584, "lon": 26.6339229}, {"type": "node", "id": 4533505697, "lat": 40.8511785, "lon": 26.6340474}, {"type": "node", "id": 4533505698, "lat": 40.8511237, "lon": 26.6342149}, {"type": "node", "id": 4533505699, "lat": 40.8514044, "lon": 26.6354329}, {"type": "node", "id": 4533505700, "lat": 40.8514156, "lon": 26.6357458}, {"type": "node", "id": 4533505701, "lat": 40.8510859, "lon": 26.6357433}, {"type": "node", "id": 4533505702, "lat": 40.8510848, "lon": 26.6357091}, {"type": "node", "id": 4533505703, "lat": 40.851158, "lon": 26.6354528}, {"type": "node", "id": 4533505704, "lat": 40.8512418, "lon": 26.6358136}, {"type": "node", "id": 4533505705, "lat": 40.8510686, "lon": 26.6358085}, {"type": "node", "id": 4533505706, "lat": 40.8510292, "lon": 26.6359549}, {"type": "node", "id": 4533505707, "lat": 40.8510849, "lon": 26.6360014}, {"type": "node", "id": 4533505708, "lat": 40.8512378, "lon": 26.6359069}, {"type": "node", "id": 4533505709, "lat": 40.8510618, "lon": 26.6364755}, {"type": "node", "id": 4533505710, "lat": 40.8510063, "lon": 26.636662}, {"type": "node", "id": 4533505711, "lat": 40.8508341, "lon": 26.6365747}, {"type": "node", "id": 4533505712, "lat": 40.8508883, "lon": 26.6363876}, {"type": "node", "id": 4533505713, "lat": 40.8508329, "lon": 26.6366007}, {"type": "node", "id": 4533505714, "lat": 40.8507876, "lon": 26.6367596}, {"type": "node", "id": 4533505715, "lat": 40.8510097, "lon": 26.6368701}, {"type": "node", "id": 4533505716, "lat": 40.8510253, "lon": 26.6368156}, {"type": "node", "id": 4533505717, "lat": 40.8510141, "lon": 26.63681}, {"type": "node", "id": 4533505718, "lat": 40.8510193, "lon": 26.6367918}, {"type": "node", "id": 4533505719, "lat": 40.8509987, "lon": 26.6367815}, {"type": "node", "id": 4533505720, "lat": 40.8510122, "lon": 26.6367339}, {"type": "node", "id": 4533505721, "lat": 40.8509988, "lon": 26.6367272}, {"type": "node", "id": 4533505722, "lat": 40.8510097, "lon": 26.6366887}, {"type": "node", "id": 4533505723, "lat": 40.8507792, "lon": 26.6367979}, {"type": "node", "id": 4533505724, "lat": 40.8507359, "lon": 26.6369521}, {"type": "node", "id": 4533505725, "lat": 40.8509785, "lon": 26.6370712}, {"type": "node", "id": 4533505726, "lat": 40.8510218, "lon": 26.636917}, {"type": "node", "id": 4533505727, "lat": 40.85074, "lon": 26.6370037}, {"type": "node", "id": 4533505728, "lat": 40.8509712, "lon": 26.6371219}, {"type": "node", "id": 4533505729, "lat": 40.85089, "lon": 26.6372807}, {"type": "node", "id": 4533505730, "lat": 40.850689, "lon": 26.637178}, {"type": "node", "id": 4533505731, "lat": 40.8506702, "lon": 26.6372069}, {"type": "node", "id": 4533505732, "lat": 40.8506054, "lon": 26.6374256}, {"type": "node", "id": 4533505733, "lat": 40.8507619, "lon": 26.6375116}, {"type": "node", "id": 4533505734, "lat": 40.8508692, "lon": 26.6373098}, {"type": "node", "id": 4533505735, "lat": 40.8506002, "lon": 26.6374686}, {"type": "node", "id": 4533505736, "lat": 40.8504838, "lon": 26.637849}, {"type": "node", "id": 4533505737, "lat": 40.8505509, "lon": 26.6378799}, {"type": "node", "id": 4533505738, "lat": 40.8507461, "lon": 26.6375438}, {"type": "node", "id": 4533505739, "lat": 40.8508923, "lon": 26.6380811}, {"type": "node", "id": 4533505740, "lat": 40.8508154, "lon": 26.6382107}, {"type": "node", "id": 4533505741, "lat": 40.8507056, "lon": 26.6380969}, {"type": "node", "id": 4533505742, "lat": 40.8507825, "lon": 26.6379673}, {"type": "node", "id": 4533505743, "lat": 40.8509432, "lon": 26.6381846}, {"type": "node", "id": 4533505744, "lat": 40.850862, "lon": 26.6383151}, {"type": "node", "id": 4533505745, "lat": 40.8509808, "lon": 26.6384444}, {"type": "node", "id": 4533505746, "lat": 40.851062, "lon": 26.6383139}, {"type": "node", "id": 4533505747, "lat": 40.851363, "lon": 26.6383475}, {"type": "node", "id": 4533505748, "lat": 40.8513036, "lon": 26.6384315}, {"type": "node", "id": 4533505749, "lat": 40.8514008, "lon": 26.6385488}, {"type": "node", "id": 4533505750, "lat": 40.8514612, "lon": 26.6384648}, {"type": "node", "id": 4533505755, "lat": 40.851845, "lon": 26.6381291}, {"type": "node", "id": 4533505756, "lat": 40.8518124, "lon": 26.638301}, {"type": "node", "id": 4533510718, "lat": 40.8508206, "lon": 26.6375552}, {"type": "node", "id": 4533510719, "lat": 40.8507675, "lon": 26.6376491}, {"type": "node", "id": 4533510720, "lat": 40.8508789, "lon": 26.6377593}, {"type": "node", "id": 4533510721, "lat": 40.850932, "lon": 26.6376654}, {"type": "node", "id": 4534688978, "lat": 40.8507147, "lon": 26.6354752}, {"type": "node", "id": 4534688979, "lat": 40.8507166, "lon": 26.6357524}, {"type": "node", "id": 4534688980, "lat": 40.8509557, "lon": 26.6357496}, {"type": "node", "id": 4534688981, "lat": 40.8510012, "lon": 26.6355135}, {"type": "node", "id": 4534688982, "lat": 40.8509122, "lon": 26.6358283}, {"type": "node", "id": 4534688984, "lat": 40.8508617, "lon": 26.6359852}, {"type": "node", "id": 4534688987, "lat": 40.8507355, "lon": 26.6358017}, {"type": "node", "id": 4534688988, "lat": 40.8509035, "lon": 26.6358084}, {"type": "node", "id": 4534689089, "lat": 40.8506657, "lon": 26.6358392}, {"type": "node", "id": 4534689090, "lat": 40.8506337, "lon": 26.6359409}, {"type": "node", "id": 4534689091, "lat": 40.8507574, "lon": 26.6360095}, {"type": "node", "id": 4534689092, "lat": 40.8507774, "lon": 26.635943}, {"type": "node", "id": 4534689093, "lat": 40.8506832, "lon": 26.635472}, {"type": "node", "id": 4534689094, "lat": 40.850687, "lon": 26.6357034}, {"type": "node", "id": 4534689095, "lat": 40.8506027, "lon": 26.6357065}, {"type": "node", "id": 4534689096, "lat": 40.8505974, "lon": 26.6354751}, {"type": "node", "id": 4534689097, "lat": 40.8505644, "lon": 26.6355097}, {"type": "node", "id": 4534689098, "lat": 40.8504634, "lon": 26.6354925}, {"type": "node", "id": 4534689099, "lat": 40.850425, "lon": 26.6356292}, {"type": "node", "id": 4534689100, "lat": 40.8505221, "lon": 26.6356824}, {"type": "node", "id": 4534689101, "lat": 40.8506739, "lon": 26.6378616}, {"type": "node", "id": 4534689102, "lat": 40.8507591, "lon": 26.6379566}, {"type": "node", "id": 4534689103, "lat": 40.8506911, "lon": 26.6380694}, {"type": "node", "id": 4534689104, "lat": 40.8506008, "lon": 26.6379733}, {"type": "node", "id": 4534689105, "lat": 40.8509788, "lon": 26.6379432}, {"type": "node", "id": 4534689106, "lat": 40.8509224, "lon": 26.6380348}, {"type": "node", "id": 4534689107, "lat": 40.8508583, "lon": 26.6379657}, {"type": "node", "id": 4534689108, "lat": 40.8509148, "lon": 26.6378742}, {"type": "node", "id": 4534757026, "lat": 40.8511612, "lon": 26.6363514}, {"type": "node", "id": 4534757027, "lat": 40.8512212, "lon": 26.6365775}, {"type": "node", "id": 4534757028, "lat": 40.8510699, "lon": 26.6366525}, {"type": "node", "id": 4534757029, "lat": 40.8510616, "lon": 26.6366286}, {"type": "node", "id": 4534757030, "lat": 40.8512407, "lon": 26.636633}, {"type": "node", "id": 4534757031, "lat": 40.8512801, "lon": 26.6367706}, {"type": "node", "id": 4534757032, "lat": 40.8510865, "lon": 26.6368675}, {"type": "node", "id": 4534757033, "lat": 40.8510471, "lon": 26.6367298}, {"type": "node", "id": 4535123282, "lat": 40.8517927, "lon": 26.6358845}, {"type": "node", "id": 4535123283, "lat": 40.8517723, "lon": 26.6360412}, {"type": "node", "id": 4535123284, "lat": 40.8515655, "lon": 26.6359942}, {"type": "node", "id": 4535123285, "lat": 40.8515859, "lon": 26.6358376}, {"type": "node", "id": 4536594662, "lat": 40.8498781, "lon": 26.6367944}, {"type": "node", "id": 4536594663, "lat": 40.8497938, "lon": 26.6370584}, {"type": "node", "id": 4536594665, "lat": 40.8497605, "lon": 26.6370427}, {"type": "node", "id": 4536594667, "lat": 40.8496662, "lon": 26.6369619}, {"type": "node", "id": 4536594668, "lat": 40.8496728, "lon": 26.6369199}, {"type": "node", "id": 4536594669, "lat": 40.8496058, "lon": 26.6368825}, {"type": "node", "id": 4536594670, "lat": 40.8496484, "lon": 26.636732}, {"type": "node", "id": 4536594671, "lat": 40.8497642, "lon": 26.6368684}, {"type": "node", "id": 4536594672, "lat": 40.8497964, "lon": 26.6367551}, {"type": "node", "id": 4538660779, "lat": 40.851384, "lon": 26.6360216}, {"type": "node", "id": 4538660780, "lat": 40.8512956, "lon": 26.6360313}, {"type": "node", "id": 4538660781, "lat": 40.8512009, "lon": 26.6360705}, {"type": "node", "id": 4540192399, "lat": 40.8498631, "lon": 26.6345295}, {"type": "node", "id": 4547509671, "lat": 40.8509624, "lon": 26.6352955}, {"type": "node", "id": 4547509672, "lat": 40.8508437, "lon": 26.6352966}, {"type": "node", "id": 4547509673, "lat": 40.8508434, "lon": 26.635236}, {"type": "node", "id": 4547509674, "lat": 40.8509078, "lon": 26.6350368}, {"type": "node", "id": 4547509675, "lat": 40.8513455, "lon": 26.6373586}, {"type": "node", "id": 4547509676, "lat": 40.8512731, "lon": 26.6374719}, {"type": "node", "id": 4547509677, "lat": 40.8511889, "lon": 26.6373779}, {"type": "node", "id": 4547509678, "lat": 40.8512613, "lon": 26.6372646}, {"type": "node", "id": 4556316301, "lat": 40.850093, "lon": 26.6351216}, {"type": "node", "id": 4556316302, "lat": 40.8500123, "lon": 26.6353726}, {"type": "node", "id": 4556316303, "lat": 40.8499389, "lon": 26.6353274}, {"type": "node", "id": 4556316305, "lat": 40.8499768, "lon": 26.6351774}, {"type": "node", "id": 4556316306, "lat": 40.8500463, "lon": 26.6350584}, {"type": "node", "id": 4558966556, "lat": 40.8518244, "lon": 26.6386116}, {"type": "node", "id": 4558966557, "lat": 40.8517854, "lon": 26.6387712}, {"type": "node", "id": 4558966558, "lat": 40.8516629, "lon": 26.6387188}, {"type": "node", "id": 4558966559, "lat": 40.8517019, "lon": 26.6385593}, {"type": "node", "id": 4558966562, "lat": 40.8518089, "lon": 26.6387773}, {"type": "node", "id": 4558966563, "lat": 40.8518403, "lon": 26.6386429}, {"type": "node", "id": 4558966564, "lat": 40.8518765, "lon": 26.6390702}, {"type": "node", "id": 4558966568, "lat": 40.8518059, "lon": 26.636593}, {"type": "node", "id": 4558966569, "lat": 40.8517125, "lon": 26.636567}, {"type": "node", "id": 4558966570, "lat": 40.8516748, "lon": 26.636804}, {"type": "node", "id": 4558966571, "lat": 40.8517682, "lon": 26.63683}, {"type": "node", "id": 4558966572, "lat": 40.8515519, "lon": 26.6358149}, {"type": "node", "id": 4558966573, "lat": 40.8515337, "lon": 26.6359948}, {"type": "node", "id": 4558966574, "lat": 40.851426, "lon": 26.6359757}, {"type": "node", "id": 4558966575, "lat": 40.8514443, "lon": 26.6357959}, {"type": "node", "id": 4558966576, "lat": 40.85135, "lon": 26.6349555}, {"type": "node", "id": 4558966577, "lat": 40.8511302, "lon": 26.6349615}, {"type": "node", "id": 4558966578, "lat": 40.8511278, "lon": 26.6348145}, {"type": "node", "id": 4558966579, "lat": 40.8513247, "lon": 26.6348081}, {"type": "node", "id": 4558966580, "lat": 40.8513256, "lon": 26.6348671}, {"type": "node", "id": 4558966581, "lat": 40.8513486, "lon": 26.6348664}, {"type": "node", "id": 4558966582, "lat": 40.8513746, "lon": 26.6351125}, {"type": "node", "id": 4558966583, "lat": 40.8512923, "lon": 26.6351212}, {"type": "node", "id": 4558966584, "lat": 40.8512992, "lon": 26.6352355}, {"type": "node", "id": 4558966585, "lat": 40.8513815, "lon": 26.6352268}, {"type": "node", "id": 4558966586, "lat": 40.8515595, "lon": 26.6342423}, {"type": "node", "id": 4558966587, "lat": 40.8514305, "lon": 26.6341625}, {"type": "node", "id": 4558966588, "lat": 40.851434, "lon": 26.6344397}, {"type": "node", "id": 4558966789, "lat": 40.8515808, "lon": 26.6344355}, {"type": "node", "id": 4582156818, "lat": 40.8499599, "lon": 26.6392686}, {"type": "node", "id": 4582156819, "lat": 40.8501237, "lon": 26.6398138}, {"type": "node", "id": 4582156825, "lat": 40.8485911, "lon": 26.6385887}, {"type": "node", "id": 4582855131, "lat": 40.8493265, "lon": 26.6367208}, {"type": "node", "id": 4582855134, "lat": 40.849366, "lon": 26.6365903}, {"type": "node", "id": 4582920384, "lat": 40.8487722, "lon": 26.6356124}, {"type": "node", "id": 4589999549, "lat": 40.8514858, "lon": 26.6377506}, {"type": "node", "id": 4589999550, "lat": 40.8514422, "lon": 26.6378818}, {"type": "node", "id": 4589999551, "lat": 40.851532, "lon": 26.6379339}, {"type": "node", "id": 4589999552, "lat": 40.8515755, "lon": 26.6378027}, {"type": "node", "id": 4589999561, "lat": 40.8513875, "lon": 26.6386127}, {"type": "node", "id": 4589999562, "lat": 40.8513285, "lon": 26.638708}, {"type": "node", "id": 4589999563, "lat": 40.8514023, "lon": 26.6387878}, {"type": "node", "id": 4589999564, "lat": 40.8514613, "lon": 26.6386924}, {"type": "node", "id": 4589999565, "lat": 40.8513569, "lon": 26.6385535}, {"type": "node", "id": 4589999566, "lat": 40.8512807, "lon": 26.6384671}, {"type": "node", "id": 4589999567, "lat": 40.8512126, "lon": 26.638572}, {"type": "node", "id": 4589999568, "lat": 40.8512888, "lon": 26.6386584}, {"type": "node", "id": 4589999569, "lat": 40.8515242, "lon": 26.6384259}, {"type": "node", "id": 4589999570, "lat": 40.8514267, "lon": 26.6385477}, {"type": "node", "id": 4589999571, "lat": 40.8515158, "lon": 26.6386606}, {"type": "node", "id": 4589999572, "lat": 40.8515471, "lon": 26.6386174}, {"type": "node", "id": 4589999573, "lat": 40.8515247, "lon": 26.6385891}, {"type": "node", "id": 4589999574, "lat": 40.8515421, "lon": 26.638565}, {"type": "node", "id": 4589999575, "lat": 40.8515285, "lon": 26.6385477}, {"type": "node", "id": 4589999576, "lat": 40.8515468, "lon": 26.6385224}, {"type": "node", "id": 4589999577, "lat": 40.8515302, "lon": 26.6385013}, {"type": "node", "id": 4589999580, "lat": 40.851555, "lon": 26.638467}, {"type": "node", "id": 4589999581, "lat": 40.851269, "lon": 26.6380373}, {"type": "node", "id": 4589999582, "lat": 40.8512006, "lon": 26.6381442}, {"type": "node", "id": 4589999583, "lat": 40.8512943, "lon": 26.6382491}, {"type": "node", "id": 4589999584, "lat": 40.8513628, "lon": 26.6381423}, {"type": "node", "id": 4589999585, "lat": 40.851147, "lon": 26.6379138}, {"type": "node", "id": 4589999586, "lat": 40.8510887, "lon": 26.6380094}, {"type": "node", "id": 4589999587, "lat": 40.8511737, "lon": 26.6381001}, {"type": "node", "id": 4589999588, "lat": 40.851232, "lon": 26.6380046}, {"type": "node", "id": 4591856449, "lat": 40.851807, "lon": 26.6384052}, {"type": "node", "id": 4591856450, "lat": 40.8517697, "lon": 26.6385677}, {"type": "node", "id": 4591856451, "lat": 40.851864, "lon": 26.6386027}, {"type": "node", "id": 4591856456, "lat": 40.8517925, "lon": 26.6384053}, {"type": "node", "id": 4591856457, "lat": 40.8516971, "lon": 26.6383789}, {"type": "node", "id": 4591856458, "lat": 40.8516805, "lon": 26.6385435}, {"type": "node", "id": 4591856459, "lat": 40.8517575, "lon": 26.6385656}, {"type": "node", "id": 4591871092, "lat": 40.8518251, "lon": 26.6380806}, {"type": "node", "id": 4591871093, "lat": 40.8517398, "lon": 26.6380648}, {"type": "node", "id": 4591871094, "lat": 40.8517222, "lon": 26.6382309}, {"type": "node", "id": 4591871095, "lat": 40.8518075, "lon": 26.6382467}, {"type": "node", "id": 4591871096, "lat": 40.8518452, "lon": 26.6379199}, {"type": "node", "id": 4591871097, "lat": 40.8518212, "lon": 26.6380571}, {"type": "node", "id": 4591871098, "lat": 40.8517273, "lon": 26.6380284}, {"type": "node", "id": 4591871099, "lat": 40.8517513, "lon": 26.6378912}, {"type": "node", "id": 4592169354, "lat": 40.8518323, "lon": 26.6366055}, {"type": "node", "id": 4592169355, "lat": 40.8517939, "lon": 26.6368369}, {"type": "node", "id": 4592169559, "lat": 40.851169, "lon": 26.6338911}, {"type": "node", "id": 4608996646, "lat": 40.850272, "lon": 26.6378945}, {"type": "node", "id": 4608996647, "lat": 40.8501162, "lon": 26.6382069}, {"type": "node", "id": 4608996648, "lat": 40.850216, "lon": 26.6382939}, {"type": "node", "id": 4608996649, "lat": 40.8503718, "lon": 26.6379815}, {"type": "node", "id": 4637243186, "lat": 40.8518514, "lon": 26.6339299}, {"type": "node", "id": 4637276867, "lat": 40.8513814, "lon": 26.6339739}, {"type": "node", "id": 4637276868, "lat": 40.8516207, "lon": 26.6340605}, {"type": "node", "id": 4637276874, "lat": 40.8512731, "lon": 26.6363126}, {"type": "node", "id": 4637276875, "lat": 40.8512063, "lon": 26.6361895}, {"type": "node", "id": 4637276876, "lat": 40.8517322, "lon": 26.636243}, {"type": "node", "id": 4637276877, "lat": 40.8517057, "lon": 26.6364241}, {"type": "node", "id": 4637276878, "lat": 40.851792, "lon": 26.6364461}, {"type": "node", "id": 4637276879, "lat": 40.8518088, "lon": 26.6362445}, {"type": "node", "id": 4637276880, "lat": 40.8515969, "lon": 26.6361845}, {"type": "node", "id": 4637276881, "lat": 40.8515719, "lon": 26.6363696}, {"type": "node", "id": 4637276882, "lat": 40.8516607, "lon": 26.6363906}, {"type": "node", "id": 4637276883, "lat": 40.8516857, "lon": 26.6362055}, {"type": "node", "id": 4637276884, "lat": 40.8515641, "lon": 26.6361613}, {"type": "node", "id": 4637276885, "lat": 40.8515373, "lon": 26.636371}, {"type": "node", "id": 4637276886, "lat": 40.8514456, "lon": 26.6363505}, {"type": "node", "id": 4637276887, "lat": 40.8514724, "lon": 26.6361408}, {"type": "node", "id": 4637276888, "lat": 40.8514088, "lon": 26.6361347}, {"type": "node", "id": 4637277789, "lat": 40.8513844, "lon": 26.6363228}, {"type": "node", "id": 4637277790, "lat": 40.8512928, "lon": 26.636302}, {"type": "node", "id": 4637277791, "lat": 40.8513172, "lon": 26.6361139}, {"type": "node", "id": 4637277792, "lat": 40.8513958, "lon": 26.635792}, {"type": "node", "id": 4637277793, "lat": 40.8513879, "lon": 26.6359551}, {"type": "node", "id": 4637277794, "lat": 40.8512985, "lon": 26.6359475}, {"type": "node", "id": 4637277795, "lat": 40.8513064, "lon": 26.6357845}, {"type": "node", "id": 4638516745, "lat": 40.850034, "lon": 26.6378854}, {"type": "node", "id": 4638516759, "lat": 40.8500831, "lon": 26.6381024}, {"type": "node", "id": 4638516761, "lat": 40.8499548, "lon": 26.637996}, {"type": "node", "id": 4638516765, "lat": 40.8502047, "lon": 26.6378462}, {"type": "node", "id": 4654362188, "lat": 40.8516331, "lon": 26.6339278}, {"type": "node", "id": 4654362193, "lat": 40.8515551, "lon": 26.6350773}, {"type": "node", "id": 4654362194, "lat": 40.8514472, "lon": 26.6351836}, {"type": "node", "id": 4654362195, "lat": 40.8515599, "lon": 26.6351738}, {"type": "node", "id": 4654362196, "lat": 40.8516272, "lon": 26.6339264}, {"type": "node", "id": 4654362199, "lat": 40.8514332, "lon": 26.6338546}, {"type": "node", "id": 4654362204, "lat": 40.8514314, "lon": 26.6339183}, {"type": "node", "id": 4654362208, "lat": 40.8514424, "lon": 26.6350871}, {"type": "node", "id": 4664403654, "lat": 40.8510917, "lon": 26.6339977}, {"type": "node", "id": 4664403655, "lat": 40.8510368, "lon": 26.6341652}, {"type": "node", "id": 4743602435, "lat": 40.8481397, "lon": 26.6362779}, {"type": "node", "id": 4833381049, "lat": 40.8515552, "lon": 26.6340185}, {"type": "node", "id": 4833381056, "lat": 40.8510514, "lon": 26.6355903}, {"type": "node", "id": 4833637111, "lat": 40.8481043, "lon": 26.6363471}, {"type": "node", "id": 4833637112, "lat": 40.8481185, "lon": 26.6363048}, {"type": "node", "id": 4833637113, "lat": 40.8480953, "lon": 26.6364474}, {"type": "node", "id": 4833649908, "lat": 40.849847, "lon": 26.6349203}, {"type": "node", "id": 4833649909, "lat": 40.8493662, "lon": 26.635246}, {"type": "node", "id": 4833649910, "lat": 40.8497517, "lon": 26.6349893}, {"type": "node", "id": 4834662693, "lat": 40.848988, "lon": 26.6372761}, {"type": "node", "id": 4834662694, "lat": 40.8489098, "lon": 26.637422}, {"type": "node", "id": 4834662695, "lat": 40.8488518, "lon": 26.6375483}, {"type": "node", "id": 4835527869, "lat": 40.8515629, "lon": 26.6379659}, {"type": "node", "id": 4843919176, "lat": 40.8505324, "lon": 26.6354921}, {"type": "node", "id": 4843919177, "lat": 40.8515585, "lon": 26.6341597}, {"type": "node", "id": 4843919178, "lat": 40.8515784, "lon": 26.6342419}, {"type": "node", "id": 4843919179, "lat": 40.8515596, "lon": 26.634436}, {"type": "node", "id": 4843919180, "lat": 40.8515031, "lon": 26.6344381}, {"type": "node", "id": 4843919181, "lat": 40.85156, "lon": 26.6344687}, {"type": "node", "id": 4843919182, "lat": 40.8515035, "lon": 26.63447}, {"type": "node", "id": 4844534202, "lat": 40.8510719, "lon": 26.6354437}, {"type": "node", "id": 4844534203, "lat": 40.8510673, "lon": 26.6355104}, {"type": "node", "id": 4844534204, "lat": 40.8510703, "lon": 26.6354789}, {"type": "node", "id": 4844534205, "lat": 40.8510608, "lon": 26.6355494}, {"type": "node", "id": 4844534206, "lat": 40.8512242, "lon": 26.6360567}, {"type": "node", "id": 4844534207, "lat": 40.8511765, "lon": 26.6360885}, {"type": "node", "id": 4844534208, "lat": 40.851262, "lon": 26.6362806}, {"type": "node", "id": 4844534209, "lat": 40.8512259, "lon": 26.6362122}, {"type": "node", "id": 4844534210, "lat": 40.8511595, "lon": 26.6361476}, {"type": "node", "id": 4844534211, "lat": 40.851187, "lon": 26.6361706}, {"type": "node", "id": 4844534212, "lat": 40.8514139, "lon": 26.6370242}, {"type": "node", "id": 4844534213, "lat": 40.8513881, "lon": 26.6370213}, {"type": "node", "id": 4844534214, "lat": 40.8510886, "lon": 26.637086}, {"type": "node", "id": 4844534215, "lat": 40.8510385, "lon": 26.6371052}, {"type": "node", "id": 4844534216, "lat": 40.8510617, "lon": 26.6370915}, {"type": "node", "id": 4844534217, "lat": 40.8514478, "lon": 26.6373087}, {"type": "node", "id": 4844534218, "lat": 40.8514254, "lon": 26.6373363}, {"type": "node", "id": 4844534219, "lat": 40.851475, "lon": 26.6372897}, {"type": "node", "id": 4844534220, "lat": 40.8514013, "lon": 26.6370218}, {"type": "node", "id": 4844535921, "lat": 40.8511746, "lon": 26.637401}, {"type": "node", "id": 4844535922, "lat": 40.8512546, "lon": 26.6375087}, {"type": "node", "id": 4844535923, "lat": 40.8511161, "lon": 26.6377364}, {"type": "node", "id": 4844535924, "lat": 40.8510277, "lon": 26.6376425}, {"type": "node", "id": 4844535925, "lat": 40.8517206, "lon": 26.6374977}, {"type": "node", "id": 4844535926, "lat": 40.8516294, "lon": 26.6375432}, {"type": "node", "id": 4844535927, "lat": 40.8516676, "lon": 26.6376767}, {"type": "node", "id": 4844535928, "lat": 40.8517588, "lon": 26.6376311}, {"type": "node", "id": 4845726630, "lat": 40.8516367, "lon": 26.6378938}, {"type": "node", "id": 4845726631, "lat": 40.8516086, "lon": 26.6379144}, {"type": "node", "id": 4845726632, "lat": 40.8515881, "lon": 26.6379358}, {"type": "node", "id": 4845726633, "lat": 40.8515699, "lon": 26.6390666}, {"type": "node", "id": 4845726634, "lat": 40.8515918, "lon": 26.6389946}, {"type": "node", "id": 4845726635, "lat": 40.8511633, "lon": 26.6378703}, {"type": "node", "id": 4845726636, "lat": 40.8512227, "lon": 26.6377738}, {"type": "node", "id": 4845726637, "lat": 40.851312, "lon": 26.6378699}, {"type": "node", "id": 4845726638, "lat": 40.851296, "lon": 26.6378959}, {"type": "node", "id": 4845726639, "lat": 40.8513182, "lon": 26.6379198}, {"type": "node", "id": 4845726640, "lat": 40.8512748, "lon": 26.6379903}, {"type": "node", "id": 4845726641, "lat": 40.8515902, "lon": 26.6365305}, {"type": "node", "id": 4845726642, "lat": 40.8515602, "lon": 26.6367161}, {"type": "node", "id": 4845726643, "lat": 40.8516576, "lon": 26.6367436}, {"type": "node", "id": 4845726644, "lat": 40.8516876, "lon": 26.636558}, {"type": "node", "id": 4845726645, "lat": 40.8513389, "lon": 26.636024}, {"type": "node", "id": 4845726646, "lat": 40.8509649, "lon": 26.6361843}, {"type": "node", "id": 4845726647, "lat": 40.8509296, "lon": 26.6363157}, {"type": "node", "id": 4845726648, "lat": 40.8510176, "lon": 26.6363198}, {"type": "node", "id": 4845726649, "lat": 40.8511261, "lon": 26.6362893}, {"type": "node", "id": 4845726650, "lat": 40.8511009, "lon": 26.6362775}, {"type": "node", "id": 4845726651, "lat": 40.8511079, "lon": 26.6362514}, {"type": "node", "id": 4845726652, "lat": 40.8509678, "lon": 26.6354576}, {"type": "node", "id": 4845726653, "lat": 40.8507217, "lon": 26.6358685}, {"type": "node", "id": 4845726654, "lat": 40.850716, "lon": 26.6359074}, {"type": "node", "id": 4845726655, "lat": 40.8513371, "lon": 26.6339782}, {"type": "node", "id": 4845726656, "lat": 40.8513057, "lon": 26.6339878}, {"type": "node", "id": 4845726657, "lat": 40.8514379, "lon": 26.6339768}, {"type": "node", "id": 4846666122, "lat": 40.8518423, "lon": 26.6356612}, {"type": "node", "id": 4846666123, "lat": 40.8517585, "lon": 26.6356368}, {"type": "node", "id": 4846666124, "lat": 40.8517319, "lon": 26.6357962}, {"type": "node", "id": 4846666125, "lat": 40.8518157, "lon": 26.6358207}, {"type": "node", "id": 4846666126, "lat": 40.851798, "lon": 26.6353879}, {"type": "node", "id": 4846666127, "lat": 40.8517838, "lon": 26.6355884}, {"type": "node", "id": 4846666128, "lat": 40.851865, "lon": 26.6355984}, {"type": "node", "id": 4846666130, "lat": 40.8517585, "lon": 26.635411}, {"type": "node", "id": 4846666131, "lat": 40.8514508, "lon": 26.6354201}, {"type": "node", "id": 4846666132, "lat": 40.8514534, "lon": 26.6355796}, {"type": "node", "id": 4846666133, "lat": 40.8516256, "lon": 26.6355746}, {"type": "node", "id": 4846666134, "lat": 40.8516003, "lon": 26.6357342}, {"type": "node", "id": 4846666135, "lat": 40.8516836, "lon": 26.6357573}, {"type": "node", "id": 4846666136, "lat": 40.8517088, "lon": 26.6355987}, {"type": "node", "id": 4846666137, "lat": 40.8517616, "lon": 26.6355972}, {"type": "node", "id": 4846666138, "lat": 40.8515553, "lon": 26.6357616}, {"type": "node", "id": 4846666139, "lat": 40.8514724, "lon": 26.6357401}, {"type": "node", "id": 4846666140, "lat": 40.8514915, "lon": 26.6356111}, {"type": "node", "id": 4846666141, "lat": 40.8515745, "lon": 26.6356326}, {"type": "node", "id": 4846666171, "lat": 40.8518746, "lon": 26.6374919}, {"type": "node", "id": 4846666175, "lat": 40.8517143, "lon": 26.6372324}, {"type": "node", "id": 4846666176, "lat": 40.8516905, "lon": 26.6373543}, {"type": "node", "id": 4846666177, "lat": 40.8517394, "lon": 26.6374613}, {"type": "node", "id": 4846666178, "lat": 40.8518216, "lon": 26.6374894}, {"type": "node", "id": 4846666179, "lat": 40.851862, "lon": 26.6372828}, {"type": "node", "id": 4846666180, "lat": 40.8516942, "lon": 26.6374757}, {"type": "node", "id": 4846666181, "lat": 40.8516107, "lon": 26.6375136}, {"type": "node", "id": 4846666182, "lat": 40.8515392, "lon": 26.6372381}, {"type": "node", "id": 4846666183, "lat": 40.8516227, "lon": 26.6372002}, {"type": "node", "id": 4846666196, "lat": 40.8516476, "lon": 26.6370444}, {"type": "node", "id": 4846666197, "lat": 40.8516788, "lon": 26.6368606}, {"type": "node", "id": 4846666198, "lat": 40.8516626, "lon": 26.63685}, {"type": "node", "id": 4846666199, "lat": 40.8516376, "lon": 26.6369992}, {"type": "node", "id": 4846666200, "lat": 40.8516198, "lon": 26.6369939}, {"type": "node", "id": 4846666201, "lat": 40.8516111, "lon": 26.6370461}, {"type": "node", "id": 4846666202, "lat": 40.8514814, "lon": 26.6370081}, {"type": "node", "id": 4846666203, "lat": 40.8515205, "lon": 26.6367752}, {"type": "node", "id": 4846666204, "lat": 40.8515574, "lon": 26.6367861}, {"type": "node", "id": 4846666205, "lat": 40.8515522, "lon": 26.6368175}, {"type": "node", "id": 4846666206, "lat": 40.8516713, "lon": 26.6378298}, {"type": "node", "id": 4846666207, "lat": 40.8516856, "lon": 26.6379172}, {"type": "node", "id": 4846666208, "lat": 40.8516774, "lon": 26.6378554}, {"type": "node", "id": 4846666209, "lat": 40.8513254, "lon": 26.6376117}, {"type": "node", "id": 4846666210, "lat": 40.8512559, "lon": 26.6377305}, {"type": "node", "id": 4846666211, "lat": 40.8513637, "lon": 26.6378406}, {"type": "node", "id": 4846666212, "lat": 40.851397, "lon": 26.6376427}, {"type": "node", "id": 4846666213, "lat": 40.851364, "lon": 26.637609}, {"type": "node", "id": 4846666214, "lat": 40.8513486, "lon": 26.6376354}, {"type": "node", "id": 4846666215, "lat": 40.8514463, "lon": 26.6373821}, {"type": "node", "id": 4846666216, "lat": 40.8513188, "lon": 26.637558}, {"type": "node", "id": 4846666217, "lat": 40.8513599, "lon": 26.6376108}, {"type": "node", "id": 4846666218, "lat": 40.8513779, "lon": 26.6375863}, {"type": "node", "id": 4846666219, "lat": 40.8514094, "lon": 26.6376267}, {"type": "node", "id": 4846666220, "lat": 40.8514302, "lon": 26.6375983}, {"type": "node", "id": 4846666221, "lat": 40.8514412, "lon": 26.6376123}, {"type": "node", "id": 4846666222, "lat": 40.8514762, "lon": 26.6375646}, {"type": "node", "id": 4846666223, "lat": 40.851489, "lon": 26.6375811}, {"type": "node", "id": 4846666224, "lat": 40.8515181, "lon": 26.6375372}, {"type": "node", "id": 4846666225, "lat": 40.8514884, "lon": 26.6374416}, {"type": "node", "id": 4846666226, "lat": 40.8512584, "lon": 26.6372287}, {"type": "node", "id": 4846666227, "lat": 40.8513575, "lon": 26.6373404}, {"type": "node", "id": 4846666228, "lat": 40.8514074, "lon": 26.6372629}, {"type": "node", "id": 4846666229, "lat": 40.8513987, "lon": 26.6371982}, {"type": "node", "id": 4846666230, "lat": 40.8513288, "lon": 26.6371195}, {"type": "node", "id": 4846666231, "lat": 40.8511132, "lon": 26.6371396}, {"type": "node", "id": 4846666232, "lat": 40.8510689, "lon": 26.6372159}, {"type": "node", "id": 4846666233, "lat": 40.8511667, "lon": 26.6373152}, {"type": "node", "id": 4846666234, "lat": 40.851211, "lon": 26.6372389}, {"type": "node", "id": 4846666752, "lat": 40.8510162, "lon": 26.6372508}, {"type": "node", "id": 4846666753, "lat": 40.8511137, "lon": 26.6373502}, {"type": "node", "id": 4846666754, "lat": 40.8510496, "lon": 26.6374601}, {"type": "node", "id": 4846666755, "lat": 40.8509521, "lon": 26.6373607}, {"type": "node", "id": 4846666756, "lat": 40.8509295, "lon": 26.6374073}, {"type": "node", "id": 4846666757, "lat": 40.8510193, "lon": 26.6374938}, {"type": "node", "id": 4846666758, "lat": 40.8509627, "lon": 26.6375965}, {"type": "node", "id": 4846666759, "lat": 40.8508729, "lon": 26.63751}, {"type": "node", "id": 4846680297, "lat": 40.8511077, "lon": 26.6377859}, {"type": "node", "id": 4846680298, "lat": 40.8510386, "lon": 26.6379049}, {"type": "node", "id": 4846680299, "lat": 40.8509502, "lon": 26.6378152}, {"type": "node", "id": 4846680300, "lat": 40.8510193, "lon": 26.6376963}, {"type": "node", "id": 4846680301, "lat": 40.850746, "lon": 26.6377218}, {"type": "node", "id": 4846680302, "lat": 40.8507008, "lon": 26.6378052}, {"type": "node", "id": 4846680303, "lat": 40.8508018, "lon": 26.637901}, {"type": "node", "id": 4846680304, "lat": 40.8508465, "lon": 26.6378186}, {"type": "node", "id": 4846680305, "lat": 40.8508038, "lon": 26.6377781}, {"type": "node", "id": 4846680306, "lat": 40.8507678, "lon": 26.6377425}, {"type": "node", "id": 4846680307, "lat": 40.8507837, "lon": 26.6377133}, {"type": "node", "id": 4846680308, "lat": 40.8508202, "lon": 26.6377479}, {"type": "node", "id": 4851998148, "lat": 40.8514178, "lon": 26.6338802}, {"type": "node", "id": 4851998149, "lat": 40.8513581, "lon": 26.6338446}, {"type": "node", "id": 4851998150, "lat": 40.8513233, "lon": 26.6339339}, {"type": "node", "id": 4851998151, "lat": 40.8512756, "lon": 26.6339059}, {"type": "node", "id": 4851998152, "lat": 40.8512703, "lon": 26.6339181}, {"type": "node", "id": 4851998153, "lat": 40.8512226, "lon": 26.6338854}, {"type": "node", "id": 4852204311, "lat": 40.8511391, "lon": 26.6363573}, {"type": "node", "id": 4852204312, "lat": 40.8512929, "lon": 26.6368362}, {"type": "node", "id": 4852204313, "lat": 40.8511179, "lon": 26.6369341}, {"type": "node", "id": 4852204314, "lat": 40.851057, "lon": 26.6369414}, {"type": "node", "id": 4852204315, "lat": 40.8510352, "lon": 26.6370132}, {"type": "node", "id": 4852204316, "lat": 40.8511209, "lon": 26.6370507}, {"type": "node", "id": 4852204317, "lat": 40.8511985, "lon": 26.6370541}, {"type": "node", "id": 4852204318, "lat": 40.851233, "lon": 26.6370467}, {"type": "node", "id": 4852204319, "lat": 40.851333, "lon": 26.6369844}, {"type": "node", "id": 4908797835, "lat": 40.8500148, "lon": 26.6378696}, {"type": "node", "id": 4908797836, "lat": 40.8500955, "lon": 26.6377557}, {"type": "node", "id": 4909770989, "lat": 40.8501686, "lon": 26.6343178}, {"type": "node", "id": 4909770990, "lat": 40.8500517, "lon": 26.6344471}, {"type": "node", "id": 4909770991, "lat": 40.8501112, "lon": 26.6345411}, {"type": "node", "id": 4909770992, "lat": 40.8502281, "lon": 26.6344118}, {"type": "node", "id": 4909770993, "lat": 40.8500041, "lon": 26.6344852}, {"type": "node", "id": 4909770994, "lat": 40.8499355, "lon": 26.6345557}, {"type": "node", "id": 4909770995, "lat": 40.8499984, "lon": 26.6346628}, {"type": "node", "id": 4909770996, "lat": 40.850067, "lon": 26.6345923}, {"type": "node", "id": 5125429229, "lat": 40.8504923, "lon": 26.6382336}, {"type": "node", "id": 5125429230, "lat": 40.8505602, "lon": 26.6383183}, {"type": "node", "id": 5125429231, "lat": 40.8506264, "lon": 26.6382254}, {"type": "node", "id": 5125429232, "lat": 40.8505584, "lon": 26.6381407}, {"type": "node", "id": 5125429233, "lat": 40.8506355, "lon": 26.6382366}, {"type": "node", "id": 5125429234, "lat": 40.850574, "lon": 26.6383273}, {"type": "node", "id": 5125429235, "lat": 40.8506099, "lon": 26.6383699}, {"type": "node", "id": 5125429236, "lat": 40.8505921, "lon": 26.6383961}, {"type": "node", "id": 5125429237, "lat": 40.8506503, "lon": 26.638465}, {"type": "node", "id": 5125429238, "lat": 40.8507304, "lon": 26.6383469}, {"type": "node", "id": 5125429239, "lat": 40.8507097, "lon": 26.6383225}, {"type": "node", "id": 5125429240, "lat": 40.8507274, "lon": 26.6382963}, {"type": "node", "id": 5125429241, "lat": 40.8506908, "lon": 26.6382529}, {"type": "node", "id": 5125429242, "lat": 40.8506723, "lon": 26.6382802}, {"type": "node", "id": 5127356295, "lat": 40.8488222, "lon": 26.6376213}, {"type": "node", "id": 5127356296, "lat": 40.8489529, "lon": 26.6373368}, {"type": "node", "id": 5127356297, "lat": 40.848879, "lon": 26.6374863}, {"type": "node", "id": 5127831089, "lat": 40.850771, "lon": 26.6384724}, {"type": "node", "id": 5127831090, "lat": 40.8506945, "lon": 26.6386049}, {"type": "node", "id": 5127831091, "lat": 40.8509301, "lon": 26.6388427}, {"type": "node", "id": 5127831092, "lat": 40.8510067, "lon": 26.6387102}, {"type": "node", "id": 5129049283, "lat": 40.8503017, "lon": 26.6347137}, {"type": "node", "id": 5129049284, "lat": 40.8502664, "lon": 26.6348266}, {"type": "node", "id": 5129049285, "lat": 40.8502151, "lon": 26.6347992}, {"type": "node", "id": 5129049286, "lat": 40.8502499, "lon": 26.6346856}, {"type": "node", "id": 5129383576, "lat": 40.8481098, "lon": 26.636326}, {"type": "node", "id": 5130759396, "lat": 40.8510739, "lon": 26.6380425}, {"type": "node", "id": 5130759397, "lat": 40.8510068, "lon": 26.6381512}, {"type": "node", "id": 5130759398, "lat": 40.8510917, "lon": 26.6382428}, {"type": "node", "id": 5130759399, "lat": 40.8511588, "lon": 26.638134}, {"type": "node", "id": 5130759400, "lat": 40.8510984, "lon": 26.6383345}, {"type": "node", "id": 5130759401, "lat": 40.8510284, "lon": 26.6384575}, {"type": "node", "id": 5130759402, "lat": 40.851103, "lon": 26.6385318}, {"type": "node", "id": 5130759403, "lat": 40.8511534, "lon": 26.6384434}, {"type": "node", "id": 5130759404, "lat": 40.8511316, "lon": 26.6384218}, {"type": "node", "id": 5130759405, "lat": 40.8511513, "lon": 26.6383872}, {"type": "node", "id": 5130759410, "lat": 40.8514873, "lon": 26.6381636}, {"type": "node", "id": 5130759411, "lat": 40.8514047, "lon": 26.6382791}, {"type": "node", "id": 5130759412, "lat": 40.851446, "lon": 26.6383308}, {"type": "node", "id": 5130759413, "lat": 40.8515287, "lon": 26.6382152}, {"type": "node", "id": 5132040229, "lat": 40.8512808, "lon": 26.6340031}, {"type": "node", "id": 5132040230, "lat": 40.8515223, "lon": 26.6340007}, {"type": "node", "id": 5135081146, "lat": 40.8498661, "lon": 26.6357741}, {"type": "node", "id": 5135081147, "lat": 40.8498231, "lon": 26.6359121}, {"type": "node", "id": 5135081148, "lat": 40.8498776, "lon": 26.6359417}, {"type": "node", "id": 5135081149, "lat": 40.8499205, "lon": 26.6358038}, {"type": "node", "id": 5139186914, "lat": 40.8510453, "lon": 26.6365323}, {"type": "node", "id": 5139186915, "lat": 40.8510251, "lon": 26.6365973}, {"type": "node", "id": 5139186916, "lat": 40.8510351, "lon": 26.6365271}, {"type": "node", "id": 5139186917, "lat": 40.8510161, "lon": 26.6365927}, {"type": "node", "id": 5147731404, "lat": 40.851279, "lon": 26.6348094}, {"type": "node", "id": 5147731405, "lat": 40.8511674, "lon": 26.6348134}, {"type": "node", "id": 5147731406, "lat": 40.8511672, "lon": 26.6347993}, {"type": "node", "id": 5147731407, "lat": 40.8512788, "lon": 26.6347961}, {"type": "node", "id": 5147731408, "lat": 40.851279, "lon": 26.6349576}, {"type": "node", "id": 5147731409, "lat": 40.8511728, "lon": 26.6349603}, {"type": "node", "id": 5147731410, "lat": 40.851173, "lon": 26.6349747}, {"type": "node", "id": 5147731411, "lat": 40.8512792, "lon": 26.6349717}, {"type": "node", "id": 5147940897, "lat": 40.8518588, "lon": 26.6364329}, {"type": "node", "id": 5147940906, "lat": 40.8518736, "lon": 26.6363137}, {"type": "node", "id": 5147940907, "lat": 40.8518686, "lon": 26.6363608}, {"type": "node", "id": 5147940908, "lat": 40.8518595, "lon": 26.6363104}, {"type": "node", "id": 5147940909, "lat": 40.8518532, "lon": 26.6363571}, {"type": "node", "id": 5167676202, "lat": 40.8509229, "lon": 26.6392484}, {"type": "node", "id": 5167676203, "lat": 40.850897, "lon": 26.6393178}, {"type": "node", "id": 5180485994, "lat": 40.8510087, "lon": 26.6363528}, {"type": "node", "id": 5180485995, "lat": 40.8511067, "lon": 26.6363616}, {"type": "node", "id": 5182568366, "lat": 40.8515964, "lon": 26.6389614}, {"type": "node", "id": 5182568367, "lat": 40.8515812, "lon": 26.6390404}, {"type": "node", "id": 5182568368, "lat": 40.8515873, "lon": 26.6390198}, {"type": "node", "id": 5189435136, "lat": 40.8509487, "lon": 26.6350017}, {"type": "node", "id": 5189435137, "lat": 40.8509611, "lon": 26.6350363}, {"type": "node", "id": 5189435138, "lat": 40.8508944, "lon": 26.6350785}, {"type": "node", "id": 5189435139, "lat": 40.8508695, "lon": 26.6351266}, {"type": "node", "id": 5189435140, "lat": 40.8508531, "lon": 26.6351919}, {"type": "node", "id": 5189435141, "lat": 40.8508698, "lon": 26.6351917}, {"type": "node", "id": 5189435142, "lat": 40.8508946, "lon": 26.6351264}, {"type": "node", "id": 5189435143, "lat": 40.850908, "lon": 26.6350784}, {"type": "node", "id": 5189435144, "lat": 40.8508533, "lon": 26.6352321}, {"type": "node", "id": 5189435145, "lat": 40.8506843, "lon": 26.635528}, {"type": "node", "id": 5189435146, "lat": 40.8506845, "lon": 26.6355793}, {"type": "node", "id": 5189435147, "lat": 40.8505997, "lon": 26.6355909}, {"type": "node", "id": 5189435148, "lat": 40.8506018, "lon": 26.6356618}, {"type": "node", "id": 5189435149, "lat": 40.8505829, "lon": 26.6355915}, {"type": "node", "id": 5189435150, "lat": 40.8505844, "lon": 26.6356624}, {"type": "node", "id": 5189435151, "lat": 40.8506987, "lon": 26.6355787}, {"type": "node", "id": 5189435152, "lat": 40.8506977, "lon": 26.6355275}, {"type": "node", "id": 5253300462, "lat": 40.8514354, "lon": 26.6367534}, {"type": "node", "id": 5253300463, "lat": 40.8514256, "lon": 26.6368118}, {"type": "node", "id": 5253300464, "lat": 40.8514638, "lon": 26.636823}, {"type": "node", "id": 5253300465, "lat": 40.8514527, "lon": 26.6368893}, {"type": "node", "id": 5253300466, "lat": 40.8514858, "lon": 26.636899}, {"type": "node", "id": 5253300467, "lat": 40.8515067, "lon": 26.6367743}, {"type": "node", "id": 5253300468, "lat": 40.851502, "lon": 26.6366039}, {"type": "node", "id": 5253300469, "lat": 40.8514764, "lon": 26.6367128}, {"type": "node", "id": 5253300470, "lat": 40.8515436, "lon": 26.6367404}, {"type": "node", "id": 5253300471, "lat": 40.8515692, "lon": 26.6366315}, {"type": "node", "id": 5253300472, "lat": 40.8514901, "lon": 26.636601}, {"type": "node", "id": 5253300473, "lat": 40.851469, "lon": 26.6367157}, {"type": "node", "id": 5253300474, "lat": 40.8514035, "lon": 26.6366945}, {"type": "node", "id": 5253300475, "lat": 40.8514246, "lon": 26.6365799}, {"type": "node", "id": 5253300476, "lat": 40.8518102, "lon": 26.6363215}, {"type": "node", "id": 5253300477, "lat": 40.851798, "lon": 26.6363184}, {"type": "node", "id": 5253300478, "lat": 40.8517687, "lon": 26.6362343}, {"type": "node", "id": 5253300479, "lat": 40.8517662, "lon": 26.6362517}, {"type": "node", "id": 5509608183, "lat": 40.8491558, "lon": 26.6379888}, {"type": "node", "id": 5509608185, "lat": 40.8500439, "lon": 26.6376588}, {"type": "node", "id": 5509608186, "lat": 40.8498217, "lon": 26.6381992}, {"type": "node", "id": 5509608187, "lat": 40.8497172, "lon": 26.6382542}, {"type": "node", "id": 5509608188, "lat": 40.8487735, "lon": 26.6377865}, {"type": "node", "id": 6246309398, "lat": 40.8517889, "lon": 26.6349795}, {"type": "node", "id": 6246309399, "lat": 40.8517758, "lon": 26.6349799}, {"type": "node", "id": 6246309400, "lat": 40.8518152, "lon": 26.6349789}, {"type": "node", "id": 6246309401, "lat": 40.8518169, "lon": 26.6350966}, {"type": "node", "id": 6246309402, "lat": 40.8517775, "lon": 26.6350976}, {"type": "node", "id": 6246309403, "lat": 40.8518146, "lon": 26.6351064}, {"type": "node", "id": 6246309404, "lat": 40.8516976, "lon": 26.6351093}, {"type": "node", "id": 6246309405, "lat": 40.8516987, "lon": 26.6351913}, {"type": "node", "id": 6246309406, "lat": 40.8518157, "lon": 26.6351884}, {"type": "node", "id": 6246316705, "lat": 40.8498136, "lon": 26.6352124}, {"type": "node", "id": 6246316706, "lat": 40.8498873, "lon": 26.6349713}, {"type": "node", "id": 6246316707, "lat": 40.8499125, "lon": 26.6348547}, {"type": "node", "id": 6246316708, "lat": 40.8499248, "lon": 26.6348784}, {"type": "node", "id": 6246316709, "lat": 40.8499056, "lon": 26.6349221}, {"type": "node", "id": 6246316710, "lat": 40.8498812, "lon": 26.634889}, {"type": "node", "id": 6257625275, "lat": 40.8496922, "lon": 26.6368276}, {"type": "node", "id": 6257625276, "lat": 40.8497105, "lon": 26.6367683}, {"type": "node", "id": 6303730640, "lat": 40.8508106, "lon": 26.6338608}, {"type": "node", "id": 6303730641, "lat": 40.8507641, "lon": 26.6338381}, {"type": "node", "id": 6304484022, "lat": 40.851029, "lon": 26.6347435}, {"type": "node", "id": 6416707527, "lat": 40.8498437, "lon": 26.6351139}, {"type": "node", "id": 6416707528, "lat": 40.8498405, "lon": 26.6349937}, {"type": "node", "id": 6416707529, "lat": 40.8498014, "lon": 26.6349742}, {"type": "node", "id": 6416707530, "lat": 40.8498548, "lon": 26.6350456}, {"type": "node", "id": 6416707531, "lat": 40.8498516, "lon": 26.6350755}, {"type": "node", "id": 6416707532, "lat": 40.8498514, "lon": 26.6350196}, {"type": "node", "id": 6416707533, "lat": 40.8498221, "lon": 26.6349787}, {"type": "node", "id": 6416707534, "lat": 40.8497777, "lon": 26.6349777}, {"type": "node", "id": 6416707535, "lat": 40.8497899, "lon": 26.634975}, {"type": "node", "id": 6416707536, "lat": 40.8498129, "lon": 26.6349759}, {"type": "node", "id": 6416707537, "lat": 40.8498324, "lon": 26.6349846}, {"type": "node", "id": 6416707538, "lat": 40.8498474, "lon": 26.6350063}, {"type": "node", "id": 6416707539, "lat": 40.8498543, "lon": 26.6350326}, {"type": "node", "id": 6416707540, "lat": 40.8498538, "lon": 26.6350609}, {"type": "node", "id": 6416707541, "lat": 40.85012, "lon": 26.6352006}, {"type": "node", "id": 6416707542, "lat": 40.8500957, "lon": 26.6352395}, {"type": "node", "id": 6416707543, "lat": 40.8500297, "lon": 26.6354326}, {"type": "node", "id": 6416707544, "lat": 40.8502499, "lon": 26.6355546}, {"type": "node", "id": 6416707545, "lat": 40.8502763, "lon": 26.6354554}, {"type": "node", "id": 6448862351, "lat": 40.8511467, "lon": 26.6358108}, {"type": "node", "id": 6448862352, "lat": 40.8511076, "lon": 26.6358096}, {"type": "node", "id": 6448862353, "lat": 40.8511464, "lon": 26.6358011}, {"type": "node", "id": 6448862354, "lat": 40.8511081, "lon": 26.6358005}, {"type": "node", "id": 6553397448, "lat": 40.8504221, "lon": 26.6339649}, {"type": "node", "id": 6553397450, "lat": 40.8503165, "lon": 26.6339832}, {"type": "node", "id": 6937796887, "lat": 40.8512031, "lon": 26.6374539}, {"type": "node", "id": 6937796888, "lat": 40.8512115, "lon": 26.6374402}, {"type": "node", "id": 6937796889, "lat": 40.8504502, "lon": 26.6352225}, {"type": "node", "id": 6937860736, "lat": 40.8499938, "lon": 26.6349875}, {"type": "node", "id": 6937860737, "lat": 40.8499499, "lon": 26.6350059}, {"type": "node", "id": 6937860738, "lat": 40.8499032, "lon": 26.6351432}, {"type": "node", "id": 6937860739, "lat": 40.8498597, "lon": 26.6352891}, {"type": "node", "id": 12204790152, "lat": 40.8510283, "lon": 26.6349523}, {"type": "node", "id": 12204790162, "lat": 40.8498079, "lon": 26.6372195}, {"type": "node", "id": 12204790163, "lat": 40.8503097, "lon": 26.6355369}, {"type": "node", "id": 12438183500, "lat": 40.8507394, "lon": 26.6342163}, {"type": "node", "id": 12438186501, "lat": 40.8503611, "lon": 26.6353788}, {"type": "node", "id": 12594045979, "lat": 40.8507785, "lon": 26.6345363}, {"type": "node", "id": 12594045980, "lat": 40.8507303, "lon": 26.6346984}, {"type": "node", "id": 12594045981, "lat": 40.8509192, "lon": 26.6347965}, {"type": "node", "id": 12594045982, "lat": 40.8509674, "lon": 26.6346344}, {"type": "node", "id": 1448180846, "lat": 40.8550661, "lon": 26.6367486}, {"type": "node", "id": 1610698608, "lat": 40.853353, "lon": 26.6369363}, {"type": "node", "id": 1610698689, "lat": 40.8534307, "lon": 26.6391179}, {"type": "node", "id": 1610698720, "lat": 40.8532647, "lon": 26.6389969}, {"type": "node", "id": 1610698770, "lat": 40.8529677, "lon": 26.6379423}, {"type": "node", "id": 1610698775, "lat": 40.8547769, "lon": 26.6387759}, {"type": "node", "id": 1610698806, "lat": 40.8534713, "lon": 26.6350602}, {"type": "node", "id": 1610699213, "lat": 40.8519238, "lon": 26.6343159}, {"type": "node", "id": 1610699347, "lat": 40.8538935, "lon": 26.6379069}, {"type": "node", "id": 1610699412, "lat": 40.8526957, "lon": 26.6385406}, {"type": "node", "id": 1610699452, "lat": 40.8519327, "lon": 26.635291}, {"type": "node", "id": 1610699453, "lat": 40.8532111, "lon": 26.6373725}, {"type": "node", "id": 1610699493, "lat": 40.8534188, "lon": 26.6343977}, {"type": "node", "id": 1610699592, "lat": 40.8521353, "lon": 26.6397225}, {"type": "node", "id": 1610699614, "lat": 40.8549334, "lon": 26.6378121}, {"type": "node", "id": 1610699792, "lat": 40.8536692, "lon": 26.6384716}, {"type": "node", "id": 1610699843, "lat": 40.854482, "lon": 26.6383968}, {"type": "node", "id": 1610700025, "lat": 40.8538573, "lon": 26.637131}, {"type": "node", "id": 1610782914, "lat": 40.8534533, "lon": 26.6362236}, {"type": "node", "id": 1610782976, "lat": 40.8534313, "lon": 26.636511}, {"type": "node", "id": 1610783500, "lat": 40.8550652, "lon": 26.636453}, {"type": "node", "id": 3423673119, "lat": 40.8541155, "lon": 26.6349973}, {"type": "node", "id": 3423673120, "lat": 40.8541128, "lon": 26.636329}, {"type": "node", "id": 3423673121, "lat": 40.8550591, "lon": 26.6360022}, {"type": "node", "id": 3423673124, "lat": 40.8541134, "lon": 26.6358805}, {"type": "node", "id": 3423673125, "lat": 40.852939, "lon": 26.636452}, {"type": "node", "id": 3423673126, "lat": 40.8530161, "lon": 26.6358772}, {"type": "node", "id": 3423673128, "lat": 40.8519239, "lon": 26.635574}, {"type": "node", "id": 3423673134, "lat": 40.8526785, "lon": 26.6363775}, {"type": "node", "id": 3423673135, "lat": 40.853419, "lon": 26.6365918}, {"type": "node", "id": 3423673137, "lat": 40.8526151, "lon": 26.636743}, {"type": "node", "id": 3423673159, "lat": 40.8525054, "lon": 26.6373509}, {"type": "node", "id": 3423673160, "lat": 40.8531319, "lon": 26.6375609}, {"type": "node", "id": 3423673161, "lat": 40.8528411, "lon": 26.6382189}, {"type": "node", "id": 3423673162, "lat": 40.8521563, "lon": 26.6379356}, {"type": "node", "id": 3423673165, "lat": 40.8526467, "lon": 26.6386407}, {"type": "node", "id": 3423673166, "lat": 40.8524545, "lon": 26.6390684}, {"type": "node", "id": 4533256411, "lat": 40.8547843, "lon": 26.6348897}, {"type": "node", "id": 4533373150, "lat": 40.8528622, "lon": 26.6338802}, {"type": "node", "id": 4533373151, "lat": 40.8523746, "lon": 26.6338649}, {"type": "node", "id": 4533373152, "lat": 40.852371, "lon": 26.6342905}, {"type": "node", "id": 4533373153, "lat": 40.852859, "lon": 26.6343286}, {"type": "node", "id": 4533397957, "lat": 40.8520381, "lon": 26.637837}, {"type": "node", "id": 4533397958, "lat": 40.8520795, "lon": 26.637659}, {"type": "node", "id": 4533397959, "lat": 40.852491, "lon": 26.6381554}, {"type": "node", "id": 4533397960, "lat": 40.8524596, "lon": 26.6383084}, {"type": "node", "id": 4533397961, "lat": 40.85259, "lon": 26.6383599}, {"type": "node", "id": 4533397962, "lat": 40.8526215, "lon": 26.6382015}, {"type": "node", "id": 4533397963, "lat": 40.8523266, "lon": 26.6381069}, {"type": "node", "id": 4533397964, "lat": 40.8522926, "lon": 26.638261}, {"type": "node", "id": 4533397965, "lat": 40.8524061, "lon": 26.6383056}, {"type": "node", "id": 4533397966, "lat": 40.8524374, "lon": 26.6381532}, {"type": "node", "id": 4533397967, "lat": 40.8518942, "lon": 26.6379453}, {"type": "node", "id": 4533397969, "lat": 40.8521075, "lon": 26.6381802}, {"type": "node", "id": 4533397970, "lat": 40.8521379, "lon": 26.6380333}, {"type": "node", "id": 4533397971, "lat": 40.8519954, "lon": 26.6381686}, {"type": "node", "id": 4533397972, "lat": 40.8519628, "lon": 26.6383278}, {"type": "node", "id": 4533397973, "lat": 40.8520838, "lon": 26.6383712}, {"type": "node", "id": 4533397974, "lat": 40.8521165, "lon": 26.638212}, {"type": "node", "id": 4533397975, "lat": 40.8522892, "lon": 26.6382926}, {"type": "node", "id": 4533397976, "lat": 40.8522556, "lon": 26.6384395}, {"type": "node", "id": 4533397977, "lat": 40.852356, "lon": 26.6384797}, {"type": "node", "id": 4533397978, "lat": 40.8523878, "lon": 26.6383283}, {"type": "node", "id": 4533397979, "lat": 40.8521412, "lon": 26.6382391}, {"type": "node", "id": 4533397980, "lat": 40.8521047, "lon": 26.6384039}, {"type": "node", "id": 4533397981, "lat": 40.8522219, "lon": 26.6384493}, {"type": "node", "id": 4533397982, "lat": 40.8522584, "lon": 26.6382844}, {"type": "node", "id": 4533397983, "lat": 40.8521874, "lon": 26.6380533}, {"type": "node", "id": 4533397984, "lat": 40.8521538, "lon": 26.6382088}, {"type": "node", "id": 4533397985, "lat": 40.8522462, "lon": 26.6382437}, {"type": "node", "id": 4533397986, "lat": 40.8522798, "lon": 26.6380882}, {"type": "node", "id": 4533505757, "lat": 40.8519393, "lon": 26.6383474}, {"type": "node", "id": 4533505758, "lat": 40.8519757, "lon": 26.6381754}, {"type": "node", "id": 4533510722, "lat": 40.8531247, "lon": 26.6377649}, {"type": "node", "id": 4533510723, "lat": 40.8530362, "lon": 26.6379543}, {"type": "node", "id": 4533510724, "lat": 40.8531947, "lon": 26.6380837}, {"type": "node", "id": 4533510725, "lat": 40.8532832, "lon": 26.6378944}, {"type": "node", "id": 4534689109, "lat": 40.8529155, "lon": 26.6338695}, {"type": "node", "id": 4534689110, "lat": 40.8529115, "lon": 26.6340766}, {"type": "node", "id": 4534689111, "lat": 40.853083, "lon": 26.6339984}, {"type": "node", "id": 4534689112, "lat": 40.8530898, "lon": 26.6338776}, {"type": "node", "id": 4534689113, "lat": 40.8533026, "lon": 26.6338882}, {"type": "node", "id": 4534689114, "lat": 40.8533012, "lon": 26.6339572}, {"type": "node", "id": 4534689115, "lat": 40.8530884, "lon": 26.6340209}, {"type": "node", "id": 4534689116, "lat": 40.8530937, "lon": 26.6338831}, {"type": "node", "id": 4535095438, "lat": 40.8538007, "lon": 26.6351081}, {"type": "node", "id": 4535095439, "lat": 40.8537925, "lon": 26.6354138}, {"type": "node", "id": 4535095440, "lat": 40.8535106, "lon": 26.6354098}, {"type": "node", "id": 4535095441, "lat": 40.8535173, "lon": 26.6351087}, {"type": "node", "id": 4535095442, "lat": 40.8537414, "lon": 26.6354416}, {"type": "node", "id": 4535095443, "lat": 40.8535103, "lon": 26.6354343}, {"type": "node", "id": 4535095444, "lat": 40.8535071, "lon": 26.6356085}, {"type": "node", "id": 4535095445, "lat": 40.8537382, "lon": 26.6356159}, {"type": "node", "id": 4535095446, "lat": 40.8542793, "lon": 26.6359965}, {"type": "node", "id": 4535095447, "lat": 40.8541578, "lon": 26.6359893}, {"type": "node", "id": 4535095448, "lat": 40.8541483, "lon": 26.6362693}, {"type": "node", "id": 4535095449, "lat": 40.8542697, "lon": 26.6362765}, {"type": "node", "id": 4535095450, "lat": 40.8540819, "lon": 26.6363766}, {"type": "node", "id": 4535095451, "lat": 40.8539506, "lon": 26.6363538}, {"type": "node", "id": 4535095452, "lat": 40.8539301, "lon": 26.6365603}, {"type": "node", "id": 4535095453, "lat": 40.8540613, "lon": 26.6365831}, {"type": "node", "id": 4535095454, "lat": 40.8538698, "lon": 26.6369026}, {"type": "node", "id": 4535095455, "lat": 40.8537421, "lon": 26.6368685}, {"type": "node", "id": 4535095456, "lat": 40.8537144, "lon": 26.63705}, {"type": "node", "id": 4535095457, "lat": 40.8538421, "lon": 26.6370841}, {"type": "node", "id": 4535095458, "lat": 40.8537127, "lon": 26.6368153}, {"type": "node", "id": 4535095459, "lat": 40.8536799, "lon": 26.6370241}, {"type": "node", "id": 4535095460, "lat": 40.8534236, "lon": 26.6369339}, {"type": "node", "id": 4535095461, "lat": 40.853449, "lon": 26.6367684}, {"type": "node", "id": 4535095462, "lat": 40.8534, "lon": 26.6376106}, {"type": "node", "id": 4535095463, "lat": 40.8533125, "lon": 26.6378207}, {"type": "node", "id": 4535095464, "lat": 40.8531501, "lon": 26.6377025}, {"type": "node", "id": 4535095465, "lat": 40.8532375, "lon": 26.6374924}, {"type": "node", "id": 4535104965, "lat": 40.8549115, "lon": 26.6348618}, {"type": "node", "id": 4535104970, "lat": 40.8546596, "lon": 26.6338472}, {"type": "node", "id": 4535104971, "lat": 40.8547305, "lon": 26.6338385}, {"type": "node", "id": 4535104972, "lat": 40.8547375, "lon": 26.6339301}, {"type": "node", "id": 4535104973, "lat": 40.8547569, "lon": 26.6339274}, {"type": "node", "id": 4535104974, "lat": 40.8547997, "lon": 26.634614}, {"type": "node", "id": 4535104975, "lat": 40.8547877, "lon": 26.6346193}, {"type": "node", "id": 4535104976, "lat": 40.8547957, "lon": 26.6347113}, {"type": "node", "id": 4535104977, "lat": 40.8547248, "lon": 26.634719}, {"type": "node", "id": 4535104978, "lat": 40.8547337, "lon": 26.6348135}, {"type": "node", "id": 4535104979, "lat": 40.8536543, "lon": 26.6349698}, {"type": "node", "id": 4535104980, "lat": 40.8535025, "lon": 26.6349039}, {"type": "node", "id": 4535123270, "lat": 40.8533758, "lon": 26.635613}, {"type": "node", "id": 4535123271, "lat": 40.8531471, "lon": 26.6356118}, {"type": "node", "id": 4535123272, "lat": 40.8531465, "lon": 26.6358129}, {"type": "node", "id": 4535123273, "lat": 40.8533752, "lon": 26.6358141}, {"type": "node", "id": 4535123274, "lat": 40.8529114, "lon": 26.6350695}, {"type": "node", "id": 4535123275, "lat": 40.8526262, "lon": 26.6351171}, {"type": "node", "id": 4535123276, "lat": 40.852597, "lon": 26.634811}, {"type": "node", "id": 4535123277, "lat": 40.8527452, "lon": 26.6347863}, {"type": "node", "id": 4535123278, "lat": 40.8527473, "lon": 26.6348083}, {"type": "node", "id": 4535123279, "lat": 40.852845, "lon": 26.634792}, {"type": "node", "id": 4535123280, "lat": 40.8528479, "lon": 26.6348227}, {"type": "node", "id": 4535123281, "lat": 40.8528873, "lon": 26.6348162}, {"type": "node", "id": 4536667272, "lat": 40.852241, "lon": 26.634825}, {"type": "node", "id": 4536667273, "lat": 40.8522676, "lon": 26.6351786}, {"type": "node", "id": 4536667274, "lat": 40.8521497, "lon": 26.6351941}, {"type": "node", "id": 4536667275, "lat": 40.8521356, "lon": 26.6350072}, {"type": "node", "id": 4536667276, "lat": 40.852159, "lon": 26.6350041}, {"type": "node", "id": 4536667277, "lat": 40.8521465, "lon": 26.6348375}, {"type": "node", "id": 4536667278, "lat": 40.8521328, "lon": 26.6343813}, {"type": "node", "id": 4536667279, "lat": 40.852129, "lon": 26.6347017}, {"type": "node", "id": 4536667280, "lat": 40.8520008, "lon": 26.634699}, {"type": "node", "id": 4536667281, "lat": 40.8520046, "lon": 26.6343786}, {"type": "node", "id": 4536667282, "lat": 40.8521016, "lon": 26.6347429}, {"type": "node", "id": 4536667283, "lat": 40.8519857, "lon": 26.6347404}, {"type": "node", "id": 4536667284, "lat": 40.8519834, "lon": 26.6349299}, {"type": "node", "id": 4536667285, "lat": 40.8520994, "lon": 26.6349323}, {"type": "node", "id": 4540192400, "lat": 40.8522366, "lon": 26.6377038}, {"type": "node", "id": 4540192401, "lat": 40.8521911, "lon": 26.6378966}, {"type": "node", "id": 4540192402, "lat": 40.8520813, "lon": 26.6378484}, {"type": "node", "id": 4540192403, "lat": 40.8521255, "lon": 26.6376593}, {"type": "node", "id": 4540192404, "lat": 40.8526665, "lon": 26.6378456}, {"type": "node", "id": 4540192405, "lat": 40.852597, "lon": 26.6380497}, {"type": "node", "id": 4540192406, "lat": 40.8524813, "lon": 26.6379853}, {"type": "node", "id": 4540192407, "lat": 40.8525506, "lon": 26.6377789}, {"type": "node", "id": 4540192408, "lat": 40.8527263, "lon": 26.6375317}, {"type": "node", "id": 4540192409, "lat": 40.8525017, "lon": 26.6374652}, {"type": "node", "id": 4540192410, "lat": 40.8524898, "lon": 26.6375354}, {"type": "node", "id": 4540192411, "lat": 40.8524732, "lon": 26.6375305}, {"type": "node", "id": 4540192412, "lat": 40.8524618, "lon": 26.6375978}, {"type": "node", "id": 4540192413, "lat": 40.8524774, "lon": 26.6376023}, {"type": "node", "id": 4540192414, "lat": 40.8524652, "lon": 26.6376736}, {"type": "node", "id": 4540192415, "lat": 40.8526918, "lon": 26.6377406}, {"type": "node", "id": 4540192416, "lat": 40.8527031, "lon": 26.6376737}, {"type": "node", "id": 4540192417, "lat": 40.8527132, "lon": 26.6376767}, {"type": "node", "id": 4540192418, "lat": 40.8527249, "lon": 26.6376078}, {"type": "node", "id": 4540192419, "lat": 40.852714, "lon": 26.6376045}, {"type": "node", "id": 4540192420, "lat": 40.8531025, "lon": 26.6365957}, {"type": "node", "id": 4540192421, "lat": 40.8530728, "lon": 26.6368045}, {"type": "node", "id": 4540192422, "lat": 40.8528828, "lon": 26.6367574}, {"type": "node", "id": 4540192423, "lat": 40.8529125, "lon": 26.6365485}, {"type": "node", "id": 4540192424, "lat": 40.8536651, "lon": 26.6363027}, {"type": "node", "id": 4540192425, "lat": 40.853644, "lon": 26.6365103}, {"type": "node", "id": 4540192426, "lat": 40.8534722, "lon": 26.6364813}, {"type": "node", "id": 4540192427, "lat": 40.8534961, "lon": 26.6362765}, {"type": "node", "id": 4540192428, "lat": 40.8537181, "lon": 26.6363137}, {"type": "node", "id": 4540192430, "lat": 40.8536954, "lon": 26.6365193}, {"type": "node", "id": 4540192431, "lat": 40.8540268, "lon": 26.6360535}, {"type": "node", "id": 4540192432, "lat": 40.8539371, "lon": 26.6360458}, {"type": "node", "id": 4540192433, "lat": 40.8539273, "lon": 26.6362443}, {"type": "node", "id": 4540192434, "lat": 40.854017, "lon": 26.6362521}, {"type": "node", "id": 4540192435, "lat": 40.8539086, "lon": 26.6360404}, {"type": "node", "id": 4540192436, "lat": 40.8538998, "lon": 26.6362395}, {"type": "node", "id": 4540192437, "lat": 40.853807, "lon": 26.6362323}, {"type": "node", "id": 4540192438, "lat": 40.8538158, "lon": 26.6360333}, {"type": "node", "id": 4540192439, "lat": 40.8537732, "lon": 26.6360434}, {"type": "node", "id": 4540192440, "lat": 40.8536655, "lon": 26.6360318}, {"type": "node", "id": 4540192441, "lat": 40.8536614, "lon": 26.6360987}, {"type": "node", "id": 4540192442, "lat": 40.8536493, "lon": 26.6360973}, {"type": "node", "id": 4540192443, "lat": 40.853646, "lon": 26.6361492}, {"type": "node", "id": 4540192444, "lat": 40.8536562, "lon": 26.6361503}, {"type": "node", "id": 4540192445, "lat": 40.8536519, "lon": 26.6362207}, {"type": "node", "id": 4540192446, "lat": 40.8537615, "lon": 26.6362325}, {"type": "node", "id": 4540192447, "lat": 40.8536207, "lon": 26.6360468}, {"type": "node", "id": 4540192448, "lat": 40.8536129, "lon": 26.636193}, {"type": "node", "id": 4540192449, "lat": 40.8534783, "lon": 26.6361805}, {"type": "node", "id": 4540192450, "lat": 40.853486, "lon": 26.6360343}, {"type": "node", "id": 4540192451, "lat": 40.853946, "lon": 26.6350594}, {"type": "node", "id": 4540192452, "lat": 40.8539504, "lon": 26.6352819}, {"type": "node", "id": 4540192453, "lat": 40.8538469, "lon": 26.6352855}, {"type": "node", "id": 4540192454, "lat": 40.8538425, "lon": 26.635063}, {"type": "node", "id": 4540192455, "lat": 40.854055, "lon": 26.6350494}, {"type": "node", "id": 4540192456, "lat": 40.8539549, "lon": 26.6350525}, {"type": "node", "id": 4540192457, "lat": 40.8539593, "lon": 26.6352949}, {"type": "node", "id": 4540192458, "lat": 40.8540594, "lon": 26.6352917}, {"type": "node", "id": 4540192459, "lat": 40.8540544, "lon": 26.6355304}, {"type": "node", "id": 4540192460, "lat": 40.853848, "lon": 26.635519}, {"type": "node", "id": 4540192461, "lat": 40.8538444, "lon": 26.635631}, {"type": "node", "id": 4540192462, "lat": 40.8540508, "lon": 26.6356424}, {"type": "node", "id": 4547509666, "lat": 40.8529551, "lon": 26.6344619}, {"type": "node", "id": 4547509667, "lat": 40.852845, "lon": 26.6344555}, {"type": "node", "id": 4547509668, "lat": 40.8528368, "lon": 26.6347046}, {"type": "node", "id": 4547509669, "lat": 40.8529469, "lon": 26.6347109}, {"type": "node", "id": 4558966560, "lat": 40.851936, "lon": 26.6386819}, {"type": "node", "id": 4558966561, "lat": 40.8519046, "lon": 26.6388164}, {"type": "node", "id": 4558966565, "lat": 40.8519967, "lon": 26.639124}, {"type": "node", "id": 4558966566, "lat": 40.852032, "lon": 26.638986}, {"type": "node", "id": 4558966567, "lat": 40.8519118, "lon": 26.6389323}, {"type": "node", "id": 4562362174, "lat": 40.8540411, "lon": 26.6366883}, {"type": "node", "id": 4562362175, "lat": 40.8539109, "lon": 26.636662}, {"type": "node", "id": 4562362176, "lat": 40.8538888, "lon": 26.6368534}, {"type": "node", "id": 4562362177, "lat": 40.8540191, "lon": 26.6368796}, {"type": "node", "id": 4562362178, "lat": 40.8538871, "lon": 26.6366584}, {"type": "node", "id": 4562362179, "lat": 40.8537883, "lon": 26.636639}, {"type": "node", "id": 4562362180, "lat": 40.853771, "lon": 26.6367933}, {"type": "node", "id": 4562362181, "lat": 40.8538698, "lon": 26.6368127}, {"type": "node", "id": 4562362182, "lat": 40.8537527, "lon": 26.6366297}, {"type": "node", "id": 4562362183, "lat": 40.853649, "lon": 26.6366116}, {"type": "node", "id": 4562362184, "lat": 40.8536359, "lon": 26.6367433}, {"type": "node", "id": 4562362185, "lat": 40.8537396, "lon": 26.6367614}, {"type": "node", "id": 4562362186, "lat": 40.8538106, "lon": 26.6363265}, {"type": "node", "id": 4562362187, "lat": 40.8537904, "lon": 26.6365406}, {"type": "node", "id": 4562362188, "lat": 40.8537067, "lon": 26.6365268}, {"type": "node", "id": 4562362689, "lat": 40.8537269, "lon": 26.6363126}, {"type": "node", "id": 4562362690, "lat": 40.8539471, "lon": 26.6363568}, {"type": "node", "id": 4562362691, "lat": 40.8539267, "lon": 26.6365545}, {"type": "node", "id": 4562362692, "lat": 40.8538686, "lon": 26.636544}, {"type": "node", "id": 4562362693, "lat": 40.853889, "lon": 26.6363464}, {"type": "node", "id": 4562362695, "lat": 40.8538427, "lon": 26.636537}, {"type": "node", "id": 4562362696, "lat": 40.853806, "lon": 26.6365306}, {"type": "node", "id": 4562362697, "lat": 40.8538165, "lon": 26.6364253}, {"type": "node", "id": 4562362698, "lat": 40.8538533, "lon": 26.6364317}, {"type": "node", "id": 4588205340, "lat": 40.8551954, "lon": 26.6347654}, {"type": "node", "id": 4589999489, "lat": 40.8522838, "lon": 26.6348412}, {"type": "node", "id": 4589999490, "lat": 40.8523159, "lon": 26.6351732}, {"type": "node", "id": 4589999491, "lat": 40.8524103, "lon": 26.6351573}, {"type": "node", "id": 4589999492, "lat": 40.8523781, "lon": 26.6348252}, {"type": "node", "id": 4589999493, "lat": 40.8521306, "lon": 26.6349675}, {"type": "node", "id": 4589999494, "lat": 40.8521315, "lon": 26.6351917}, {"type": "node", "id": 4589999495, "lat": 40.8519899, "lon": 26.6351926}, {"type": "node", "id": 4589999496, "lat": 40.8519891, "lon": 26.6349685}, {"type": "node", "id": 4589999497, "lat": 40.8527807, "lon": 26.634438}, {"type": "node", "id": 4589999498, "lat": 40.852773, "lon": 26.6346636}, {"type": "node", "id": 4589999499, "lat": 40.8526727, "lon": 26.6346576}, {"type": "node", "id": 4589999500, "lat": 40.8526804, "lon": 26.634432}, {"type": "node", "id": 4589999501, "lat": 40.8540221, "lon": 26.6353539}, {"type": "node", "id": 4589999502, "lat": 40.8538512, "lon": 26.6353519}, {"type": "node", "id": 4589999503, "lat": 40.8538505, "lon": 26.635463}, {"type": "node", "id": 4589999504, "lat": 40.8540214, "lon": 26.635465}, {"type": "node", "id": 4589999505, "lat": 40.8538024, "lon": 26.6356324}, {"type": "node", "id": 4589999506, "lat": 40.8536853, "lon": 26.6356266}, {"type": "node", "id": 4589999507, "lat": 40.8536816, "lon": 26.6357583}, {"type": "node", "id": 4589999508, "lat": 40.8537986, "lon": 26.6357642}, {"type": "node", "id": 4589999509, "lat": 40.853656, "lon": 26.6356428}, {"type": "node", "id": 4589999510, "lat": 40.8535063, "lon": 26.6356326}, {"type": "node", "id": 4589999511, "lat": 40.8535012, "lon": 26.6357627}, {"type": "node", "id": 4589999512, "lat": 40.8536509, "lon": 26.6357729}, {"type": "node", "id": 4589999513, "lat": 40.8536879, "lon": 26.6358426}, {"type": "node", "id": 4589999514, "lat": 40.8535022, "lon": 26.6358303}, {"type": "node", "id": 4589999515, "lat": 40.853497, "lon": 26.6359675}, {"type": "node", "id": 4589999516, "lat": 40.8536827, "lon": 26.6359799}, {"type": "node", "id": 4589999517, "lat": 40.8533245, "lon": 26.6366582}, {"type": "node", "id": 4589999518, "lat": 40.8531503, "lon": 26.6366067}, {"type": "node", "id": 4589999519, "lat": 40.8531182, "lon": 26.6367968}, {"type": "node", "id": 4589999520, "lat": 40.8532923, "lon": 26.6368482}, {"type": "node", "id": 4589999553, "lat": 40.8521394, "lon": 26.6373476}, {"type": "node", "id": 4589999554, "lat": 40.8521043, "lon": 26.6375854}, {"type": "node", "id": 4589999555, "lat": 40.8520034, "lon": 26.6375594}, {"type": "node", "id": 4589999556, "lat": 40.8520385, "lon": 26.6373216}, {"type": "node", "id": 4589999557, "lat": 40.85208, "lon": 26.6385043}, {"type": "node", "id": 4589999558, "lat": 40.852047, "lon": 26.6386683}, {"type": "node", "id": 4589999559, "lat": 40.8521418, "lon": 26.6387017}, {"type": "node", "id": 4589999560, "lat": 40.8521748, "lon": 26.6385376}, {"type": "node", "id": 4591856444, "lat": 40.8523061, "lon": 26.6385844}, {"type": "node", "id": 4591856445, "lat": 40.8522054, "lon": 26.6385456}, {"type": "node", "id": 4591856446, "lat": 40.8521663, "lon": 26.6387228}, {"type": "node", "id": 4591856447, "lat": 40.852267, "lon": 26.6387616}, {"type": "node", "id": 4591856448, "lat": 40.8519031, "lon": 26.6384401}, {"type": "node", "id": 4591856452, "lat": 40.8520346, "lon": 26.6384966}, {"type": "node", "id": 4591856453, "lat": 40.8519429, "lon": 26.638462}, {"type": "node", "id": 4591856454, "lat": 40.8519087, "lon": 26.6386203}, {"type": "node", "id": 4591856455, "lat": 40.8520005, "lon": 26.6386548}, {"type": "node", "id": 4591856460, "lat": 40.8521922, "lon": 26.6387381}, {"type": "node", "id": 4591856461, "lat": 40.8521199, "lon": 26.6387092}, {"type": "node", "id": 4591856462, "lat": 40.8520792, "lon": 26.6388868}, {"type": "node", "id": 4591856463, "lat": 40.8521515, "lon": 26.6389158}, {"type": "node", "id": 4592169346, "lat": 40.8524372, "lon": 26.6374561}, {"type": "node", "id": 4592169347, "lat": 40.8523919, "lon": 26.6376929}, {"type": "node", "id": 4592169348, "lat": 40.8522933, "lon": 26.6376599}, {"type": "node", "id": 4592169349, "lat": 40.8523386, "lon": 26.6374232}, {"type": "node", "id": 4592169350, "lat": 40.8522971, "lon": 26.6374041}, {"type": "node", "id": 4592169351, "lat": 40.8522576, "lon": 26.6376309}, {"type": "node", "id": 4592169352, "lat": 40.8521495, "lon": 26.637598}, {"type": "node", "id": 4592169353, "lat": 40.852189, "lon": 26.6373712}, {"type": "node", "id": 4592169356, "lat": 40.8518928, "lon": 26.6368656}, {"type": "node", "id": 4592169357, "lat": 40.8519312, "lon": 26.6366341}, {"type": "node", "id": 4592169358, "lat": 40.8519551, "lon": 26.6356882}, {"type": "node", "id": 4592169359, "lat": 40.8519247, "lon": 26.6358655}, {"type": "node", "id": 4592169360, "lat": 40.852016, "lon": 26.6358929}, {"type": "node", "id": 4592169361, "lat": 40.8520464, "lon": 26.6357156}, {"type": "node", "id": 4592169362, "lat": 40.8523595, "lon": 26.6344233}, {"type": "node", "id": 4592169363, "lat": 40.852354, "lon": 26.6345243}, {"type": "node", "id": 4592169364, "lat": 40.8524555, "lon": 26.6345339}, {"type": "node", "id": 4592169365, "lat": 40.8524609, "lon": 26.6344329}, {"type": "node", "id": 4624282688, "lat": 40.852052, "lon": 26.6368711}, {"type": "node", "id": 4624282989, "lat": 40.851939, "lon": 26.6368331}, {"type": "node", "id": 4624282990, "lat": 40.8519742, "lon": 26.63665}, {"type": "node", "id": 4624282991, "lat": 40.8520872, "lon": 26.6366879}, {"type": "node", "id": 4634689052, "lat": 40.8540909, "lon": 26.6371833}, {"type": "node", "id": 4634689053, "lat": 40.8539994, "lon": 26.6371715}, {"type": "node", "id": 4635103497, "lat": 40.8521417, "lon": 26.6342809}, {"type": "node", "id": 4635103498, "lat": 40.8521302, "lon": 26.633899}, {"type": "node", "id": 4635103499, "lat": 40.8526265, "lon": 26.6354029}, {"type": "node", "id": 4635103500, "lat": 40.8526134, "lon": 26.635271}, {"type": "node", "id": 4635103501, "lat": 40.8519495, "lon": 26.6342868}, {"type": "node", "id": 4635103502, "lat": 40.8525095, "lon": 26.6352891}, {"type": "node", "id": 4635103503, "lat": 40.8525226, "lon": 26.635421}, {"type": "node", "id": 4635103504, "lat": 40.8519351, "lon": 26.6338826}, {"type": "node", "id": 4637289142, "lat": 40.8535849, "lon": 26.6376565}, {"type": "node", "id": 4654350100, "lat": 40.8520945, "lon": 26.6360028}, {"type": "node", "id": 4654350101, "lat": 40.8538743, "lon": 26.6372308}, {"type": "node", "id": 4654350102, "lat": 40.8521162, "lon": 26.6361505}, {"type": "node", "id": 4654350103, "lat": 40.8537697, "lon": 26.6372011}, {"type": "node", "id": 4654350104, "lat": 40.8537355, "lon": 26.6371965}, {"type": "node", "id": 4654350105, "lat": 40.8521367, "lon": 26.6360128}, {"type": "node", "id": 4654350106, "lat": 40.8523504, "lon": 26.6355322}, {"type": "node", "id": 4654350107, "lat": 40.8524643, "lon": 26.6355286}, {"type": "node", "id": 4654350108, "lat": 40.853556, "lon": 26.6372595}, {"type": "node", "id": 4654350109, "lat": 40.8524514, "lon": 26.6353074}, {"type": "node", "id": 4654350110, "lat": 40.8522997, "lon": 26.6360552}, {"type": "node", "id": 4654350111, "lat": 40.8523394, "lon": 26.6353339}, {"type": "node", "id": 4654350112, "lat": 40.8536029, "lon": 26.637119}, {"type": "node", "id": 4654350113, "lat": 40.8519613, "lon": 26.6361197}, {"type": "node", "id": 4654350116, "lat": 40.8519875, "lon": 26.6359696}, {"type": "node", "id": 4654350118, "lat": 40.8536885, "lon": 26.637337}, {"type": "node", "id": 4654350119, "lat": 40.8523425, "lon": 26.6356407}, {"type": "node", "id": 4654350120, "lat": 40.8522403, "lon": 26.6353553}, {"type": "node", "id": 4654350121, "lat": 40.8520671, "lon": 26.6361534}, {"type": "node", "id": 4654350123, "lat": 40.8523471, "lon": 26.6353253}, {"type": "node", "id": 4654350125, "lat": 40.85375, "lon": 26.6373225}, {"type": "node", "id": 4654350126, "lat": 40.8538545, "lon": 26.6373522}, {"type": "node", "id": 4654350129, "lat": 40.8522792, "lon": 26.6361929}, {"type": "node", "id": 4654350130, "lat": 40.8522403, "lon": 26.6356407}, {"type": "node", "id": 4831363377, "lat": 40.8550252, "lon": 26.6372461}, {"type": "node", "id": 4833649911, "lat": 40.854394, "lon": 26.6366579}, {"type": "node", "id": 4833649912, "lat": 40.8539134, "lon": 26.6365875}, {"type": "node", "id": 4835412668, "lat": 40.8550881, "lon": 26.6348098}, {"type": "node", "id": 4843954187, "lat": 40.8519384, "lon": 26.6338799}, {"type": "node", "id": 4843954188, "lat": 40.8521319, "lon": 26.6338787}, {"type": "node", "id": 4843954195, "lat": 40.8521685, "lon": 26.6338614}, {"type": "node", "id": 4843954196, "lat": 40.8523301, "lon": 26.633861}, {"type": "node", "id": 4843954197, "lat": 40.8523306, "lon": 26.6338627}, {"type": "node", "id": 4843954198, "lat": 40.8521786, "lon": 26.6338628}, {"type": "node", "id": 4843954199, "lat": 40.8521787, "lon": 26.6339631}, {"type": "node", "id": 4843954200, "lat": 40.8523307, "lon": 26.633963}, {"type": "node", "id": 4843954201, "lat": 40.85233, "lon": 26.6339648}, {"type": "node", "id": 4843954202, "lat": 40.8521643, "lon": 26.633965}, {"type": "node", "id": 4843954203, "lat": 40.8521644, "lon": 26.6340757}, {"type": "node", "id": 4843954204, "lat": 40.8523301, "lon": 26.6340754}, {"type": "node", "id": 4843954205, "lat": 40.8523291, "lon": 26.6340782}, {"type": "node", "id": 4843954206, "lat": 40.8521645, "lon": 26.634079}, {"type": "node", "id": 4843954207, "lat": 40.8521645, "lon": 26.6341161}, {"type": "node", "id": 4843954208, "lat": 40.8521427, "lon": 26.6341175}, {"type": "node", "id": 4843954209, "lat": 40.8521461, "lon": 26.6342816}, {"type": "node", "id": 4843954210, "lat": 40.8523288, "lon": 26.634293}, {"type": "node", "id": 4843954211, "lat": 40.8533954, "lon": 26.6347138}, {"type": "node", "id": 4843954212, "lat": 40.8531617, "lon": 26.6347443}, {"type": "node", "id": 4843954213, "lat": 40.8531724, "lon": 26.6350035}, {"type": "node", "id": 4843954214, "lat": 40.85341, "lon": 26.6349842}, {"type": "node", "id": 4843954215, "lat": 40.853929, "lon": 26.6371539}, {"type": "node", "id": 4844535929, "lat": 40.8521368, "lon": 26.6367008}, {"type": "node", "id": 4844535930, "lat": 40.852102, "lon": 26.6369046}, {"type": "node", "id": 4844535931, "lat": 40.8522796, "lon": 26.6369575}, {"type": "node", "id": 4844535932, "lat": 40.8523144, "lon": 26.6367537}, {"type": "node", "id": 4844535933, "lat": 40.8520072, "lon": 26.6362977}, {"type": "node", "id": 4844535934, "lat": 40.851977, "lon": 26.6364796}, {"type": "node", "id": 4844535935, "lat": 40.8522008, "lon": 26.6365446}, {"type": "node", "id": 4844535936, "lat": 40.852231, "lon": 26.6363626}, {"type": "node", "id": 4844535937, "lat": 40.852577, "lon": 26.6364631}, {"type": "node", "id": 4844535938, "lat": 40.8524987, "lon": 26.6364408}, {"type": "node", "id": 4844535939, "lat": 40.8524667, "lon": 26.6366376}, {"type": "node", "id": 4844535940, "lat": 40.852545, "lon": 26.6366598}, {"type": "node", "id": 4844535941, "lat": 40.8523855, "lon": 26.6367703}, {"type": "node", "id": 4844535942, "lat": 40.8523449, "lon": 26.6369746}, {"type": "node", "id": 4844535943, "lat": 40.8524782, "lon": 26.6370209}, {"type": "node", "id": 4844535944, "lat": 40.8525188, "lon": 26.6368166}, {"type": "node", "id": 4844535945, "lat": 40.8528739, "lon": 26.6375137}, {"type": "node", "id": 4844535946, "lat": 40.8528549, "lon": 26.6376058}, {"type": "node", "id": 4844535947, "lat": 40.8530057, "lon": 26.6376478}, {"type": "node", "id": 4844535948, "lat": 40.8530416, "lon": 26.6375658}, {"type": "node", "id": 4844535949, "lat": 40.8528697, "lon": 26.6383167}, {"type": "node", "id": 4844535950, "lat": 40.8527557, "lon": 26.6385318}, {"type": "node", "id": 4844535951, "lat": 40.8529569, "lon": 26.6387181}, {"type": "node", "id": 4844535952, "lat": 40.8530709, "lon": 26.638503}, {"type": "node", "id": 4846666093, "lat": 40.8529098, "lon": 26.6352307}, {"type": "node", "id": 4846666094, "lat": 40.8527658, "lon": 26.6352576}, {"type": "node", "id": 4846666095, "lat": 40.8527801, "lon": 26.6355143}, {"type": "node", "id": 4846666096, "lat": 40.8529242, "lon": 26.6355586}, {"type": "node", "id": 4846666097, "lat": 40.8527609, "lon": 26.6352608}, {"type": "node", "id": 4846666098, "lat": 40.8527759, "lon": 26.6354889}, {"type": "node", "id": 4846666099, "lat": 40.8526574, "lon": 26.6355026}, {"type": "node", "id": 4846666100, "lat": 40.8526423, "lon": 26.6352745}, {"type": "node", "id": 4846666101, "lat": 40.8530685, "lon": 26.6348035}, {"type": "node", "id": 4846666102, "lat": 40.8529219, "lon": 26.6348093}, {"type": "node", "id": 4846666103, "lat": 40.8529413, "lon": 26.6350603}, {"type": "node", "id": 4846666104, "lat": 40.85308, "lon": 26.635044}, {"type": "node", "id": 4846666105, "lat": 40.853393, "lon": 26.6346837}, {"type": "node", "id": 4846666106, "lat": 40.8531793, "lon": 26.6347082}, {"type": "node", "id": 4846666107, "lat": 40.8531881, "lon": 26.6344513}, {"type": "node", "id": 4846666108, "lat": 40.8533797, "lon": 26.634463}, {"type": "node", "id": 4846666109, "lat": 40.8530457, "lon": 26.6340693}, {"type": "node", "id": 4846666110, "lat": 40.8529509, "lon": 26.6340665}, {"type": "node", "id": 4846666111, "lat": 40.8529493, "lon": 26.6341657}, {"type": "node", "id": 4846666112, "lat": 40.8530351, "lon": 26.6341682}, {"type": "node", "id": 4846666113, "lat": 40.8530444, "lon": 26.6341461}, {"type": "node", "id": 4846666114, "lat": 40.8530474, "lon": 26.6340402}, {"type": "node", "id": 4846666129, "lat": 40.8518792, "lon": 26.6353979}, {"type": "node", "id": 4846666142, "lat": 40.8528634, "lon": 26.6365365}, {"type": "node", "id": 4846666143, "lat": 40.8528319, "lon": 26.6367256}, {"type": "node", "id": 4846666144, "lat": 40.8527305, "lon": 26.6366961}, {"type": "node", "id": 4846666145, "lat": 40.8527599, "lon": 26.6365083}, {"type": "node", "id": 4846666146, "lat": 40.8529797, "lon": 26.6370852}, {"type": "node", "id": 4846666147, "lat": 40.8528912, "lon": 26.6370588}, {"type": "node", "id": 4846666148, "lat": 40.8528742, "lon": 26.6371582}, {"type": "node", "id": 4846666149, "lat": 40.8529627, "lon": 26.6371847}, {"type": "node", "id": 4846666150, "lat": 40.8528651, "lon": 26.6375294}, {"type": "node", "id": 4846666151, "lat": 40.8528337, "lon": 26.6376953}, {"type": "node", "id": 4846666152, "lat": 40.8527686, "lon": 26.6376737}, {"type": "node", "id": 4846666153, "lat": 40.8528001, "lon": 26.6375078}, {"type": "node", "id": 4846666154, "lat": 40.8529339, "lon": 26.6378131}, {"type": "node", "id": 4846666155, "lat": 40.8527422, "lon": 26.6377315}, {"type": "node", "id": 4846666156, "lat": 40.8526589, "lon": 26.6379941}, {"type": "node", "id": 4846666157, "lat": 40.8526274, "lon": 26.6380804}, {"type": "node", "id": 4846666158, "lat": 40.8527375, "lon": 26.6381336}, {"type": "node", "id": 4846666159, "lat": 40.8527626, "lon": 26.6380596}, {"type": "node", "id": 4846666160, "lat": 40.852822, "lon": 26.638085}, {"type": "node", "id": 4846666161, "lat": 40.8525017, "lon": 26.6378018}, {"type": "node", "id": 4846666162, "lat": 40.8524106, "lon": 26.6377647}, {"type": "node", "id": 4846666163, "lat": 40.8523605, "lon": 26.6379799}, {"type": "node", "id": 4846666164, "lat": 40.8524517, "lon": 26.638017}, {"type": "node", "id": 4846666165, "lat": 40.8524074, "lon": 26.6377559}, {"type": "node", "id": 4846666166, "lat": 40.8523557, "lon": 26.6379804}, {"type": "node", "id": 4846666167, "lat": 40.8522157, "lon": 26.6379241}, {"type": "node", "id": 4846666168, "lat": 40.8522673, "lon": 26.6376996}, {"type": "node", "id": 4846666169, "lat": 40.8520133, "lon": 26.6372922}, {"type": "node", "id": 4846666170, "lat": 40.8519059, "lon": 26.6372662}, {"type": "node", "id": 4846666172, "lat": 40.8519597, "lon": 26.6375125}, {"type": "node", "id": 4846666173, "lat": 40.8519733, "lon": 26.6374144}, {"type": "node", "id": 4846666174, "lat": 40.8519956, "lon": 26.6374198}, {"type": "node", "id": 4846666184, "lat": 40.8521441, "lon": 26.6369678}, {"type": "node", "id": 4846666185, "lat": 40.8521068, "lon": 26.6371819}, {"type": "node", "id": 4846666186, "lat": 40.8522292, "lon": 26.6372192}, {"type": "node", "id": 4846666187, "lat": 40.8522665, "lon": 26.6370051}, {"type": "node", "id": 4846666188, "lat": 40.8519834, "lon": 26.6369477}, {"type": "node", "id": 4846666189, "lat": 40.851951, "lon": 26.6371451}, {"type": "node", "id": 4846666190, "lat": 40.8520842, "lon": 26.6371834}, {"type": "node", "id": 4846666191, "lat": 40.8521117, "lon": 26.637016}, {"type": "node", "id": 4846666192, "lat": 40.8520346, "lon": 26.6369938}, {"type": "node", "id": 4846666193, "lat": 40.8520395, "lon": 26.6369639}, {"type": "node", "id": 4846666194, "lat": 40.8519394, "lon": 26.6369379}, {"type": "node", "id": 4846666195, "lat": 40.8519082, "lon": 26.6371217}, {"type": "node", "id": 4846680309, "lat": 40.8521617, "lon": 26.6390026}, {"type": "node", "id": 4846680310, "lat": 40.8521244, "lon": 26.6391621}, {"type": "node", "id": 4846680311, "lat": 40.8520338, "lon": 26.6391215}, {"type": "node", "id": 4846680312, "lat": 40.8520646, "lon": 26.6390012}, {"type": "node", "id": 4846680313, "lat": 40.8520896, "lon": 26.6390124}, {"type": "node", "id": 4846680314, "lat": 40.8520993, "lon": 26.6389746}, {"type": "node", "id": 4851998157, "lat": 40.8521893, "lon": 26.635351}, {"type": "node", "id": 4851998158, "lat": 40.8520184, "lon": 26.6353767}, {"type": "node", "id": 4851998159, "lat": 40.8520026, "lon": 26.6354076}, {"type": "node", "id": 4851998160, "lat": 40.8520003, "lon": 26.635438}, {"type": "node", "id": 4851998161, "lat": 40.851992, "lon": 26.635438}, {"type": "node", "id": 4851998162, "lat": 40.8519787, "lon": 26.6355343}, {"type": "node", "id": 4851998163, "lat": 40.8520251, "lon": 26.6355465}, {"type": "node", "id": 4851998164, "lat": 40.8520251, "lon": 26.6355582}, {"type": "node", "id": 4851998165, "lat": 40.8520613, "lon": 26.6355705}, {"type": "node", "id": 4851998166, "lat": 40.8520618, "lon": 26.635553}, {"type": "node", "id": 4851998168, "lat": 40.8522282, "lon": 26.6356026}, {"type": "node", "id": 4851998169, "lat": 40.852226, "lon": 26.6354777}, {"type": "node", "id": 4851998170, "lat": 40.8521911, "lon": 26.6354759}, {"type": "node", "id": 4852204307, "lat": 40.8519124, "lon": 26.6359587}, {"type": "node", "id": 4852204308, "lat": 40.8518917, "lon": 26.6360785}, {"type": "node", "id": 4852204309, "lat": 40.8519632, "lon": 26.6361001}, {"type": "node", "id": 4852204310, "lat": 40.8519839, "lon": 26.6359803}, {"type": "node", "id": 4854196898, "lat": 40.8534423, "lon": 26.637641}, {"type": "node", "id": 4854196899, "lat": 40.8533473, "lon": 26.637843}, {"type": "node", "id": 4854196900, "lat": 40.8534447, "lon": 26.6379232}, {"type": "node", "id": 4854196901, "lat": 40.8535397, "lon": 26.6377212}, {"type": "node", "id": 4854196902, "lat": 40.8535601, "lon": 26.6377796}, {"type": "node", "id": 4854196903, "lat": 40.8534837, "lon": 26.6379435}, {"type": "node", "id": 4854196904, "lat": 40.8535823, "lon": 26.6380238}, {"type": "node", "id": 4854196905, "lat": 40.8536587, "lon": 26.6378599}, {"type": "node", "id": 4854196906, "lat": 40.8533106, "lon": 26.6379289}, {"type": "node", "id": 4854196907, "lat": 40.8532365, "lon": 26.6380973}, {"type": "node", "id": 4854196908, "lat": 40.8533596, "lon": 26.6381921}, {"type": "node", "id": 4854196909, "lat": 40.8534146, "lon": 26.6380673}, {"type": "node", "id": 4854196910, "lat": 40.853361, "lon": 26.6380261}, {"type": "node", "id": 4854196911, "lat": 40.8533803, "lon": 26.6379825}, {"type": "node", "id": 4909146490, "lat": 40.8533859, "lon": 26.6358229}, {"type": "node", "id": 4909146491, "lat": 40.8532371, "lon": 26.6358225}, {"type": "node", "id": 4909146492, "lat": 40.8532369, "lon": 26.6359878}, {"type": "node", "id": 4909146493, "lat": 40.8533857, "lon": 26.6359881}, {"type": "node", "id": 4909146494, "lat": 40.8533703, "lon": 26.6360304}, {"type": "node", "id": 4909146495, "lat": 40.8531609, "lon": 26.6360198}, {"type": "node", "id": 4909146496, "lat": 40.8531552, "lon": 26.6362178}, {"type": "node", "id": 4909146497, "lat": 40.8533645, "lon": 26.6362283}, {"type": "node", "id": 4909146498, "lat": 40.8531443, "lon": 26.6358375}, {"type": "node", "id": 4909146499, "lat": 40.8530515, "lon": 26.6358239}, {"type": "node", "id": 4909146500, "lat": 40.8530408, "lon": 26.6359515}, {"type": "node", "id": 4909146501, "lat": 40.8531336, "lon": 26.6359651}, {"type": "node", "id": 4909146502, "lat": 40.8530455, "lon": 26.6369129}, {"type": "node", "id": 4909146503, "lat": 40.8529389, "lon": 26.6368868}, {"type": "node", "id": 4909146504, "lat": 40.852924, "lon": 26.6369935}, {"type": "node", "id": 4909146505, "lat": 40.8530306, "lon": 26.6370196}, {"type": "node", "id": 4909146506, "lat": 40.852669, "lon": 26.6372149}, {"type": "node", "id": 4909146507, "lat": 40.8526452, "lon": 26.6373416}, {"type": "node", "id": 4909146508, "lat": 40.8525473, "lon": 26.6373094}, {"type": "node", "id": 4909146509, "lat": 40.8525711, "lon": 26.6371828}, {"type": "node", "id": 4909146510, "lat": 40.8528495, "lon": 26.6374129}, {"type": "node", "id": 4909146511, "lat": 40.8529529, "lon": 26.6374423}, {"type": "node", "id": 4909146512, "lat": 40.8529722, "lon": 26.6373234}, {"type": "node", "id": 4909146513, "lat": 40.8528688, "lon": 26.637294}, {"type": "node", "id": 4909146514, "lat": 40.8530798, "lon": 26.6371286}, {"type": "node", "id": 4909146515, "lat": 40.8529979, "lon": 26.6374253}, {"type": "node", "id": 4909146516, "lat": 40.8531028, "lon": 26.6374759}, {"type": "node", "id": 4909146517, "lat": 40.8531846, "lon": 26.6371791}, {"type": "node", "id": 4909146518, "lat": 40.8532293, "lon": 26.6369564}, {"type": "node", "id": 4909146519, "lat": 40.8531274, "lon": 26.6369331}, {"type": "node", "id": 4909146520, "lat": 40.8531132, "lon": 26.6370411}, {"type": "node", "id": 4909146921, "lat": 40.8532152, "lon": 26.6370644}, {"type": "node", "id": 4909770997, "lat": 40.852329, "lon": 26.6346779}, {"type": "node", "id": 4909770998, "lat": 40.8522169, "lon": 26.6346782}, {"type": "node", "id": 4909770999, "lat": 40.852217, "lon": 26.6347853}, {"type": "node", "id": 4909771000, "lat": 40.8523291, "lon": 26.634785}, {"type": "node", "id": 4909771001, "lat": 40.8525534, "lon": 26.634807}, {"type": "node", "id": 4909771002, "lat": 40.8524404, "lon": 26.6348247}, {"type": "node", "id": 4909771003, "lat": 40.852468, "lon": 26.6351313}, {"type": "node", "id": 4909771004, "lat": 40.852581, "lon": 26.6351135}, {"type": "node", "id": 4909771005, "lat": 40.853381, "lon": 26.6354575}, {"type": "node", "id": 4909771006, "lat": 40.8532288, "lon": 26.6351769}, {"type": "node", "id": 4909771007, "lat": 40.8530474, "lon": 26.6352095}, {"type": "node", "id": 4909771008, "lat": 40.8530516, "lon": 26.6354676}, {"type": "node", "id": 4909771009, "lat": 40.8531496, "lon": 26.6354615}, {"type": "node", "id": 4909771010, "lat": 40.853235, "lon": 26.63546}, {"type": "node", "id": 4909771011, "lat": 40.8534027, "lon": 26.6351441}, {"type": "node", "id": 4909771012, "lat": 40.8533914, "lon": 26.6354578}, {"type": "node", "id": 4909771013, "lat": 40.8529253, "lon": 26.6354839}, {"type": "node", "id": 4909771014, "lat": 40.8531308, "lon": 26.635517}, {"type": "node", "id": 4909771015, "lat": 40.85304, "lon": 26.6355081}, {"type": "node", "id": 4909771016, "lat": 40.8530254, "lon": 26.6357688}, {"type": "node", "id": 4909771017, "lat": 40.8531162, "lon": 26.6357776}, {"type": "node", "id": 4909771018, "lat": 40.8530196, "lon": 26.6356961}, {"type": "node", "id": 4909771019, "lat": 40.8529985, "lon": 26.6358201}, {"type": "node", "id": 4909771020, "lat": 40.8528961, "lon": 26.6357897}, {"type": "node", "id": 4909771221, "lat": 40.8529172, "lon": 26.6356656}, {"type": "node", "id": 4909771222, "lat": 40.8526106, "lon": 26.6356972}, {"type": "node", "id": 4909771223, "lat": 40.8525275, "lon": 26.6356755}, {"type": "node", "id": 4909771224, "lat": 40.8525471, "lon": 26.6355446}, {"type": "node", "id": 4909771225, "lat": 40.8526302, "lon": 26.6355663}, {"type": "node", "id": 4909771226, "lat": 40.8527786, "lon": 26.6355418}, {"type": "node", "id": 4909771227, "lat": 40.8527444, "lon": 26.6357539}, {"type": "node", "id": 4909771228, "lat": 40.852788, "lon": 26.6357662}, {"type": "node", "id": 4909771229, "lat": 40.8527916, "lon": 26.6357437}, {"type": "node", "id": 4909771230, "lat": 40.8528393, "lon": 26.6357572}, {"type": "node", "id": 4909771231, "lat": 40.8528624, "lon": 26.6356133}, {"type": "node", "id": 4909771232, "lat": 40.8528066, "lon": 26.6355976}, {"type": "node", "id": 4909771233, "lat": 40.852814, "lon": 26.6355518}, {"type": "node", "id": 4909771234, "lat": 40.8527824, "lon": 26.6361809}, {"type": "node", "id": 4909771235, "lat": 40.8527548, "lon": 26.6363348}, {"type": "node", "id": 4909771236, "lat": 40.8528485, "lon": 26.6363642}, {"type": "node", "id": 4909771237, "lat": 40.8528761, "lon": 26.6362103}, {"type": "node", "id": 4909771238, "lat": 40.8528363, "lon": 26.6359672}, {"type": "node", "id": 4909771239, "lat": 40.852822, "lon": 26.636056}, {"type": "node", "id": 4909771240, "lat": 40.8528879, "lon": 26.6360745}, {"type": "node", "id": 4909771241, "lat": 40.8529022, "lon": 26.6359856}, {"type": "node", "id": 4909771242, "lat": 40.8528331, "lon": 26.6359031}, {"type": "node", "id": 4909771243, "lat": 40.8527383, "lon": 26.6358764}, {"type": "node", "id": 4909771244, "lat": 40.8527154, "lon": 26.6360184}, {"type": "node", "id": 4909771245, "lat": 40.8528102, "lon": 26.6360451}, {"type": "node", "id": 4909771246, "lat": 40.8527042, "lon": 26.6360242}, {"type": "node", "id": 4909771247, "lat": 40.8528112, "lon": 26.636054}, {"type": "node", "id": 4909771248, "lat": 40.8527975, "lon": 26.6361403}, {"type": "node", "id": 4909771249, "lat": 40.8526904, "lon": 26.6361105}, {"type": "node", "id": 4909771250, "lat": 40.8520793, "lon": 26.6357303}, {"type": "node", "id": 4909771251, "lat": 40.8520511, "lon": 26.6358977}, {"type": "node", "id": 4909771252, "lat": 40.8521593, "lon": 26.6359296}, {"type": "node", "id": 4909771253, "lat": 40.8521706, "lon": 26.6357781}, {"type": "node", "id": 4909771254, "lat": 40.8525201, "lon": 26.6361129}, {"type": "node", "id": 4909771255, "lat": 40.8524973, "lon": 26.6362624}, {"type": "node", "id": 4909771256, "lat": 40.8526029, "lon": 26.6362907}, {"type": "node", "id": 4909771257, "lat": 40.8526257, "lon": 26.6361411}, {"type": "node", "id": 4909771258, "lat": 40.8525124, "lon": 26.6361085}, {"type": "node", "id": 4909771259, "lat": 40.8524887, "lon": 26.6362588}, {"type": "node", "id": 4909771260, "lat": 40.852343, "lon": 26.6362186}, {"type": "node", "id": 4909771261, "lat": 40.8523667, "lon": 26.6360683}, {"type": "node", "id": 4909771262, "lat": 40.8522966, "lon": 26.6369679}, {"type": "node", "id": 4909771263, "lat": 40.8524335, "lon": 26.6370142}, {"type": "node", "id": 4909771264, "lat": 40.8524173, "lon": 26.6370982}, {"type": "node", "id": 4909771265, "lat": 40.8523724, "lon": 26.6370831}, {"type": "node", "id": 4909771266, "lat": 40.8523662, "lon": 26.6371153}, {"type": "node", "id": 4909771267, "lat": 40.8522991, "lon": 26.6370927}, {"type": "node", "id": 4909771268, "lat": 40.8523077, "lon": 26.6370479}, {"type": "node", "id": 4909771269, "lat": 40.8522828, "lon": 26.6370395}, {"type": "node", "id": 4909771270, "lat": 40.8529232, "lon": 26.6388103}, {"type": "node", "id": 4909771271, "lat": 40.8528602, "lon": 26.6389658}, {"type": "node", "id": 4909771272, "lat": 40.8527525, "lon": 26.6388458}, {"type": "node", "id": 4909771273, "lat": 40.8528125, "lon": 26.6387117}, {"type": "node", "id": 4909771274, "lat": 40.8527186, "lon": 26.6386335}, {"type": "node", "id": 4909771275, "lat": 40.8526484, "lon": 26.6387711}, {"type": "node", "id": 4909771276, "lat": 40.8527193, "lon": 26.6388343}, {"type": "node", "id": 4909771277, "lat": 40.8527895, "lon": 26.6386967}, {"type": "node", "id": 4909771278, "lat": 40.8526255, "lon": 26.6388239}, {"type": "node", "id": 4909771279, "lat": 40.8527957, "lon": 26.6389757}, {"type": "node", "id": 4909771280, "lat": 40.8527494, "lon": 26.6390663}, {"type": "node", "id": 4909771281, "lat": 40.8525792, "lon": 26.6389144}, {"type": "node", "id": 4911503960, "lat": 40.8530259, "lon": 26.6341788}, {"type": "node", "id": 4911503961, "lat": 40.8529583, "lon": 26.634175}, {"type": "node", "id": 4911503962, "lat": 40.8529541, "lon": 26.6343037}, {"type": "node", "id": 4911503963, "lat": 40.8530217, "lon": 26.6343076}, {"type": "node", "id": 4911503964, "lat": 40.8530098, "lon": 26.6344684}, {"type": "node", "id": 4911503967, "lat": 40.8529957, "lon": 26.6346556}, {"type": "node", "id": 4911503968, "lat": 40.8530911, "lon": 26.6346549}, {"type": "node", "id": 4911503969, "lat": 40.8531082, "lon": 26.634462}, {"type": "node", "id": 4911604966, "lat": 40.8527222, "lon": 26.6358462}, {"type": "node", "id": 4911604967, "lat": 40.8527067, "lon": 26.6359628}, {"type": "node", "id": 4911604968, "lat": 40.8526437, "lon": 26.6359481}, {"type": "node", "id": 4911604969, "lat": 40.8526591, "lon": 26.6358316}, {"type": "node", "id": 4911604970, "lat": 40.8526374, "lon": 26.6358808}, {"type": "node", "id": 4911604971, "lat": 40.852611, "lon": 26.6360191}, {"type": "node", "id": 4911604972, "lat": 40.8525546, "lon": 26.6360003}, {"type": "node", "id": 4911604973, "lat": 40.8525991, "lon": 26.6358971}, {"type": "node", "id": 4911604974, "lat": 40.8525814, "lon": 26.6358496}, {"type": "node", "id": 4911604975, "lat": 40.8525393, "lon": 26.6360699}, {"type": "node", "id": 4911604976, "lat": 40.8523981, "lon": 26.6360227}, {"type": "node", "id": 4911604977, "lat": 40.8524084, "lon": 26.635969}, {"type": "node", "id": 4911604978, "lat": 40.8524463, "lon": 26.6359816}, {"type": "node", "id": 4911604979, "lat": 40.8524781, "lon": 26.6358151}, {"type": "node", "id": 4911604980, "lat": 40.8522283, "lon": 26.635768}, {"type": "node", "id": 4911604981, "lat": 40.8521845, "lon": 26.6359464}, {"type": "node", "id": 4911604982, "lat": 40.8523044, "lon": 26.6359078}, {"type": "node", "id": 4911604983, "lat": 40.8524011, "lon": 26.6358137}, {"type": "node", "id": 4911604984, "lat": 40.8528508, "lon": 26.6372632}, {"type": "node", "id": 4911604985, "lat": 40.8527208, "lon": 26.6372188}, {"type": "node", "id": 4911604986, "lat": 40.8526952, "lon": 26.6373501}, {"type": "node", "id": 4911604987, "lat": 40.8528252, "lon": 26.6373944}, {"type": "node", "id": 4911604988, "lat": 40.8528529, "lon": 26.6368826}, {"type": "node", "id": 4911604989, "lat": 40.8527224, "lon": 26.6368482}, {"type": "node", "id": 4911604990, "lat": 40.8527257, "lon": 26.6368262}, {"type": "node", "id": 4911604991, "lat": 40.8526423, "lon": 26.6368043}, {"type": "node", "id": 4911604992, "lat": 40.852617, "lon": 26.6369723}, {"type": "node", "id": 4911604993, "lat": 40.8528309, "lon": 26.6370287}, {"type": "node", "id": 4911604994, "lat": 40.8526969, "lon": 26.6370097}, {"type": "node", "id": 4911604995, "lat": 40.8526172, "lon": 26.6369874}, {"type": "node", "id": 4911604996, "lat": 40.8525923, "lon": 26.6371428}, {"type": "node", "id": 4911604997, "lat": 40.8526348, "lon": 26.6371386}, {"type": "node", "id": 4911604998, "lat": 40.8527606, "lon": 26.6371064}, {"type": "node", "id": 4911604999, "lat": 40.8527429, "lon": 26.6372073}, {"type": "node", "id": 4911605000, "lat": 40.8528202, "lon": 26.637231}, {"type": "node", "id": 4911605001, "lat": 40.8528311, "lon": 26.6371689}, {"type": "node", "id": 4911605002, "lat": 40.8528172, "lon": 26.6371646}, {"type": "node", "id": 4911605003, "lat": 40.852828, "lon": 26.6371026}, {"type": "node", "id": 4911605004, "lat": 40.852801, "lon": 26.6370944}, {"type": "node", "id": 4911605005, "lat": 40.852797, "lon": 26.6371176}, {"type": "node", "id": 4911605006, "lat": 40.8535165, "lon": 26.6380647}, {"type": "node", "id": 4911605007, "lat": 40.8534409, "lon": 26.6382345}, {"type": "node", "id": 4911605008, "lat": 40.8534922, "lon": 26.6382713}, {"type": "node", "id": 4911605009, "lat": 40.8535643, "lon": 26.6380953}, {"type": "node", "id": 4911605010, "lat": 40.8535085, "lon": 26.6380659}, {"type": "node", "id": 4911605011, "lat": 40.8534339, "lon": 26.6382408}, {"type": "node", "id": 4911605012, "lat": 40.8533752, "lon": 26.6381971}, {"type": "node", "id": 4911605013, "lat": 40.8534309, "lon": 26.6380663}, {"type": "node", "id": 4911605014, "lat": 40.8534407, "lon": 26.6380736}, {"type": "node", "id": 4911605015, "lat": 40.8534596, "lon": 26.6380294}, {"type": "node", "id": 4911605016, "lat": 40.8539878, "lon": 26.638705}, {"type": "node", "id": 4911748642, "lat": 40.8523107, "lon": 26.6387445}, {"type": "node", "id": 4911748643, "lat": 40.8524832, "lon": 26.6388097}, {"type": "node", "id": 4911748644, "lat": 40.8525158, "lon": 26.6386593}, {"type": "node", "id": 4911748645, "lat": 40.8523432, "lon": 26.638594}, {"type": "node", "id": 4911748646, "lat": 40.8522711, "lon": 26.6388081}, {"type": "node", "id": 4911748647, "lat": 40.8522276, "lon": 26.6389462}, {"type": "node", "id": 4911748648, "lat": 40.8523855, "lon": 26.6390143}, {"type": "node", "id": 4911748649, "lat": 40.8524404, "lon": 26.6388878}, {"type": "node", "id": 4911748650, "lat": 40.8522771, "lon": 26.6387727}, {"type": "node", "id": 4911748651, "lat": 40.8522041, "lon": 26.6387453}, {"type": "node", "id": 4911748652, "lat": 40.852168, "lon": 26.6389249}, {"type": "node", "id": 4911748653, "lat": 40.8522195, "lon": 26.6389426}, {"type": "node", "id": 4936647802, "lat": 40.8530684, "lon": 26.638137}, {"type": "node", "id": 4936647803, "lat": 40.8530283, "lon": 26.6382343}, {"type": "node", "id": 4936647804, "lat": 40.8530738, "lon": 26.6382672}, {"type": "node", "id": 4936647805, "lat": 40.8530472, "lon": 26.6383317}, {"type": "node", "id": 4936647806, "lat": 40.8531082, "lon": 26.6383757}, {"type": "node", "id": 4936647807, "lat": 40.8531398, "lon": 26.6382991}, {"type": "node", "id": 4936647808, "lat": 40.8531254, "lon": 26.6382887}, {"type": "node", "id": 4936647809, "lat": 40.8531588, "lon": 26.6382078}, {"type": "node", "id": 4936647810, "lat": 40.8531263, "lon": 26.6381844}, {"type": "node", "id": 4936647811, "lat": 40.8531318, "lon": 26.6381711}, {"type": "node", "id": 4936647812, "lat": 40.8531069, "lon": 26.6381531}, {"type": "node", "id": 4936647813, "lat": 40.8531032, "lon": 26.6381621}, {"type": "node", "id": 4936721633, "lat": 40.853826, "lon": 26.6393974}, {"type": "node", "id": 4936721638, "lat": 40.8537028, "lon": 26.6374557}, {"type": "node", "id": 4936721639, "lat": 40.8536985, "lon": 26.637589}, {"type": "node", "id": 4936721640, "lat": 40.8538033, "lon": 26.6375949}, {"type": "node", "id": 4936721641, "lat": 40.8538076, "lon": 26.6374616}, {"type": "node", "id": 4936721642, "lat": 40.8536353, "lon": 26.6366017}, {"type": "node", "id": 4936721643, "lat": 40.8536228, "lon": 26.6367291}, {"type": "node", "id": 4936721644, "lat": 40.8534808, "lon": 26.6367048}, {"type": "node", "id": 4936721645, "lat": 40.8534933, "lon": 26.6365774}, {"type": "node", "id": 5120955043, "lat": 40.8523469, "lon": 26.6343377}, {"type": "node", "id": 5120955044, "lat": 40.8533733, "lon": 26.633838}, {"type": "node", "id": 5120957875, "lat": 40.8545838, "lon": 26.6338847}, {"type": "node", "id": 5120957876, "lat": 40.8540221, "lon": 26.6339548}, {"type": "node", "id": 5120957879, "lat": 40.853603, "lon": 26.6348242}, {"type": "node", "id": 5120957880, "lat": 40.8538938, "lon": 26.634778}, {"type": "node", "id": 5120957881, "lat": 40.8538891, "lon": 26.6347247}, {"type": "node", "id": 5120957882, "lat": 40.8543311, "lon": 26.6346666}, {"type": "node", "id": 5120957883, "lat": 40.8543373, "lon": 26.634734}, {"type": "node", "id": 5120957884, "lat": 40.8546474, "lon": 26.634695}, {"type": "node", "id": 5125614783, "lat": 40.8539121, "lon": 26.6349557}, {"type": "node", "id": 5125614784, "lat": 40.8543501, "lon": 26.6348938}, {"type": "node", "id": 5129764717, "lat": 40.8530886, "lon": 26.638554}, {"type": "node", "id": 5129764718, "lat": 40.8531193, "lon": 26.6384856}, {"type": "node", "id": 5129764719, "lat": 40.8532271, "lon": 26.6385701}, {"type": "node", "id": 5129764720, "lat": 40.8531964, "lon": 26.6386385}, {"type": "node", "id": 5132040723, "lat": 40.8534184, "lon": 26.6370329}, {"type": "node", "id": 5132040724, "lat": 40.8533506, "lon": 26.6372347}, {"type": "node", "id": 5132040725, "lat": 40.8534964, "lon": 26.6373202}, {"type": "node", "id": 5132040726, "lat": 40.8535642, "lon": 26.6371184}, {"type": "node", "id": 5132040727, "lat": 40.8535524, "lon": 26.6372878}, {"type": "node", "id": 5132040728, "lat": 40.853534, "lon": 26.6373525}, {"type": "node", "id": 5132040729, "lat": 40.8536646, "lon": 26.6374174}, {"type": "node", "id": 5132040730, "lat": 40.853683, "lon": 26.6373527}, {"type": "node", "id": 5132040731, "lat": 40.8533355, "lon": 26.637271}, {"type": "node", "id": 5132040732, "lat": 40.8532929, "lon": 26.6373833}, {"type": "node", "id": 5132040733, "lat": 40.8533859, "lon": 26.637445}, {"type": "node", "id": 5132040734, "lat": 40.8534088, "lon": 26.6373847}, {"type": "node", "id": 5132040735, "lat": 40.8534272, "lon": 26.6373969}, {"type": "node", "id": 5132040736, "lat": 40.8534469, "lon": 26.6373449}, {"type": "node", "id": 5138793547, "lat": 40.8520896, "lon": 26.6353668}, {"type": "node", "id": 5138793548, "lat": 40.8520922, "lon": 26.6355606}, {"type": "node", "id": 5140171612, "lat": 40.8533598, "lon": 26.6362513}, {"type": "node", "id": 5140171613, "lat": 40.8532204, "lon": 26.6362457}, {"type": "node", "id": 5140171614, "lat": 40.8532186, "lon": 26.6363254}, {"type": "node", "id": 5140171615, "lat": 40.853358, "lon": 26.636331}, {"type": "node", "id": 5140171616, "lat": 40.8529411, "lon": 26.6382382}, {"type": "node", "id": 5140171617, "lat": 40.85299, "lon": 26.6382736}, {"type": "node", "id": 5140171618, "lat": 40.8530428, "lon": 26.6381459}, {"type": "node", "id": 5140171619, "lat": 40.852994, "lon": 26.6381105}, {"type": "node", "id": 5140171620, "lat": 40.8531868, "lon": 26.6383448}, {"type": "node", "id": 5140173021, "lat": 40.8532601, "lon": 26.6383952}, {"type": "node", "id": 5140173022, "lat": 40.853299, "lon": 26.6382963}, {"type": "node", "id": 5140173023, "lat": 40.8532258, "lon": 26.6382459}, {"type": "node", "id": 5144375235, "lat": 40.8521497, "lon": 26.6390493}, {"type": "node", "id": 5144375236, "lat": 40.8521322, "lon": 26.6391315}, {"type": "node", "id": 5144375237, "lat": 40.8521671, "lon": 26.6390571}, {"type": "node", "id": 5144375238, "lat": 40.8521512, "lon": 26.6391191}, {"type": "node", "id": 5144375239, "lat": 40.8533602, "lon": 26.6363485}, {"type": "node", "id": 5144375240, "lat": 40.8531509, "lon": 26.6363404}, {"type": "node", "id": 5144375241, "lat": 40.8531483, "lon": 26.6364513}, {"type": "node", "id": 5144375242, "lat": 40.8533143, "lon": 26.636498}, {"type": "node", "id": 5144375243, "lat": 40.8533558, "lon": 26.6364991}, {"type": "node", "id": 5147926995, "lat": 40.8528541, "lon": 26.6376188}, {"type": "node", "id": 5147926996, "lat": 40.8528337, "lon": 26.6377066}, {"type": "node", "id": 5147926997, "lat": 40.8529671, "lon": 26.6377421}, {"type": "node", "id": 5147926998, "lat": 40.8530032, "lon": 26.6376604}, {"type": "node", "id": 5147933515, "lat": 40.8521764, "lon": 26.6358279}, {"type": "node", "id": 5147933516, "lat": 40.8520935, "lon": 26.6357345}, {"type": "node", "id": 5147933517, "lat": 40.8520901, "lon": 26.6357544}, {"type": "node", "id": 5147933518, "lat": 40.8521629, "lon": 26.6358239}, {"type": "node", "id": 5147933519, "lat": 40.8526043, "lon": 26.6358697}, {"type": "node", "id": 5147933520, "lat": 40.8525758, "lon": 26.6358893}, {"type": "node", "id": 5147940883, "lat": 40.8523821, "lon": 26.6364115}, {"type": "node", "id": 5147940884, "lat": 40.8523674, "lon": 26.6365053}, {"type": "node", "id": 5147940885, "lat": 40.8524823, "lon": 26.6365364}, {"type": "node", "id": 5147940886, "lat": 40.852354, "lon": 26.6365999}, {"type": "node", "id": 5147940887, "lat": 40.852445, "lon": 26.6366247}, {"type": "node", "id": 5147940888, "lat": 40.8524566, "lon": 26.6365294}, {"type": "node", "id": 5147940889, "lat": 40.8523808, "lon": 26.6363902}, {"type": "node", "id": 5147940890, "lat": 40.8523634, "lon": 26.6364902}, {"type": "node", "id": 5147940891, "lat": 40.852273, "lon": 26.636461}, {"type": "node", "id": 5147940892, "lat": 40.8522891, "lon": 26.6363637}, {"type": "node", "id": 5147940893, "lat": 40.8523466, "lon": 26.6365929}, {"type": "node", "id": 5147940894, "lat": 40.8522422, "lon": 26.6365628}, {"type": "node", "id": 5147940895, "lat": 40.8522593, "lon": 26.6364571}, {"type": "node", "id": 5147940896, "lat": 40.8518809, "lon": 26.6362597}, {"type": "node", "id": 5147940898, "lat": 40.8518965, "lon": 26.6364419}, {"type": "node", "id": 5147940899, "lat": 40.8518948, "lon": 26.6364543}, {"type": "node", "id": 5147940900, "lat": 40.8519337, "lon": 26.6364636}, {"type": "node", "id": 5147940901, "lat": 40.8519423, "lon": 26.6364004}, {"type": "node", "id": 5147940902, "lat": 40.8519545, "lon": 26.6364033}, {"type": "node", "id": 5147940903, "lat": 40.8519605, "lon": 26.6363589}, {"type": "node", "id": 5147940904, "lat": 40.8519516, "lon": 26.6363568}, {"type": "node", "id": 5147940905, "lat": 40.8519622, "lon": 26.636279}, {"type": "node", "id": 5148353087, "lat": 40.8530976, "lon": 26.6345815}, {"type": "node", "id": 5148353088, "lat": 40.8531422, "lon": 26.6345841}, {"type": "node", "id": 5148353089, "lat": 40.8531306, "lon": 26.6347497}, {"type": "node", "id": 5148353090, "lat": 40.8529692, "lon": 26.634769}, {"type": "node", "id": 5148353091, "lat": 40.8529769, "lon": 26.6346664}, {"type": "node", "id": 5148353092, "lat": 40.8530115, "lon": 26.6346664}, {"type": "node", "id": 5148353093, "lat": 40.8530092, "lon": 26.634704}, {"type": "node", "id": 5148353094, "lat": 40.8530876, "lon": 26.6346959}, {"type": "node", "id": 5154284632, "lat": 40.8535358, "lon": 26.6338661}, {"type": "node", "id": 5178441917, "lat": 40.8539694, "lon": 26.6375532}, {"type": "node", "id": 5178441918, "lat": 40.853841, "lon": 26.6375412}, {"type": "node", "id": 5178441919, "lat": 40.8538362, "lon": 26.6376296}, {"type": "node", "id": 5178441920, "lat": 40.8539646, "lon": 26.6376416}, {"type": "node", "id": 5179174571, "lat": 40.8539224, "lon": 26.6353528}, {"type": "node", "id": 5179174572, "lat": 40.8539669, "lon": 26.6353532}, {"type": "node", "id": 5179174573, "lat": 40.8539226, "lon": 26.6353213}, {"type": "node", "id": 5179174574, "lat": 40.8539671, "lon": 26.6353218}, {"type": "node", "id": 5179566177, "lat": 40.8522115, "lon": 26.635874}, {"type": "node", "id": 5179566178, "lat": 40.8521967, "lon": 26.6358699}, {"type": "node", "id": 5179566179, "lat": 40.8522934, "lon": 26.6359766}, {"type": "node", "id": 5179566180, "lat": 40.8523826, "lon": 26.6359295}, {"type": "node", "id": 5179566181, "lat": 40.8523645, "lon": 26.6358036}, {"type": "node", "id": 5179566182, "lat": 40.8522698, "lon": 26.6357796}, {"type": "node", "id": 5179566183, "lat": 40.8522664, "lon": 26.6358014}, {"type": "node", "id": 5179566184, "lat": 40.8523607, "lon": 26.6358276}, {"type": "node", "id": 5179566185, "lat": 40.8526324, "lon": 26.637154}, {"type": "node", "id": 5179566186, "lat": 40.8526745, "lon": 26.6371497}, {"type": "node", "id": 6372014773, "lat": 40.8541939, "lon": 26.6381376}, {"type": "node", "id": 6372014774, "lat": 40.8543495, "lon": 26.6382642}, {"type": "node", "id": 6372014775, "lat": 40.8544196, "lon": 26.6383305}, {"type": "node", "id": 6394425139, "lat": 40.8538953, "lon": 26.6347824}, {"type": "node", "id": 6394425140, "lat": 40.8538897, "lon": 26.6347253}, {"type": "node", "id": 6394425141, "lat": 40.8543303, "lon": 26.6346681}, {"type": "node", "id": 6394425142, "lat": 40.8543366, "lon": 26.6347347}, {"type": "node", "id": 6537958895, "lat": 40.851934, "lon": 26.6354331}, {"type": "node", "id": 6537958896, "lat": 40.8519316, "lon": 26.6355012}, {"type": "node", "id": 6545890085, "lat": 40.8520911, "lon": 26.6339003}, {"type": "node", "id": 6545890086, "lat": 40.8520923, "lon": 26.6338789}, {"type": "node", "id": 6545890087, "lat": 40.852129, "lon": 26.6340645}, {"type": "node", "id": 6545890088, "lat": 40.8521388, "lon": 26.634128}, {"type": "node", "id": 6545890089, "lat": 40.8521164, "lon": 26.634129}, {"type": "node", "id": 6545890090, "lat": 40.8521157, "lon": 26.6340883}, {"type": "node", "id": 6545890091, "lat": 40.8520876, "lon": 26.6340637}, {"type": "node", "id": 6545890092, "lat": 40.8520877, "lon": 26.6340883}, {"type": "way", "id": 697011688, "nodes": [6553397443, 6553397441, 6553397440, 6553397439, 6553397443]}, {"type": "way", "id": 457351184, "nodes": [4535104966, 4535104967, 4535104968, 4535104969, 4535104970, 4535104971, 4535104972, 4535104973, 4535104974, 4535104975, 4535104976, 4535104977, 4535104978, 4535104979, 4535104980, 4535104981, 5154284631, 5154284629, 4535104983, 4535104984, 4535104966]}, {"type": "way", "id": 526615971, "nodes": [5120957875, 5120957876, 5120957877, 5154284632, 5120957879, 5120957880, 5120957881, 5120957882, 5120957883, 5120957884, 5120957875]}, {"type": "way", "id": 697011689, "nodes": [4533221570, 6553397446, 6553397447, 6553397448, 4533221570]}, {"type": "way", "id": 697011690, "nodes": [6553397450, 6553397451, 6553397452, 6553397453, 6553397450]}]}